{"type":"FeatureCollection","features":[{"type":"Feature","properties":{"codes":["R-3-MAX"],"name":"R-3 Max","color":"#ffff00"},"geometry":{"type":"MultiPolygon","coordinates":[[[[120.968779,14.666344],[120.969,14.6663],[120.969276,14.66641],[120.969805,14.666622],[120.969796,14.666762],[120.969768,14.666845],[120.969718,14.666916],[120.969646,14.666989],[120.969417,14.667181],[120.969331,14.667269],[120.969278,14.667305],[120.969224,14.667329],[120.969224,14.667305],[120.969218,14.66729],[120.969189,14.667261],[120.969165,14.667245],[120.969069,14.667202],[120.968837,14.667121],[120.968744,14.667078],[120.9687,14.66704],[120.968678,14.667012],[120.968614,14.666908],[120.968594,14.666888],[120.968574,14.666878],[120.968556,14.666878],[120.968537,14.666862],[120.968517,14.66683],[120.968496,14.666781],[120.968458,14.666655],[120.968448,14.666596],[120.968443,14.666528],[120.968444,14.666411],[120.968779,14.666344]]],[[[120.96774,14.666837],[120.968,14.6665],[120.968122,14.666476],[120.968304,14.666439],[120.968302,14.66664],[120.968287,14.666741],[120.968259,14.666807],[120.968217,14.666861],[120.968161,14.666904],[120.96812,14.666942],[120.968092,14.666976],[120.968078,14.667005],[120.968073,14.66706],[120.968035,14.66718],[120.968025,14.667224],[120.968024,14.667269],[120.968031,14.667314],[120.968055,14.667399],[120.96806,14.667433],[120.968057,14.667485],[120.968072,14.667581],[120.968158,14.667879],[120.968099,14.667936],[120.967835,14.668172],[120.967693,14.668284],[120.967585,14.668353],[120.967481,14.668402],[120.967299,14.668457],[120.967234,14.668473],[120.96718,14.66848],[120.967114,14.66848],[120.966486,14.668265],[120.966269,14.668151],[120.966254,14.668066],[120.966368,14.66799],[120.96656,14.667932],[120.966622,14.667913],[120.967,14.6678],[120.96774,14.666837]]]]}},{"type":"Feature","properties":{"codes":["C-2"],"name":"C-2","color":"#ff0000"},"geometry":{"type":"MultiPolygon","coordinates":[[[[120.970222,14.668965],[120.970225,14.668995],[120.970216,14.669031],[120.970169,14.669172],[120.9701,14.669356],[120.970055,14.669453],[120.970029,14.669481],[120.966,14.6681],[120.966368,14.66799],[120.966254,14.668066],[120.966269,14.668151],[120.966486,14.668265],[120.967114,14.66848],[120.96718,14.66848],[120.967234,14.668473],[120.967299,14.668457],[120.967481,14.668402],[120.967585,14.668353],[120.967693,14.668284],[120.967835,14.668172],[120.968099,14.667936],[120.968098,14.668037],[120.968103,14.668082],[120.968114,14.668104],[120.96813,14.668116],[120.968152,14.668116],[120.968182,14.668127],[120.968202,14.668164],[120.968214,14.668173],[120.96827,14.66819],[120.968289,14.6682],[120.968326,14.668229],[120.968453,14.668282],[120.968688,14.66837],[120.969825,14.668778],[120.97006,14.668866],[120.970185,14.668918],[120.970201,14.668934],[120.970222,14.668965]]],[[[120.972498,14.669714],[120.972525,14.669716],[120.972551,14.669714],[120.9726,14.669694],[120.972641,14.669685],[120.972699,14.669679],[120.973,14.669679],[120.973,14.670142],[120.973,14.6705],[120.971775,14.67008],[120.97011,14.669509],[120.970204,14.669245],[120.97025,14.669122],[120.97028,14.669054],[120.970305,14.669011],[120.970323,14.668994],[120.970357,14.668971],[120.970388,14.668967],[120.97074,14.669089],[120.97113,14.669234],[120.971248,14.669283],[120.971316,14.669315],[120.971356,14.669348],[120.971362,14.669348],[120.971366,14.669342],[120.971386,14.669336],[120.971422,14.669335],[120.97148,14.669352],[120.972019,14.669557],[120.972127,14.669594],[120.972205,14.669615],[120.97229,14.66963],[120.972322,14.669643],[120.972347,14.669659],[120.972365,14.669679],[120.972395,14.669702],[120.972448,14.669702],[120.972498,14.669714]]]]}},{"type":"Feature","properties":{"codes":["I-2"],"name":"I-2","color":"#a900e6"},"geometry":{"type":"MultiPolygon","coordinates":[[[[120.971,14.666865],[120.971,14.6666],[120.971705,14.666847],[120.972266,14.667043],[120.973,14.6673],[120.973,14.668318],[120.973,14.669679],[120.972699,14.669679],[120.972641,14.669685],[120.9726,14.669694],[120.972551,14.669714],[120.972525,14.669716],[120.972498,14.669714],[120.972448,14.669702],[120.972395,14.669702],[120.972365,14.669679],[120.972347,14.669659],[120.972322,14.669643],[120.97229,14.66963],[120.972205,14.669615],[120.972127,14.669594],[120.972019,14.669557],[120.97148,14.669352],[120.971422,14.669335],[120.971386,14.669336],[120.971366,14.669342],[120.971362,14.669348],[120.971356,14.669348],[120.971316,14.669315],[120.971248,14.669283],[120.97113,14.669234],[120.97074,14.669089],[120.970388,14.668967],[120.970357,14.668971],[120.970323,14.668994],[120.970305,14.669011],[120.97028,14.669054],[120.97025,14.669122],[120.970204,14.669245],[120.97011,14.669509],[120.970071,14.669496],[120.970029,14.669481],[120.970055,14.669453],[120.9701,14.669356],[120.970169,14.669172],[120.970216,14.669031],[120.970225,14.668995],[120.970222,14.668965],[120.970201,14.668934],[120.970185,14.668918],[120.97006,14.668866],[120.969825,14.668778],[120.968688,14.66837],[120.968453,14.668282],[120.968326,14.668229],[120.968289,14.6682],[120.96827,14.66819],[120.968214,14.668173],[120.968202,14.668164],[120.968182,14.668127],[120.968152,14.668116],[120.96813,14.668116],[120.968114,14.668104],[120.968103,14.668082],[120.968098,14.668037],[120.968099,14.667936],[120.968158,14.667879],[120.968482,14.667801],[120.968657,14.667741],[120.96879,14.667672],[120.968948,14.66756],[120.969224,14.667329],[120.969278,14.667305],[120.969331,14.667269],[120.969417,14.667181],[120.969646,14.666989],[120.969718,14.666916],[120.969768,14.666845],[120.969796,14.666762],[120.969805,14.666622],[120.971,14.6671],[120.971,14.666865]],[[120.972508,14.667235],[120.972505,14.667222],[120.972345,14.667102],[120.97217,14.667038],[120.97208,14.667029],[120.972011,14.66705],[120.971955,14.667121],[120.971891,14.667302],[120.971985,14.667472],[120.972049,14.667555],[120.972114,14.667609],[120.97219,14.667651],[120.972349,14.667704],[120.972403,14.667716],[120.972443,14.667717],[120.972485,14.667701],[120.972508,14.667431],[120.972513,14.667306],[120.972508,14.667235]]]]}},{"type":"Feature","properties":{"codes":["INSTITUTIONAL"],"name":"Institutional","color":"#0000ff"},"geometry":{"type":"MultiPolygon","coordinates":[[[[120.968948,14.66756],[120.96879,14.667672],[120.968657,14.667741],[120.968482,14.667801],[120.968158,14.667879],[120.968072,14.667581],[120.968057,14.667485],[120.96806,14.667433],[120.968055,14.667399],[120.968031,14.667314],[120.968024,14.667269],[120.968025,14.667224],[120.968035,14.66718],[120.968073,14.66706],[120.968078,14.667005],[120.968092,14.666976],[120.96812,14.666942],[120.968161,14.666904],[120.968217,14.666861],[120.968259,14.666807],[120.968287,14.666741],[120.968302,14.66664],[120.968304,14.666439],[120.968444,14.666411],[120.968443,14.666528],[120.968448,14.666596],[120.968458,14.666655],[120.968496,14.666781],[120.968517,14.66683],[120.968537,14.666862],[120.968556,14.666878],[120.968574,14.666878],[120.968594,14.666888],[120.968614,14.666908],[120.968678,14.667012],[120.9687,14.66704],[120.968744,14.667078],[120.968837,14.667121],[120.969069,14.667202],[120.969165,14.667245],[120.969189,14.667261],[120.969218,14.66729],[120.969224,14.667305],[120.969224,14.667329],[120.968948,14.66756]]],[[[120.972505,14.667222],[120.972508,14.667235],[120.972513,14.667306],[120.972508,14.667431],[120.972485,14.667701],[120.972443,14.667717],[120.972403,14.667716],[120.972349,14.667704],[120.97219,14.667651],[120.972114,14.667609],[120.972049,14.667555],[120.971985,14.667472],[120.971891,14.667302],[120.971955,14.667121],[120.972011,14.66705],[120.97208,14.667029],[120.97217,14.667038],[120.972345,14.667102],[120.972505,14.667222]]]]}}]}
