{"type":"FeatureCollection","features":[{"type":"Feature","properties":{"codes":["R-2-BASIC","R-2-MAX"],"name":"R-2 Basic or R-2 Max","color":"#ffffb4"},"geometry":{"type":"MultiPolygon","coordinates":[[[[120.950543,14.671971],[120.950492,14.672185],[120.950379,14.672388],[120.950352,14.672724],[120.95,14.6729],[120.949164,14.672984],[120.949008,14.672999],[120.949,14.673],[120.947002,14.674699],[120.947,14.6747],[120.946584,14.674409],[120.946,14.674],[120.945994,14.673999],[120.945602,14.67396],[120.945734,14.673972],[120.945735,14.673936],[120.945797,14.673877],[120.945945,14.673819],[120.946143,14.673653],[120.94618,14.673605],[120.946194,14.673462],[120.94612,14.673426],[120.946022,14.673425],[120.945581,14.673313],[120.945544,14.673289],[120.945546,14.673134],[120.945399,14.673108],[120.945562,14.672691],[120.945575,14.672596],[120.945539,14.672536],[120.945589,14.672453],[120.945663,14.672429],[120.945789,14.672108],[120.945862,14.672108],[120.945948,14.672157],[120.946059,14.672146],[120.946109,14.672003],[120.946036,14.671955],[120.94584,14.671905],[120.945815,14.671881],[120.945829,14.671761],[120.945866,14.671714],[120.945977,14.671715],[120.946027,14.671608],[120.946053,14.671441],[120.946153,14.671286],[120.946239,14.671275],[120.946336,14.671324],[120.946386,14.6713],[120.946474,14.671038],[120.946463,14.670954],[120.946389,14.67093],[120.946365,14.670893],[120.946391,14.670786],[120.946501,14.670775],[120.946783,14.670825],[120.946796,14.67073],[120.946846,14.670695],[120.946835,14.670575],[120.946898,14.670348],[120.947009,14.670361],[120.947241,14.670459],[120.947278,14.670459],[120.947402,14.670257],[120.947537,14.670282],[120.94761,14.670343],[120.947844,14.670369],[120.947965,14.670549],[120.947976,14.670609],[120.948038,14.670633],[120.94805,14.670669],[120.94827,14.670755],[120.948479,14.670745],[120.948613,14.67077],[120.948688,14.670735],[120.948787,14.670628],[120.949045,14.670606],[120.949104,14.67081],[120.949128,14.670858],[120.949177,14.670871],[120.949189,14.670907],[120.949238,14.670919],[120.949754,14.670912],[120.949791,14.67096],[120.949877,14.670972],[120.950061,14.67095],[120.950136,14.670783],[120.950296,14.670809],[120.950332,14.670905],[120.950614,14.670943],[120.950562,14.671182],[120.950574,14.671254],[120.950549,14.671277],[120.950561,14.671349],[120.950548,14.671421],[120.950621,14.671469],[120.95062,14.671541],[120.950681,14.671577],[120.950668,14.671733],[120.950543,14.671971]],[[120.949499,14.671949],[120.949573,14.67189],[120.949611,14.671819],[120.949624,14.671676],[120.949491,14.671435],[120.949467,14.671459],[120.949455,14.671435],[120.949381,14.671434],[120.949282,14.671469],[120.949049,14.671467],[120.949024,14.671539],[120.949022,14.671778],[120.948984,14.671825],[120.949217,14.671947],[120.949499,14.671949]],[[120.95017,14.67113],[120.950182,14.671154],[120.950317,14.671144],[120.950367,14.671096],[120.95022,14.671059],[120.95017,14.671071],[120.95017,14.67113]]]]}},{"type":"Feature","properties":{"codes":["CMP"],"name":"CMP","color":"#a8a800"},"geometry":{"type":"MultiPolygon","coordinates":[[[[120.952,14.6719],[120.951996,14.671902],[120.950352,14.672724],[120.950379,14.672388],[120.950492,14.672185],[120.950543,14.671971],[120.950668,14.671733],[120.950681,14.671577],[120.95062,14.671541],[120.950621,14.671469],[120.950548,14.671421],[120.950561,14.671349],[120.950561,14.671289],[120.950598,14.671278],[120.950599,14.671194],[120.950624,14.671182],[120.950612,14.671087],[120.950624,14.671111],[120.950661,14.671111],[120.950661,14.671087],[120.950772,14.671088],[120.950821,14.671124],[120.951066,14.671162],[120.951139,14.671211],[120.951299,14.671212],[120.95137,14.671144],[120.9517,14.67154],[120.952,14.6719]]]]}},{"type":"Feature","properties":{"codes":["C-1"],"name":"C-1","color":"#ff7f7f"},"geometry":{"type":"MultiPolygon","coordinates":[[[[120.944997,14.669403],[120.945,14.6694],[120.945499,14.669749],[120.946,14.6701],[120.946521,14.669944],[120.94652,14.670022],[120.946483,14.67007],[120.946495,14.670165],[120.946898,14.670348],[120.946835,14.670575],[120.946846,14.670695],[120.946796,14.67073],[120.946783,14.670825],[120.946501,14.670775],[120.946391,14.670786],[120.946365,14.670893],[120.946389,14.67093],[120.946463,14.670954],[120.946474,14.671038],[120.946386,14.6713],[120.946336,14.671324],[120.946239,14.671275],[120.946153,14.671286],[120.946053,14.671441],[120.946027,14.671608],[120.945977,14.671715],[120.945866,14.671714],[120.945829,14.671761],[120.945815,14.671881],[120.94584,14.671905],[120.946036,14.671955],[120.946109,14.672003],[120.946059,14.672146],[120.945948,14.672157],[120.945862,14.672108],[120.945789,14.672108],[120.945663,14.672429],[120.945589,14.672453],[120.945539,14.672536],[120.945575,14.672596],[120.945562,14.672691],[120.945399,14.673108],[120.945546,14.673134],[120.945544,14.673289],[120.945581,14.673313],[120.946022,14.673425],[120.94612,14.673426],[120.946194,14.673462],[120.94618,14.673605],[120.946143,14.673653],[120.945945,14.673819],[120.945797,14.673877],[120.945735,14.673936],[120.945734,14.673972],[120.945602,14.67396],[120.945,14.6739],[120.943474,14.673086],[120.942,14.6723],[120.942004,14.672296],[120.944997,14.669403]]]]}},{"type":"Feature","properties":{"codes":["C-2"],"name":"C-2","color":"#ff0000"},"geometry":{"type":"MultiPolygon","coordinates":[[[[120.949155,14.670619],[120.949202,14.670835],[120.949177,14.670871],[120.949128,14.670858],[120.949104,14.67081],[120.949045,14.670606],[120.948787,14.670628],[120.948688,14.670735],[120.948613,14.67077],[120.948479,14.670745],[120.94827,14.670755],[120.94805,14.670669],[120.948038,14.670633],[120.947976,14.670609],[120.947965,14.670549],[120.947844,14.670369],[120.94761,14.670343],[120.947537,14.670282],[120.947402,14.670257],[120.947278,14.670459],[120.947241,14.670459],[120.947009,14.670361],[120.946898,14.670348],[120.946495,14.670165],[120.946483,14.67007],[120.94652,14.670022],[120.946521,14.669944],[120.947,14.6698],[120.949158,14.670286],[120.949155,14.670619]]],[[[120.950727,14.670693],[120.950677,14.670693],[120.950614,14.670943],[120.950332,14.670905],[120.950296,14.670809],[120.950136,14.670783],[120.950137,14.670652],[120.950175,14.670521],[120.950727,14.670645],[120.950727,14.670693]]]]}},{"type":"Feature","properties":{"codes":["INSTITUTIONAL"],"name":"Institutional","color":"#0000ff"},"geometry":{"type":"MultiPolygon","coordinates":[[[[120.949293,14.670316],[120.950871,14.670671],[120.951,14.6707],[120.95137,14.671144],[120.951299,14.671212],[120.951139,14.671211],[120.951066,14.671162],[120.950821,14.671124],[120.950772,14.671088],[120.950661,14.671087],[120.950661,14.671111],[120.950624,14.671111],[120.950612,14.671087],[120.950624,14.671182],[120.950599,14.671194],[120.950598,14.671278],[120.950561,14.671289],[120.950561,14.671349],[120.950549,14.671277],[120.950574,14.671254],[120.950562,14.671182],[120.950614,14.670943],[120.950677,14.670693],[120.950727,14.670693],[120.950727,14.670645],[120.950175,14.670521],[120.950137,14.670652],[120.950136,14.670783],[120.950061,14.67095],[120.949877,14.670972],[120.949791,14.67096],[120.949754,14.670912],[120.949238,14.670919],[120.949189,14.670907],[120.949177,14.670871],[120.949202,14.670835],[120.949155,14.670619],[120.949158,14.670286],[120.949293,14.670316]]],[[[120.950367,14.671096],[120.950317,14.671144],[120.950182,14.671154],[120.95017,14.67113],[120.95017,14.671071],[120.95022,14.671059],[120.950367,14.671096]]],[[[120.949049,14.671467],[120.949282,14.671469],[120.949381,14.671434],[120.949455,14.671435],[120.949467,14.671459],[120.949491,14.671435],[120.949624,14.671676],[120.949611,14.671819],[120.949573,14.67189],[120.949499,14.671949],[120.949217,14.671947],[120.948984,14.671825],[120.949022,14.671778],[120.949024,14.671539],[120.949049,14.671467]]]]}}]}
