{"type":"FeatureCollection","features":[{"type":"Feature","properties":{"codes":["R-2-BASIC","R-2-MAX"],"name":"R-2 Basic or R-2 Max","color":"#ffffb4"},"geometry":{"type":"MultiPolygon","coordinates":[[[[120.946391,14.677283],[120.946676,14.675958],[120.947,14.67523],[120.947,14.6768],[120.946,14.6777],[120.945957,14.677674],[120.944,14.6765],[120.944003,14.676491],[120.944458,14.676771],[120.944459,14.676628],[120.944535,14.676435],[120.944792,14.676523],[120.944844,14.676523],[120.944874,14.676452],[120.944874,14.676402],[120.944794,14.676351],[120.944794,14.676308],[120.944855,14.676079],[120.94493,14.675979],[120.944953,14.675857],[120.94488,14.675806],[120.944733,14.675784],[120.944534,14.67571],[120.944649,14.675274],[120.944723,14.675231],[120.944718,14.675016],[120.944763,14.674923],[120.944793,14.674916],[120.944823,14.67483],[120.944874,14.674831],[120.944868,14.674723],[120.94492,14.674724],[120.944846,14.674694],[120.944854,14.674601],[120.944884,14.674566],[120.944886,14.674343],[120.944953,14.674322],[120.944968,14.674265],[120.94502,14.67423],[120.945081,14.673972],[120.945383,14.674046],[120.945463,14.674112],[120.945603,14.674142],[120.945611,14.674041],[120.945406,14.673982],[120.945384,14.673939],[120.945423,14.673942],[120.946,14.674],[120.947,14.6747],[120.947,14.675079],[120.94695,14.675079],[120.946845,14.675264],[120.946844,14.675357],[120.94661,14.675951],[120.946594,14.67608],[120.946172,14.677123],[120.946164,14.677202],[120.946317,14.677289],[120.946391,14.677283]]]]}},{"type":"Feature","properties":{"codes":["C-1"],"name":"C-1","color":"#ff7f7f"},"geometry":{"type":"MultiPolygon","coordinates":[[[[120.944653,14.674802],[120.945,14.6739],[120.946,14.674],[120.945423,14.673942],[120.945384,14.673939],[120.945406,14.673982],[120.945611,14.674041],[120.945603,14.674142],[120.945463,14.674112],[120.945383,14.674046],[120.945081,14.673972],[120.94502,14.67423],[120.944968,14.674265],[120.944953,14.674322],[120.944886,14.674343],[120.944884,14.674566],[120.944854,14.674601],[120.944846,14.674694],[120.94492,14.674724],[120.944868,14.674723],[120.944874,14.674831],[120.944823,14.67483],[120.94467,14.674758],[120.944653,14.674802]]],[[[120.944844,14.676523],[120.944792,14.676523],[120.944535,14.676435],[120.944459,14.676628],[120.944458,14.676771],[120.944003,14.676491],[120.944626,14.674873],[120.944763,14.674923],[120.944718,14.675016],[120.944723,14.675231],[120.944649,14.675274],[120.944534,14.67571],[120.944733,14.675784],[120.94488,14.675806],[120.944953,14.675857],[120.94493,14.675979],[120.944855,14.676079],[120.944794,14.676308],[120.944794,14.676351],[120.944874,14.676402],[120.944874,14.676452],[120.944844,14.676523]]]]}},{"type":"Feature","properties":{"codes":["INSTITUTIONAL"],"name":"Institutional","color":"#0000ff"},"geometry":{"type":"MultiPolygon","coordinates":[[[[120.944793,14.674916],[120.944763,14.674923],[120.944626,14.674873],[120.94467,14.674758],[120.944823,14.67483],[120.944793,14.674916]]]]}}]}
