{"type":"FeatureCollection","features":[{"type":"Feature","properties":{"codes":["R-2-BASIC","R-2-MAX"],"name":"R-2 Basic or R-2 Max","color":"#ffffb4"},"geometry":{"type":"MultiPolygon","coordinates":[[[[120.961956,14.667185],[120.961953,14.667266],[120.96193,14.667412],[120.961925,14.667524],[120.961917,14.668182],[120.961759,14.668188],[120.961689,14.668219],[120.961654,14.668276],[120.961635,14.66836],[120.961634,14.668471],[120.961616,14.668556],[120.96158,14.668613],[120.961528,14.668643],[120.961404,14.668657],[120.961367,14.668676],[120.961347,14.668704],[120.961333,14.668767],[120.961298,14.668798],[120.961252,14.668796],[120.961237,14.668782],[120.961218,14.668696],[120.961174,14.668623],[120.961132,14.668601],[120.961082,14.668608],[120.96103,14.668638],[120.960978,14.66869],[120.960926,14.668784],[120.960873,14.668929],[120.960841,14.668986],[120.960804,14.669022],[120.960761,14.669036],[120.960673,14.669031],[120.96064,14.669043],[120.960614,14.669065],[120.960573,14.669121],[120.960517,14.669145],[120.960432,14.669139],[120.960398,14.669126],[120.96038,14.66913],[120.96036,14.669146],[120.960285,14.669242],[120.960238,14.669271],[120.960196,14.669268],[120.960155,14.669244],[120.960106,14.66923],[120.959947,14.669226],[120.959891,14.668881],[120.959872,14.668538],[120.959794,14.668272],[120.959578,14.667434],[120.959425,14.666946],[120.959614,14.666388],[120.959908,14.665539],[120.960322,14.665542],[120.960518,14.665536],[120.960632,14.665521],[120.960711,14.665497],[120.960834,14.66542],[120.960952,14.665379],[120.960965,14.665363],[120.960971,14.665326],[120.960988,14.665308],[120.961057,14.665299],[120.961077,14.66528],[120.961166,14.665239],[120.961203,14.665202],[120.961283,14.665173],[120.961376,14.665099],[120.961424,14.665088],[120.961458,14.665066],[120.961476,14.665049],[120.9615,14.664997],[120.961511,14.664874],[120.961534,14.664854],[120.961544,14.664803],[120.961575,14.664772],[120.96162,14.664758],[120.961697,14.664668],[120.96174,14.664656],[120.961758,14.664637],[120.961771,14.664601],[120.961795,14.664393],[120.961817,14.664347],[120.961849,14.664159],[120.961871,14.663859],[120.96188,14.663809],[120.961888,14.663802],[120.961922,14.663799],[120.962031,14.663821],[120.961869,14.665455],[120.961828,14.665627],[120.961832,14.665663],[120.961859,14.665706],[120.961891,14.665734],[120.96196,14.665761],[120.962019,14.665797],[120.962119,14.665894],[120.962179,14.665984],[120.962343,14.666128],[120.962392,14.666206],[120.962471,14.666244],[120.962537,14.666292],[120.962609,14.666313],[120.962621,14.666326],[120.962627,14.666364],[120.962615,14.66642],[120.962575,14.666488],[120.962538,14.666593],[120.96252,14.66662],[120.962496,14.666636],[120.962466,14.666641],[120.962429,14.666633],[120.962369,14.66664],[120.962327,14.666675],[120.962306,14.666721],[120.962308,14.66677],[120.962321,14.6668],[120.962455,14.666956],[120.962477,14.666992],[120.962488,14.667025],[120.962487,14.667053],[120.962476,14.667075],[120.962454,14.667089],[120.962421,14.667096],[120.962377,14.667095],[120.962305,14.667079],[120.962201,14.667005],[120.962099,14.666968],[120.962012,14.666919],[120.961993,14.666917],[120.961956,14.666932],[120.961917,14.666985],[120.961898,14.667066],[120.961945,14.667123],[120.961956,14.667185]]],[[[120.963006,14.671535],[120.963024,14.671684],[120.963049,14.671736],[120.963106,14.671793],[120.962808,14.672206],[120.961907,14.672193],[120.961778,14.672179],[120.961679,14.672141],[120.961605,14.67207],[120.96152,14.671941],[120.961467,14.671904],[120.961412,14.671754],[120.961334,14.671642],[120.961281,14.671528],[120.961129,14.671285],[120.961107,14.671229],[120.961099,14.67118],[120.96111,14.671097],[120.961137,14.67103],[120.96117,14.670972],[120.961184,14.670886],[120.961165,14.670837],[120.961086,14.670759],[120.961074,14.670717],[120.961089,14.670671],[120.961156,14.670587],[120.96119,14.670483],[120.961217,14.670292],[120.961227,14.670109],[120.96124,14.670059],[120.961263,14.670041],[120.961302,14.670027],[120.96149,14.669997],[120.961598,14.669952],[120.961685,14.669897],[120.961726,14.669881],[120.961835,14.669866],[120.961864,14.66985],[120.961891,14.669826],[120.961934,14.669756],[120.962007,14.669531],[120.962168,14.669572],[120.962293,14.669641],[120.96235,14.669663],[120.962516,14.669713],[120.96262,14.669733],[120.962899,14.669754],[120.963214,14.669757],[120.963184,14.669856],[120.963104,14.669994],[120.96292,14.670391],[120.962829,14.670625],[120.962813,14.670691],[120.962824,14.670761],[120.96291,14.671012],[120.962946,14.671157],[120.962986,14.671243],[120.962997,14.671285],[120.963006,14.671535]]]]}},{"type":"Feature","properties":{"codes":["CMP"],"name":"CMP","color":"#a8a800"},"geometry":{"type":"MultiPolygon","coordinates":[[[[120.965254,14.663249],[120.966,14.6631],[120.965367,14.663416],[120.965,14.6636],[120.965,14.6665],[120.965,14.667033],[120.964954,14.667038],[120.964893,14.667094],[120.964832,14.667113],[120.964594,14.667135],[120.964284,14.667143],[120.964196,14.667153],[120.964152,14.667166],[120.964145,14.667204],[120.964086,14.667274],[120.964063,14.667328],[120.964023,14.667526],[120.963989,14.667924],[120.963988,14.668213],[120.963972,14.668302],[120.963938,14.668331],[120.963929,14.668353],[120.963855,14.668389],[120.963728,14.668518],[120.963701,14.668533],[120.963706,14.668553],[120.963671,14.668607],[120.963601,14.668848],[120.96357,14.668895],[120.96356,14.668985],[120.963511,14.669064],[120.963451,14.669264],[120.963431,14.669299],[120.963426,14.669377],[120.963387,14.669428],[120.963325,14.669597],[120.963272,14.669659],[120.96324,14.669739],[120.963214,14.669757],[120.962899,14.669754],[120.96262,14.669733],[120.962516,14.669713],[120.96235,14.669663],[120.962293,14.669641],[120.962168,14.669572],[120.962007,14.669531],[120.961984,14.669418],[120.961949,14.669329],[120.961866,14.669251],[120.961847,14.669208],[120.961812,14.669172],[120.961811,14.669157],[120.961824,14.669137],[120.961892,14.669085],[120.961935,14.669034],[120.961937,14.66901],[120.961926,14.668989],[120.961918,14.668924],[120.961914,14.668816],[120.961917,14.668182],[120.961925,14.667524],[120.96193,14.667412],[120.961953,14.667266],[120.961956,14.667185],[120.961945,14.667123],[120.961898,14.667066],[120.961917,14.666985],[120.961956,14.666932],[120.961993,14.666917],[120.962012,14.666919],[120.962099,14.666968],[120.962201,14.667005],[120.962305,14.667079],[120.962377,14.667095],[120.962421,14.667096],[120.962454,14.667089],[120.962476,14.667075],[120.962487,14.667053],[120.962488,14.667025],[120.962477,14.666992],[120.962455,14.666956],[120.962321,14.6668],[120.962308,14.66677],[120.962306,14.666721],[120.962327,14.666675],[120.962369,14.66664],[120.962429,14.666633],[120.962466,14.666641],[120.962496,14.666636],[120.96252,14.66662],[120.962538,14.666593],[120.962575,14.666488],[120.962615,14.66642],[120.962627,14.666364],[120.962621,14.666326],[120.962609,14.666313],[120.962537,14.666292],[120.962471,14.666244],[120.962392,14.666206],[120.962343,14.666128],[120.962179,14.665984],[120.962119,14.665894],[120.962019,14.665797],[120.96196,14.665761],[120.961891,14.665734],[120.961859,14.665706],[120.961832,14.665663],[120.961828,14.665627],[120.961869,14.665455],[120.961931,14.665425],[120.961972,14.665331],[120.96204,14.665246],[120.962137,14.664986],[120.962176,14.664911],[120.962248,14.664885],[120.962418,14.664862],[120.962442,14.664851],[120.962469,14.664822],[120.962485,14.664794],[120.96249,14.664762],[120.962478,14.664673],[120.962435,14.664621],[120.962423,14.66458],[120.962418,14.664512],[120.96243,14.664199],[120.962425,14.664129],[120.962414,14.664085],[120.962375,14.66405],[120.962266,14.663993],[120.962207,14.663931],[120.962118,14.663811],[120.962082,14.6638],[120.962031,14.663821],[120.961922,14.663799],[120.961888,14.663802],[120.96188,14.663809],[120.961871,14.663859],[120.961849,14.664159],[120.961817,14.664347],[120.961795,14.664393],[120.961771,14.664601],[120.961758,14.664637],[120.96174,14.664656],[120.961697,14.664668],[120.96162,14.664758],[120.961575,14.664772],[120.961544,14.664803],[120.961534,14.664854],[120.961511,14.664874],[120.9615,14.664997],[120.961476,14.665049],[120.961458,14.665066],[120.961424,14.665088],[120.961376,14.665099],[120.961283,14.665173],[120.961203,14.665202],[120.961166,14.665239],[120.961077,14.66528],[120.961057,14.665299],[120.960988,14.665308],[120.960971,14.665326],[120.960965,14.665363],[120.960952,14.665379],[120.960834,14.66542],[120.960711,14.665497],[120.960632,14.665521],[120.960518,14.665536],[120.960322,14.665542],[120.959908,14.665539],[120.959614,14.666388],[120.961,14.6623],[120.962462,14.662666],[120.965,14.6633],[120.965254,14.663249]]],[[[120.959864,14.674242],[120.959825,14.674256],[120.959765,14.674304],[120.959724,14.674344],[120.959694,14.674388],[120.959673,14.674438],[120.959662,14.674509],[120.959661,14.674635],[120.959199,14.67475],[120.959,14.6748],[120.958643,14.674752],[120.957716,14.674629],[120.957722,14.674217],[120.957737,14.6741],[120.957765,14.674039],[120.957781,14.673961],[120.957826,14.67389],[120.957841,14.673803],[120.957884,14.673685],[120.957899,14.67358],[120.957936,14.673481],[120.957955,14.673289],[120.957994,14.673197],[120.95807,14.672959],[120.958095,14.672931],[120.958117,14.672829],[120.958144,14.672779],[120.958186,14.672722],[120.958193,14.672688],[120.958227,14.672656],[120.958241,14.672597],[120.958262,14.672579],[120.958295,14.672497],[120.958361,14.672424],[120.958379,14.672391],[120.958457,14.672222],[120.958529,14.672135],[120.958541,14.672086],[120.958566,14.672071],[120.958652,14.671932],[120.958681,14.671897],[120.958694,14.671894],[120.958705,14.671845],[120.958786,14.671728],[120.958809,14.671644],[120.958834,14.671616],[120.95893,14.671431],[120.958986,14.671365],[120.959013,14.671287],[120.959098,14.671186],[120.959167,14.67106],[120.959208,14.671027],[120.95926,14.671043],[120.959344,14.671099],[120.959426,14.671116],[120.959531,14.67117],[120.959627,14.671185],[120.959665,14.67121],[120.959669,14.671246],[120.959657,14.671303],[120.959558,14.671565],[120.959526,14.671681],[120.95953,14.671743],[120.959539,14.67177],[120.959571,14.671816],[120.959591,14.671883],[120.959587,14.672025],[120.959593,14.672074],[120.959627,14.672103],[120.959671,14.67212],[120.959743,14.672126],[120.959824,14.672169],[120.95992,14.672184],[120.96,14.672228],[120.960096,14.672243],[120.960183,14.672288],[120.960313,14.672308],[120.960358,14.672291],[120.960397,14.672251],[120.96043,14.672191],[120.960456,14.672108],[120.960486,14.672047],[120.96052,14.672006],[120.960557,14.671986],[120.960597,14.671986],[120.960623,14.672006],[120.960634,14.672045],[120.960629,14.672105],[120.960559,14.67236],[120.960519,14.672452],[120.960495,14.672481],[120.960464,14.672615],[120.960422,14.67269],[120.960384,14.67284],[120.960277,14.673111],[120.96023,14.673334],[120.960206,14.673382],[120.960156,14.673574],[120.960015,14.673986],[120.960005,14.674104],[120.959976,14.67414],[120.9599,14.674186],[120.959864,14.674242]]]]}},{"type":"Feature","properties":{"codes":["C-2"],"name":"C-2","color":"#ff0000"},"geometry":{"type":"MultiPolygon","coordinates":[[[[120.964893,14.667094],[120.964954,14.667038],[120.965,14.667033],[120.965,14.667585],[120.965,14.6679],[120.964724,14.668369],[120.964,14.6696],[120.964,14.670272],[120.964,14.6706],[120.96386,14.670789],[120.963774,14.670905],[120.963605,14.671134],[120.963516,14.671254],[120.963499,14.671277],[120.963443,14.671352],[120.963422,14.671381],[120.963371,14.671449],[120.963345,14.671484],[120.963286,14.671563],[120.963221,14.671652],[120.963132,14.671772],[120.962075,14.673198],[120.962151,14.67309],[120.9621,14.673087],[120.962065,14.673062],[120.961936,14.672865],[120.961831,14.672747],[120.961794,14.672672],[120.961761,14.67258],[120.96163,14.672372],[120.9616,14.672285],[120.961528,14.672199],[120.961508,14.672143],[120.961429,14.672026],[120.961416,14.671997],[120.961404,14.671921],[120.961391,14.6719],[120.961312,14.671831],[120.961289,14.671794],[120.961264,14.671791],[120.961265,14.671751],[120.961241,14.671696],[120.960895,14.671127],[120.960812,14.670959],[120.96079,14.670925],[120.960721,14.670851],[120.960601,14.67064],[120.960572,14.670602],[120.960538,14.670575],[120.96048,14.67055],[120.960451,14.670507],[120.960462,14.670444],[120.960456,14.670408],[120.960285,14.670124],[120.960255,14.670043],[120.960257,14.670005],[120.960237,14.669989],[120.960187,14.66998],[120.960147,14.669945],[120.960073,14.669802],[120.959986,14.669691],[120.9599,14.669512],[120.959937,14.66943],[120.959947,14.669226],[120.960106,14.66923],[120.960155,14.669244],[120.960196,14.669268],[120.960238,14.669271],[120.960285,14.669242],[120.96036,14.669146],[120.96038,14.66913],[120.960398,14.669126],[120.960432,14.669139],[120.960517,14.669145],[120.960573,14.669121],[120.960614,14.669065],[120.96064,14.669043],[120.960673,14.669031],[120.960761,14.669036],[120.960804,14.669022],[120.960841,14.668986],[120.960873,14.668929],[120.960926,14.668784],[120.960978,14.66869],[120.96103,14.668638],[120.961082,14.668608],[120.961132,14.668601],[120.961174,14.668623],[120.961218,14.668696],[120.961237,14.668782],[120.961252,14.668796],[120.961298,14.668798],[120.961333,14.668767],[120.961347,14.668704],[120.961367,14.668676],[120.961404,14.668657],[120.961528,14.668643],[120.96158,14.668613],[120.961616,14.668556],[120.961634,14.668471],[120.961635,14.66836],[120.961654,14.668276],[120.961689,14.668219],[120.961759,14.668188],[120.961917,14.668182],[120.961914,14.668816],[120.961918,14.668924],[120.961926,14.668989],[120.961937,14.66901],[120.961935,14.669034],[120.961892,14.669085],[120.961824,14.669137],[120.961811,14.669157],[120.961812,14.669172],[120.961847,14.669208],[120.961866,14.669251],[120.961949,14.669329],[120.961984,14.669418],[120.962007,14.669531],[120.961934,14.669756],[120.961891,14.669826],[120.961864,14.66985],[120.961835,14.669866],[120.961726,14.669881],[120.961685,14.669897],[120.961598,14.669952],[120.96149,14.669997],[120.961302,14.670027],[120.961263,14.670041],[120.96124,14.670059],[120.961227,14.670109],[120.961217,14.670292],[120.96119,14.670483],[120.961156,14.670587],[120.961089,14.670671],[120.961074,14.670717],[120.961086,14.670759],[120.961165,14.670837],[120.961184,14.670886],[120.96117,14.670972],[120.961137,14.67103],[120.96111,14.671097],[120.961099,14.67118],[120.961107,14.671229],[120.961129,14.671285],[120.961281,14.671528],[120.961334,14.671642],[120.961412,14.671754],[120.961467,14.671904],[120.96152,14.671941],[120.961605,14.67207],[120.961679,14.672141],[120.961778,14.672179],[120.961907,14.672193],[120.962808,14.672206],[120.963106,14.671793],[120.963049,14.671736],[120.963024,14.671684],[120.963006,14.671535],[120.962997,14.671285],[120.962986,14.671243],[120.962946,14.671157],[120.96291,14.671012],[120.962824,14.670761],[120.962813,14.670691],[120.962829,14.670625],[120.96292,14.670391],[120.963104,14.669994],[120.963184,14.669856],[120.963214,14.669757],[120.96324,14.669739],[120.963272,14.669659],[120.963325,14.669597],[120.963387,14.669428],[120.963426,14.669377],[120.963431,14.669299],[120.963451,14.669264],[120.963511,14.669064],[120.96356,14.668985],[120.96357,14.668895],[120.963601,14.668848],[120.963671,14.668607],[120.963706,14.668553],[120.963701,14.668533],[120.963728,14.668518],[120.963855,14.668389],[120.963929,14.668353],[120.963938,14.668331],[120.963972,14.668302],[120.963988,14.668213],[120.963989,14.667924],[120.964023,14.667526],[120.964063,14.667328],[120.964086,14.667274],[120.964145,14.667204],[120.964152,14.667166],[120.964196,14.667153],[120.964284,14.667143],[120.964594,14.667135],[120.964832,14.667113],[120.964893,14.667094]]]]}},{"type":"Feature","properties":{"codes":["CBD"],"name":"CBD","color":"#e60000"},"geometry":{"type":"MultiPolygon","coordinates":[[[[120.955676,14.669254],[120.956,14.6688],[120.956763,14.668647],[120.957321,14.668536],[120.957862,14.668433],[120.957886,14.668815],[120.95802,14.669903],[120.958082,14.670245],[120.958148,14.670473],[120.958218,14.670588],[120.958392,14.670584],[120.958493,14.670561],[120.958701,14.670545],[120.958762,14.67052],[120.958871,14.670497],[120.958884,14.670479],[120.95889,14.670425],[120.958863,14.670304],[120.958806,14.669695],[120.95878,14.669573],[120.958712,14.668935],[120.958675,14.668688],[120.958659,14.668268],[120.958669,14.668266],[120.958862,14.668228],[120.959,14.6682],[120.959183,14.66766],[120.959196,14.667621],[120.959425,14.666946],[120.959578,14.667434],[120.959794,14.668272],[120.959872,14.668538],[120.959891,14.668881],[120.959947,14.669226],[120.959937,14.66943],[120.9599,14.669512],[120.959825,14.669536],[120.959793,14.669554],[120.959778,14.669576],[120.959772,14.669603],[120.959782,14.669663],[120.959828,14.669736],[120.959839,14.669795],[120.95981,14.669859],[120.959745,14.669952],[120.959695,14.670041],[120.959673,14.67017],[120.95958,14.670265],[120.959519,14.670294],[120.959444,14.670315],[120.959433,14.670334],[120.959394,14.670332],[120.959383,14.670355],[120.959358,14.670367],[120.959389,14.670379],[120.959456,14.670366],[120.959499,14.670373],[120.959531,14.670409],[120.959535,14.670469],[120.95949,14.670581],[120.959466,14.670613],[120.959452,14.670619],[120.959408,14.670715],[120.959368,14.670752],[120.959321,14.67085],[120.959228,14.670972],[120.959208,14.671027],[120.959167,14.67106],[120.959098,14.671186],[120.959013,14.671287],[120.958986,14.671365],[120.95893,14.671431],[120.958834,14.671616],[120.958809,14.671644],[120.958786,14.671728],[120.958705,14.671845],[120.958694,14.671894],[120.958681,14.671897],[120.958652,14.671932],[120.958566,14.672071],[120.958541,14.672086],[120.958529,14.672135],[120.958457,14.672222],[120.958379,14.672391],[120.958361,14.672424],[120.958295,14.672497],[120.958262,14.672579],[120.958241,14.672597],[120.958227,14.672656],[120.958193,14.672688],[120.958186,14.672722],[120.958144,14.672779],[120.958117,14.672829],[120.958095,14.672931],[120.95807,14.672959],[120.957994,14.673197],[120.957955,14.673289],[120.957936,14.673481],[120.957899,14.67358],[120.957884,14.673685],[120.957841,14.673803],[120.957826,14.67389],[120.957781,14.673961],[120.957765,14.674039],[120.957737,14.6741],[120.957722,14.674217],[120.957716,14.674629],[120.956565,14.674475],[120.956,14.6744],[120.955512,14.674229],[120.954696,14.673944],[120.954,14.6737],[120.953694,14.673058],[120.95315,14.671914],[120.953069,14.671746],[120.953045,14.671695],[120.953,14.6716],[120.953,14.671189],[120.953,14.670972],[120.953,14.6706],[120.953742,14.670452],[120.954613,14.670277],[120.954721,14.670256],[120.954777,14.670606],[120.954789,14.670789],[120.95481,14.670824],[120.954852,14.670848],[120.954916,14.67086],[120.955072,14.67086],[120.955211,14.670845],[120.955232,14.670789],[120.95524,14.670686],[120.955219,14.670332],[120.955188,14.670073],[120.955169,14.670012],[120.955146,14.669995],[120.955676,14.669254]],[[120.954315,14.671058],[120.954264,14.671034],[120.954217,14.670998],[120.954158,14.670986],[120.954053,14.670991],[120.954021,14.671004],[120.953999,14.671027],[120.953985,14.671071],[120.953975,14.671168],[120.954025,14.671208],[120.954088,14.671236],[120.954206,14.671245],[120.954413,14.671297],[120.954716,14.671341],[120.955579,14.671502],[120.955891,14.671545],[120.956013,14.671575],[120.956031,14.671584],[120.956042,14.6716],[120.956038,14.671623],[120.956019,14.671651],[120.955964,14.671685],[120.955728,14.671776],[120.955524,14.67188],[120.955434,14.671907],[120.955344,14.67196],[120.954797,14.672197],[120.954739,14.672234],[120.95471,14.672237],[120.954672,14.672267],[120.954512,14.672343],[120.954283,14.67243],[120.954259,14.672446],[120.95423,14.672486],[120.954228,14.672502],[120.954252,14.672518],[120.954476,14.67248],[120.955164,14.672325],[120.955281,14.67231],[120.955418,14.67227],[120.95554,14.672255],[120.955747,14.6722],[120.955961,14.672165],[120.956149,14.672115],[120.956348,14.672083],[120.956487,14.672039],[120.956586,14.672031],[120.956871,14.671977],[120.957033,14.671939],[120.957115,14.671906],[120.957236,14.671891],[120.957314,14.671857],[120.957288,14.671809],[120.957258,14.67179],[120.957118,14.671781],[120.957009,14.671742],[120.956867,14.671731],[120.956653,14.671693],[120.956394,14.671637],[120.95628,14.671597],[120.956277,14.671559],[120.956289,14.671543],[120.956563,14.671403],[120.9566,14.671376],[120.956615,14.671356],[120.956608,14.671341],[120.956199,14.671279],[120.954396,14.671074],[120.954315,14.671058]]],[[[120.962066,14.673211],[120.962,14.6733],[120.961698,14.673421],[120.961,14.6737],[120.961,14.674151],[120.961,14.6743],[120.960943,14.674314],[120.960828,14.674343],[120.960827,14.674262],[120.960818,14.67424],[120.960801,14.674229],[120.960789,14.674183],[120.960745,14.674163],[120.960737,14.674143],[120.960682,14.674113],[120.960663,14.674085],[120.960585,14.674056],[120.960521,14.674008],[120.960514,14.673927],[120.96052,14.673863],[120.960603,14.673578],[120.960656,14.67343],[120.96069,14.673362],[120.96077,14.673087],[120.960865,14.672836],[120.961009,14.672368],[120.961071,14.672213],[120.961172,14.671895],[120.961197,14.67184],[120.961223,14.671807],[120.961264,14.671791],[120.961289,14.671794],[120.961312,14.671831],[120.961391,14.6719],[120.961404,14.671921],[120.961416,14.671997],[120.961429,14.672026],[120.961508,14.672143],[120.961528,14.672199],[120.9616,14.672285],[120.96163,14.672372],[120.961761,14.67258],[120.961794,14.672672],[120.961831,14.672747],[120.961936,14.672865],[120.962065,14.673062],[120.9621,14.673087],[120.962151,14.67309],[120.962075,14.673198],[120.962066,14.673211]]]]}},{"type":"Feature","properties":{"codes":["GENERAL-COMMERCIAL"],"name":"General Commercial Zone","color":"#f24d57"},"geometry":{"type":"MultiPolygon","coordinates":[[[[120.959825,14.669536],[120.9599,14.669512],[120.959986,14.669691],[120.960073,14.669802],[120.960147,14.669945],[120.96014,14.669974],[120.960081,14.670036],[120.960002,14.670083],[120.959837,14.670143],[120.959772,14.670179],[120.959673,14.67017],[120.959695,14.670041],[120.959745,14.669952],[120.95981,14.669859],[120.959839,14.669795],[120.959828,14.669736],[120.959782,14.669663],[120.959772,14.669603],[120.959778,14.669576],[120.959793,14.669554],[120.959825,14.669536]]],[[[120.957009,14.671742],[120.957118,14.671781],[120.957258,14.67179],[120.957288,14.671809],[120.957314,14.671857],[120.957236,14.671891],[120.957115,14.671906],[120.957033,14.671939],[120.956871,14.671977],[120.956586,14.672031],[120.956487,14.672039],[120.956348,14.672083],[120.956149,14.672115],[120.955961,14.672165],[120.955747,14.6722],[120.95554,14.672255],[120.955418,14.67227],[120.955281,14.67231],[120.955164,14.672325],[120.954476,14.67248],[120.954252,14.672518],[120.954228,14.672502],[120.95423,14.672486],[120.954259,14.672446],[120.954283,14.67243],[120.954512,14.672343],[120.954672,14.672267],[120.95471,14.672237],[120.954739,14.672234],[120.954797,14.672197],[120.955344,14.67196],[120.955434,14.671907],[120.955524,14.67188],[120.955728,14.671776],[120.955964,14.671685],[120.956019,14.671651],[120.956038,14.671623],[120.956042,14.6716],[120.956031,14.671584],[120.956013,14.671575],[120.955891,14.671545],[120.955579,14.671502],[120.954716,14.671341],[120.954413,14.671297],[120.954206,14.671245],[120.954088,14.671236],[120.954025,14.671208],[120.953975,14.671168],[120.953985,14.671071],[120.953999,14.671027],[120.954021,14.671004],[120.954053,14.670991],[120.954158,14.670986],[120.954217,14.670998],[120.954264,14.671034],[120.954315,14.671058],[120.954396,14.671074],[120.956199,14.671279],[120.956608,14.671341],[120.956615,14.671356],[120.9566,14.671376],[120.956563,14.671403],[120.956289,14.671543],[120.956277,14.671559],[120.95628,14.671597],[120.956394,14.671637],[120.956653,14.671693],[120.956867,14.671731],[120.957009,14.671742]]]]}},{"type":"Feature","properties":{"codes":["INSTITUTIONAL"],"name":"Institutional","color":"#0000ff"},"geometry":{"type":"MultiPolygon","coordinates":[[[[120.962137,14.664986],[120.96204,14.665246],[120.961972,14.665331],[120.961931,14.665425],[120.961869,14.665455],[120.962031,14.663821],[120.962082,14.6638],[120.962118,14.663811],[120.962207,14.663931],[120.962266,14.663993],[120.962375,14.66405],[120.962414,14.664085],[120.962425,14.664129],[120.96243,14.664199],[120.962418,14.664512],[120.962423,14.66458],[120.962435,14.664621],[120.962478,14.664673],[120.96249,14.664762],[120.962485,14.664794],[120.962469,14.664822],[120.962442,14.664851],[120.962418,14.664862],[120.962248,14.664885],[120.962176,14.664911],[120.962137,14.664986]]],[[[120.960498,14.674006],[120.960481,14.673981],[120.960455,14.673979],[120.960087,14.674097],[120.960005,14.674104],[120.960015,14.673986],[120.960156,14.673574],[120.960206,14.673382],[120.96023,14.673334],[120.960277,14.673111],[120.960384,14.67284],[120.960422,14.67269],[120.960464,14.672615],[120.960495,14.672481],[120.960519,14.672452],[120.960559,14.67236],[120.960629,14.672105],[120.960634,14.672045],[120.960623,14.672006],[120.960597,14.671986],[120.960557,14.671986],[120.96052,14.672006],[120.960486,14.672047],[120.960456,14.672108],[120.96043,14.672191],[120.960397,14.672251],[120.960358,14.672291],[120.960313,14.672308],[120.960183,14.672288],[120.960096,14.672243],[120.96,14.672228],[120.95992,14.672184],[120.959824,14.672169],[120.959743,14.672126],[120.959671,14.67212],[120.959627,14.672103],[120.959593,14.672074],[120.959587,14.672025],[120.959591,14.671883],[120.959571,14.671816],[120.959539,14.67177],[120.95953,14.671743],[120.959526,14.671681],[120.959558,14.671565],[120.959657,14.671303],[120.959669,14.671246],[120.959665,14.67121],[120.959627,14.671185],[120.959531,14.67117],[120.959426,14.671116],[120.959344,14.671099],[120.95926,14.671043],[120.959208,14.671027],[120.959228,14.670972],[120.959321,14.67085],[120.959368,14.670752],[120.959408,14.670715],[120.959452,14.670619],[120.959466,14.670613],[120.95949,14.670581],[120.959535,14.670469],[120.959531,14.670409],[120.959499,14.670373],[120.959456,14.670366],[120.959389,14.670379],[120.959358,14.670367],[120.959383,14.670355],[120.959394,14.670332],[120.959433,14.670334],[120.959444,14.670315],[120.959519,14.670294],[120.95958,14.670265],[120.959673,14.67017],[120.959772,14.670179],[120.959837,14.670143],[120.960002,14.670083],[120.960081,14.670036],[120.96014,14.669974],[120.960147,14.669945],[120.960187,14.66998],[120.960237,14.669989],[120.960257,14.670005],[120.960255,14.670043],[120.960285,14.670124],[120.960456,14.670408],[120.960462,14.670444],[120.960451,14.670507],[120.960339,14.670524],[120.960315,14.670538],[120.960281,14.670583],[120.960168,14.670904],[120.96013,14.67099],[120.960102,14.671033],[120.960052,14.671223],[120.960011,14.671293],[120.959982,14.671435],[120.959981,14.671532],[120.960022,14.671553],[120.96017,14.6716],[120.960488,14.671684],[120.960546,14.671676],[120.960571,14.671658],[120.960587,14.671629],[120.960686,14.671367],[120.960709,14.671241],[120.960696,14.671215],[120.960668,14.671191],[120.960531,14.671132],[120.960503,14.67111],[120.96049,14.671087],[120.960495,14.671035],[120.960551,14.670913],[120.960566,14.670833],[120.960555,14.670777],[120.96053,14.670714],[120.960507,14.670673],[120.960485,14.670658],[120.96048,14.67055],[120.960538,14.670575],[120.960572,14.670602],[120.960601,14.67064],[120.960721,14.670851],[120.96079,14.670925],[120.960812,14.670959],[120.960895,14.671127],[120.961241,14.671696],[120.961265,14.671751],[120.961264,14.671791],[120.961223,14.671807],[120.961197,14.67184],[120.961172,14.671895],[120.961071,14.672213],[120.961009,14.672368],[120.960865,14.672836],[120.96077,14.673087],[120.96069,14.673362],[120.960656,14.67343],[120.960603,14.673578],[120.96052,14.673863],[120.960514,14.673927],[120.960521,14.674008],[120.960498,14.674006]]]]}},{"type":"Feature","properties":{"codes":["PARKS"],"name":"Parks and Recreation","color":"#38a800"},"geometry":{"type":"MultiPolygon","coordinates":[[[[120.957886,14.668815],[120.957862,14.668433],[120.957321,14.668536],[120.958607,14.668279],[120.958659,14.668268],[120.958675,14.668688],[120.958712,14.668935],[120.95878,14.669573],[120.958806,14.669695],[120.958863,14.670304],[120.95889,14.670425],[120.958884,14.670479],[120.958871,14.670497],[120.958762,14.67052],[120.958701,14.670545],[120.958493,14.670561],[120.958392,14.670584],[120.958218,14.670588],[120.958148,14.670473],[120.958082,14.670245],[120.95802,14.669903],[120.957886,14.668815]]],[[[120.96013,14.67099],[120.960168,14.670904],[120.960281,14.670583],[120.960315,14.670538],[120.960339,14.670524],[120.960451,14.670507],[120.96048,14.67055],[120.960485,14.670658],[120.960507,14.670673],[120.96053,14.670714],[120.960555,14.670777],[120.960566,14.670833],[120.960551,14.670913],[120.960495,14.671035],[120.96049,14.671087],[120.960503,14.67111],[120.960531,14.671132],[120.960668,14.671191],[120.960696,14.671215],[120.960709,14.671241],[120.960686,14.671367],[120.960587,14.671629],[120.960571,14.671658],[120.960546,14.671676],[120.960488,14.671684],[120.96017,14.6716],[120.960022,14.671553],[120.959981,14.671532],[120.959982,14.671435],[120.960011,14.671293],[120.960052,14.671223],[120.960102,14.671033],[120.96013,14.67099]]]]}},{"type":"Feature","properties":{"codes":["UTILITIES"],"name":"Utilities","color":"#9c9c9c"},"geometry":{"type":"MultiPolygon","coordinates":[[[[120.954789,14.670789],[120.954777,14.670606],[120.954721,14.670256],[120.954738,14.670252],[120.955,14.6702],[120.955146,14.669995],[120.955169,14.670012],[120.955188,14.670073],[120.955219,14.670332],[120.95524,14.670686],[120.955232,14.670789],[120.955211,14.670845],[120.955072,14.67086],[120.954916,14.67086],[120.954852,14.670848],[120.95481,14.670824],[120.954789,14.670789]]],[[[120.960801,14.674229],[120.960818,14.67424],[120.960827,14.674262],[120.960828,14.674343],[120.959661,14.674635],[120.959662,14.674509],[120.959673,14.674438],[120.959694,14.674388],[120.959724,14.674344],[120.959765,14.674304],[120.959825,14.674256],[120.959864,14.674242],[120.9599,14.674186],[120.959976,14.67414],[120.960005,14.674104],[120.960087,14.674097],[120.960455,14.673979],[120.960481,14.673981],[120.960498,14.674006],[120.960521,14.674008],[120.960585,14.674056],[120.960663,14.674085],[120.960682,14.674113],[120.960737,14.674143],[120.960745,14.674163],[120.960789,14.674183],[120.960801,14.674229]]]]}}]}
