{"type":"FeatureCollection","features":[{"type":"Feature","properties":{"codes":["R-2-BASIC","R-2-MAX"],"name":"R-2 Basic or R-2 Max","color":"#ffffb4"},"geometry":{"type":"MultiPolygon","coordinates":[[[[120.95,14.6662],[120.95112,14.665976],[120.952,14.6658],[120.953,14.6658],[120.953,14.6687],[120.953,14.670213],[120.952102,14.670195],[120.951376,14.670074],[120.951346,14.670055],[120.951358,14.669902],[120.951338,14.669873],[120.951269,14.669891],[120.951239,14.670025],[120.951209,14.670053],[120.95115,14.670053],[120.951121,14.670033],[120.951121,14.669976],[120.951182,14.669795],[120.951153,14.669756],[120.951174,14.669575],[120.951145,14.669546],[120.951095,14.669584],[120.951065,14.669727],[120.950976,14.669726],[120.950722,14.669647],[120.950642,14.669733],[120.950583,14.669732],[120.950485,14.669674],[120.950063,14.66967],[120.950053,14.669689],[120.950016,14.669431],[120.949978,14.669344],[120.949988,14.669249],[120.94995,14.669191],[120.94936,14.669167],[120.949341,14.669176],[120.949339,14.669319],[120.94929,14.669376],[120.949015,14.669355],[120.948288,14.669396],[120.94816,14.669366],[120.948081,14.669385],[120.947915,14.669326],[120.948048,14.668753],[120.947637,14.668597],[120.947717,14.668387],[120.947776,14.668368],[120.947896,14.66814],[120.947897,14.668083],[120.94777,14.668024],[120.94779,14.667967],[120.94788,14.667796],[120.947949,14.667767],[120.947959,14.66772],[120.948079,14.667577],[120.948069,14.66751],[120.948138,14.667492],[120.948188,14.667425],[120.948189,14.66731],[120.948278,14.667235],[120.94843,14.666777],[120.948529,14.666644],[120.94856,14.666482],[120.948649,14.666492],[120.948727,14.66655],[120.948854,14.666561],[120.948905,14.66636],[120.948788,14.666283],[120.948809,14.666168],[120.94878,14.66613],[120.948782,14.665919],[120.949068,14.665982],[120.95,14.6662]],[[120.949416,14.668459],[120.949515,14.668432],[120.949908,14.668435],[120.949918,14.66834],[120.949833,14.668014],[120.949834,14.667861],[120.949797,14.667707],[120.949738,14.66764],[120.94973,14.667496],[120.949701,14.667458],[120.949318,14.667445],[120.949306,14.667674],[120.949325,14.667732],[120.949452,14.667733],[120.949491,14.6678],[120.949461,14.667905],[120.949469,14.668077],[120.949351,14.668086],[120.949321,14.668153],[120.949416,14.668459]],[[120.951606,14.667532],[120.951615,14.667561],[120.951821,14.667591],[120.951822,14.667524],[120.951753,14.667505],[120.951724,14.667456],[120.951587,14.667427],[120.951382,14.667262],[120.951324,14.667166],[120.951316,14.667032],[120.951526,14.666642],[120.951635,14.666499],[120.951636,14.666432],[120.951587,14.666432],[120.951509,14.666374],[120.95144,14.666373],[120.951389,14.666507],[120.951171,14.666744],[120.950857,14.666732],[120.950542,14.666767],[120.950483,14.666833],[120.950423,14.666852],[120.950423,14.666919],[120.950461,14.666996],[120.95055,14.666997],[120.950786,14.666922],[120.950953,14.666905],[120.950981,14.667067],[120.95103,14.667096],[120.951069,14.667202],[120.951206,14.667203],[120.951244,14.667309],[120.951429,14.667473],[120.951498,14.667483],[120.951507,14.667541],[120.951606,14.667532]]]]}},{"type":"Feature","properties":{"codes":["C-1"],"name":"C-1","color":"#ff7f7f"},"geometry":{"type":"MultiPolygon","coordinates":[[[[120.949068,14.665982],[120.948782,14.665919],[120.94878,14.66613],[120.948809,14.666168],[120.948788,14.666283],[120.948905,14.66636],[120.948854,14.666561],[120.948727,14.66655],[120.948649,14.666492],[120.94856,14.666482],[120.948529,14.666644],[120.94843,14.666777],[120.948278,14.667235],[120.948189,14.66731],[120.948188,14.667425],[120.948138,14.667492],[120.948069,14.66751],[120.948079,14.667577],[120.947959,14.66772],[120.947949,14.667767],[120.94788,14.667796],[120.94779,14.667967],[120.94777,14.668024],[120.947897,14.668083],[120.947896,14.66814],[120.947776,14.668368],[120.947717,14.668387],[120.947637,14.668597],[120.947578,14.668625],[120.947517,14.668777],[120.947439,14.668777],[120.947243,14.668679],[120.947184,14.668688],[120.947164,14.668736],[120.947134,14.668755],[120.946655,14.66855],[120.946596,14.668549],[120.946526,14.668635],[120.946575,14.668673],[120.946525,14.668759],[120.946534,14.668836],[120.94673,14.668885],[120.946779,14.668933],[120.946887,14.668944],[120.946916,14.668992],[120.946994,14.669002],[120.946934,14.669183],[120.946744,14.669555],[120.946684,14.669602],[120.946684,14.669669],[120.946534,14.669935],[120.946042,14.670087],[120.946,14.6701],[120.945001,14.669401],[120.945,14.6694],[120.945001,14.669399],[120.945001,14.6694],[120.945001,14.669399],[120.947,14.6655],[120.948176,14.665774],[120.949068,14.665982]]]]}},{"type":"Feature","properties":{"codes":["C-2"],"name":"C-2","color":"#ff0000"},"geometry":{"type":"MultiPolygon","coordinates":[[[[120.946042,14.670087],[120.946534,14.669935],[120.946684,14.669669],[120.946684,14.669602],[120.946744,14.669555],[120.946934,14.669183],[120.946994,14.669002],[120.947034,14.668974],[120.946995,14.668897],[120.947016,14.66883],[120.947065,14.668821],[120.947065,14.668793],[120.947104,14.668822],[120.947144,14.668784],[120.947134,14.668755],[120.947164,14.668736],[120.947133,14.668889],[120.947054,14.668955],[120.947063,14.669012],[120.947122,14.66907],[120.947709,14.669286],[120.947915,14.669326],[120.948081,14.669385],[120.94816,14.669366],[120.948288,14.669396],[120.949015,14.669355],[120.94929,14.669376],[120.949339,14.669319],[120.949341,14.669176],[120.94936,14.669167],[120.94995,14.669191],[120.949988,14.669249],[120.949978,14.669344],[120.950016,14.669431],[120.950053,14.669689],[120.950063,14.66967],[120.950485,14.669674],[120.950583,14.669732],[120.950642,14.669733],[120.950722,14.669647],[120.950976,14.669726],[120.951065,14.669727],[120.951095,14.669584],[120.951145,14.669546],[120.951174,14.669575],[120.951153,14.669756],[120.951182,14.669795],[120.951121,14.669976],[120.951121,14.670033],[120.95115,14.670053],[120.951209,14.670053],[120.951239,14.670025],[120.951269,14.669891],[120.951338,14.669873],[120.951358,14.669902],[120.951346,14.670055],[120.951376,14.670074],[120.952102,14.670195],[120.953,14.670213],[120.953,14.6706],[120.953,14.6716],[120.952,14.6719],[120.951,14.6707],[120.947037,14.669808],[120.947,14.6698],[120.946,14.6701],[120.946042,14.670087]]]]}},{"type":"Feature","properties":{"codes":["INSTITUTIONAL"],"name":"Institutional","color":"#0000ff"},"geometry":{"type":"MultiPolygon","coordinates":[[[[120.949833,14.668014],[120.949918,14.66834],[120.949908,14.668435],[120.949515,14.668432],[120.949416,14.668459],[120.949321,14.668153],[120.949351,14.668086],[120.949469,14.668077],[120.949461,14.667905],[120.949491,14.6678],[120.949452,14.667733],[120.949325,14.667732],[120.949306,14.667674],[120.949318,14.667445],[120.949701,14.667458],[120.94973,14.667496],[120.949738,14.66764],[120.949797,14.667707],[120.949834,14.667861],[120.949833,14.668014]]],[[[120.947016,14.66883],[120.946995,14.668897],[120.947034,14.668974],[120.946994,14.669002],[120.946916,14.668992],[120.946887,14.668944],[120.946779,14.668933],[120.94673,14.668885],[120.946534,14.668836],[120.946525,14.668759],[120.946575,14.668673],[120.946526,14.668635],[120.946596,14.668549],[120.946655,14.66855],[120.947134,14.668755],[120.947144,14.668784],[120.947104,14.668822],[120.947065,14.668793],[120.947065,14.668821],[120.947016,14.66883]]],[[[120.947578,14.668625],[120.947637,14.668597],[120.948048,14.668753],[120.947915,14.669326],[120.947709,14.669286],[120.947122,14.66907],[120.947063,14.669012],[120.947054,14.668955],[120.947133,14.668889],[120.947164,14.668736],[120.947184,14.668688],[120.947243,14.668679],[120.947439,14.668777],[120.947517,14.668777],[120.947578,14.668625]]]]}}]}
