{"type":"FeatureCollection","features":[{"type":"Feature","properties":{"codes":["R-2-BASIC","R-2-MAX"],"name":"R-2 Basic or R-2 Max","color":"#ffffb4"},"geometry":{"type":"MultiPolygon","coordinates":[[[[120.945713,14.678131],[120.945747,14.67808],[120.945831,14.677953],[120.945836,14.677947],[120.945888,14.677867],[120.945914,14.67783],[120.945966,14.677751],[120.946,14.6777],[120.946217,14.677504],[120.946864,14.676922],[120.947,14.6768],[120.947012,14.676808],[120.947033,14.676823],[120.947058,14.676841],[120.947144,14.676901],[120.947158,14.67691],[120.947326,14.677028],[120.947343,14.67704],[120.947417,14.677092],[120.947426,14.677098],[120.947623,14.677236],[120.947632,14.677243],[120.94792,14.677444],[120.947922,14.677445],[120.949987,14.678891],[120.95,14.6789],[120.949963,14.678928],[120.94981,14.679043],[120.949772,14.679071],[120.94969,14.679133],[120.949635,14.679173],[120.94954,14.679245],[120.949503,14.679272],[120.949433,14.679325],[120.94936,14.67938],[120.949276,14.679443],[120.94923,14.679477],[120.949171,14.679522],[120.949094,14.679579],[120.949021,14.679634],[120.948945,14.679691],[120.948854,14.679759],[120.948763,14.679828],[120.94861,14.679942],[120.94848,14.68004],[120.948356,14.680133],[120.948269,14.680198],[120.94823,14.680227],[120.948132,14.680301],[120.94805,14.680362],[120.948008,14.680394],[120.948,14.6804],[120.947983,14.680436],[120.947977,14.680448],[120.947925,14.680558],[120.947885,14.680642],[120.947859,14.680696],[120.947859,14.680697],[120.947804,14.680811],[120.947773,14.680876],[120.947677,14.681079],[120.947655,14.681124],[120.947529,14.68139],[120.947504,14.681442],[120.947401,14.681658],[120.947386,14.68169],[120.947273,14.681927],[120.947267,14.681938],[120.947,14.6825],[120.947,14.6832],[120.947736,14.683936],[120.948,14.6842],[120.948,14.684416],[120.948,14.684911],[120.945122,14.684887],[120.944453,14.68489],[120.944199,14.684906],[120.943807,14.684892],[120.943753,14.68488],[120.943704,14.684848],[120.943641,14.684838],[120.943563,14.684762],[120.943499,14.68474],[120.94344,14.684682],[120.943421,14.684623],[120.943376,14.684606],[120.943344,14.684525],[120.943258,14.684489],[120.943046,14.684306],[120.942951,14.684254],[120.942794,14.684081],[120.942782,14.683975],[120.94283,14.683923],[120.942846,14.683847],[120.942889,14.683798],[120.942891,14.683739],[120.942864,14.683642],[120.942813,14.68362],[120.942782,14.683582],[120.942661,14.68354],[120.942529,14.683413],[120.942404,14.683427],[120.94225,14.683355],[120.942169,14.683281],[120.942022,14.68314],[120.941964,14.683003],[120.941942,14.682985],[120.941934,14.682899],[120.941915,14.682877],[120.941882,14.682871],[120.941879,14.682848],[120.94188,14.682844],[120.941956,14.6828],[120.94199,14.682781],[120.942099,14.682718],[120.94214,14.682695],[120.942245,14.682634],[120.942289,14.682609],[120.942391,14.68255],[120.942438,14.682523],[120.942537,14.682466],[120.942588,14.682437],[120.942695,14.682376],[120.942751,14.682343],[120.942837,14.682293],[120.942893,14.682262],[120.943,14.6822],[120.945,14.6792],[120.945623,14.678266],[120.945626,14.67826],[120.945713,14.678131]]],[[[120.941764,14.686209],[120.941673,14.686268],[120.941573,14.686369],[120.941497,14.686411],[120.941484,14.686454],[120.941379,14.686555],[120.941355,14.686631],[120.941154,14.68686],[120.94112,14.686935],[120.941102,14.687037],[120.9411,14.687231],[120.940885,14.687198],[120.940852,14.68718],[120.940812,14.687104],[120.940597,14.687065],[120.940423,14.687001],[120.940169,14.686781],[120.94011,14.686758],[120.940052,14.686692],[120.939991,14.68667],[120.939931,14.686621],[120.939893,14.686539],[120.939816,14.686455],[120.939812,14.686359],[120.939872,14.686244],[120.940039,14.686242],[120.940078,14.686225],[120.940084,14.686192],[120.940108,14.686189],[120.940243,14.686129],[120.940405,14.685991],[120.940485,14.685893],[120.940525,14.685762],[120.940531,14.685739],[120.940614,14.685718],[120.940653,14.685654],[120.940725,14.685628],[120.940759,14.685585],[120.940768,14.685544],[120.940846,14.685498],[120.940859,14.685453],[120.940964,14.685327],[120.940972,14.68525],[120.941112,14.685201],[120.941146,14.685158],[120.941155,14.685117],[120.941233,14.685066],[120.941249,14.685001],[120.941295,14.684941],[120.941401,14.684861],[120.941484,14.684842],[120.94153,14.68467],[120.941619,14.684564],[120.941633,14.684515],[120.941702,14.684433],[120.941749,14.684326],[120.941858,14.68422],[120.941874,14.684177],[120.941984,14.68414],[120.94199,14.684163],[120.94206,14.684173],[120.942138,14.684217],[120.942407,14.684235],[120.942506,14.684281],[120.942532,14.684312],[120.942542,14.684371],[120.942403,14.684537],[120.942393,14.684606],[120.942414,14.684682],[120.942533,14.684746],[120.942628,14.68484],[120.942671,14.684933],[120.942726,14.684998],[120.942753,14.685121],[120.942796,14.68516],[120.942805,14.6852],[120.942888,14.685258],[120.942916,14.685337],[120.942971,14.685408],[120.943059,14.685435],[120.943319,14.685454],[120.94335,14.685465],[120.943375,14.685499],[120.943386,14.685591],[120.943369,14.685635],[120.943296,14.68566],[120.943268,14.685713],[120.943218,14.685733],[120.943201,14.685783],[120.943183,14.685793],[120.943175,14.685879],[120.943152,14.685908],[120.94314,14.686008],[120.943122,14.686026],[120.943111,14.686155],[120.943104,14.686176],[120.943067,14.686198],[120.943051,14.686326],[120.943043,14.686348],[120.943006,14.686369],[120.942988,14.686525],[120.942964,14.686559],[120.94289,14.686555],[120.942832,14.686504],[120.942758,14.686489],[120.942731,14.686453],[120.942676,14.686433],[120.942616,14.686351],[120.942544,14.6863],[120.942351,14.686257],[120.942282,14.686212],[120.942239,14.686204],[120.942192,14.686161],[120.94198,14.686154],[120.94195,14.686173],[120.941764,14.686209]]],[[[120.943891,14.687708],[120.943872,14.687725],[120.943859,14.687876],[120.943841,14.687895],[120.943832,14.688003],[120.943806,14.688051],[120.943798,14.688137],[120.943779,14.688155],[120.943769,14.688287],[120.943724,14.688386],[120.943709,14.688746],[120.943461,14.688679],[120.943304,14.688601],[120.942984,14.688334],[120.942546,14.687895],[120.942487,14.687846],[120.942432,14.687824],[120.942334,14.68773],[120.942342,14.687461],[120.942385,14.687371],[120.942506,14.687234],[120.942991,14.686789],[120.943378,14.686797],[120.943486,14.686827],[120.943504,14.686845],[120.943698,14.686863],[120.943758,14.686903],[120.943787,14.68698],[120.943895,14.687089],[120.943949,14.687204],[120.943952,14.687441],[120.943933,14.687466],[120.943925,14.687573],[120.943899,14.687622],[120.943891,14.687708]]],[[[120.930451,14.695868],[120.930404,14.69581],[120.930365,14.695609],[120.93041,14.69557],[120.930587,14.695588],[120.930652,14.695653],[120.930717,14.695675],[120.930777,14.695738],[120.930809,14.695836],[120.930786,14.695921],[120.930714,14.695969],[120.930612,14.695974],[120.930534,14.695901],[120.930451,14.695868]]]]}},{"type":"Feature","properties":{"codes":["R-3-BASIC"],"name":"R-3 Basic","color":"#ffff78"},"geometry":{"type":"MultiPolygon","coordinates":[[[[120.941223,14.683222],[120.941243,14.68321],[120.941369,14.683138],[120.941393,14.683124],[120.94153,14.683045],[120.941557,14.68303],[120.941859,14.682856],[120.94188,14.682844],[120.941879,14.682848],[120.941882,14.682871],[120.941915,14.682877],[120.941934,14.682899],[120.941942,14.682985],[120.941964,14.683003],[120.942022,14.68314],[120.942169,14.683281],[120.942169,14.683313],[120.94213,14.683372],[120.941877,14.68359],[120.941884,14.683693],[120.942075,14.683915],[120.942058,14.683979],[120.941991,14.684065],[120.941984,14.68414],[120.941874,14.684177],[120.941858,14.68422],[120.941749,14.684326],[120.941702,14.684433],[120.941633,14.684515],[120.941619,14.684564],[120.94153,14.68467],[120.941484,14.684842],[120.941401,14.684861],[120.941295,14.684941],[120.941249,14.685001],[120.941233,14.685066],[120.941155,14.685117],[120.941146,14.685158],[120.941112,14.685201],[120.940972,14.68525],[120.940924,14.685199],[120.94091,14.685144],[120.940866,14.685107],[120.940839,14.685046],[120.94077,14.68501],[120.940622,14.684874],[120.940515,14.684807],[120.940468,14.684797],[120.940383,14.684818],[120.940223,14.684947],[120.940134,14.684961],[120.940046,14.685009],[120.940008,14.685089],[120.940006,14.685281],[120.940042,14.685371],[120.940108,14.685447],[120.940118,14.685492],[120.940162,14.685528],[120.940176,14.685578],[120.94022,14.685614],[120.940242,14.68567],[120.940281,14.685678],[120.940324,14.685721],[120.94049,14.685739],[120.940525,14.685762],[120.940485,14.685893],[120.940405,14.685991],[120.940243,14.686129],[120.940108,14.686189],[120.940102,14.686024],[120.940066,14.685977],[120.940011,14.685952],[120.939957,14.685833],[120.939922,14.685793],[120.939792,14.685745],[120.939576,14.685732],[120.939541,14.685752],[120.939493,14.685753],[120.939493,14.685737],[120.939455,14.685721],[120.939287,14.685694],[120.939281,14.68557],[120.939216,14.685478],[120.939084,14.685434],[120.93891,14.685449],[120.938858,14.685353],[120.938768,14.68534],[120.938751,14.685323],[120.938668,14.685333],[120.938611,14.685358],[120.938557,14.685415],[120.938442,14.685466],[120.938412,14.68551],[120.938316,14.685513],[120.938239,14.685507],[120.938148,14.68544],[120.938001,14.685381],[120.937793,14.685197],[120.937733,14.685105],[120.937693,14.685],[120.937674,14.684851],[120.937677,14.684566],[120.937947,14.684553],[120.938403,14.68453],[120.938533,14.684523],[120.938547,14.684672],[120.93863,14.6847],[120.938699,14.684755],[120.938845,14.684777],[120.938869,14.684794],[120.939046,14.684776],[120.93909,14.684753],[120.939098,14.684724],[120.939187,14.684653],[120.93921,14.684535],[120.939211,14.684378],[120.940346,14.683726],[120.940347,14.683725],[120.940493,14.683642],[120.940497,14.683639],[120.940639,14.683558],[120.940646,14.683554],[120.940785,14.683474],[120.940795,14.683468],[120.940931,14.68339],[120.940945,14.683382],[120.941077,14.683306],[120.941094,14.683296],[120.941223,14.683222]]],[[[120.941799,14.690897],[120.941784,14.690914],[120.941568,14.691146],[120.941546,14.69117],[120.941345,14.691388],[120.941338,14.691395],[120.941169,14.691577],[120.941105,14.691646],[120.941118,14.691621],[120.940969,14.691608],[120.940905,14.691565],[120.940862,14.691557],[120.940822,14.691514],[120.940703,14.691491],[120.940653,14.691455],[120.940556,14.691424],[120.940247,14.691145],[120.940145,14.691081],[120.939977,14.690907],[120.939916,14.690882],[120.93985,14.690827],[120.939752,14.690719],[120.939738,14.690672],[120.939637,14.690612],[120.939469,14.690446],[120.939415,14.690354],[120.939332,14.690326],[120.939298,14.690261],[120.939194,14.690147],[120.939058,14.69006],[120.938729,14.689756],[120.938662,14.689725],[120.938568,14.689643],[120.938484,14.689598],[120.938385,14.689588],[120.938331,14.689604],[120.938218,14.689683],[120.938067,14.689832],[120.937997,14.689871],[120.937969,14.689952],[120.937812,14.690128],[120.937782,14.69019],[120.937511,14.690452],[120.937447,14.690562],[120.937347,14.690656],[120.937313,14.690715],[120.937213,14.690725],[120.937158,14.690714],[120.937111,14.690631],[120.937034,14.690601],[120.936891,14.690493],[120.936766,14.690536],[120.936598,14.69068],[120.936515,14.690771],[120.936481,14.690846],[120.936425,14.690912],[120.936407,14.691008],[120.936418,14.691059],[120.936462,14.6911],[120.936469,14.691138],[120.936542,14.691171],[120.936617,14.691254],[120.936621,14.691372],[120.936534,14.691495],[120.936219,14.691794],[120.936115,14.691935],[120.935851,14.692187],[120.935582,14.692394],[120.935113,14.692842],[120.934918,14.693073],[120.934695,14.693279],[120.934653,14.693363],[120.934561,14.693409],[120.934557,14.693434],[120.934451,14.693553],[120.934027,14.693973],[120.933958,14.694076],[120.933824,14.694197],[120.93379,14.694274],[120.933692,14.694321],[120.933616,14.694383],[120.933498,14.694506],[120.933459,14.694577],[120.933095,14.694922],[120.933055,14.694991],[120.932868,14.695173],[120.932828,14.695257],[120.93268,14.695339],[120.932581,14.695428],[120.932511,14.695507],[120.932475,14.695573],[120.932418,14.695599],[120.932408,14.695638],[120.932341,14.695695],[120.932306,14.695765],[120.932045,14.69601],[120.931965,14.696127],[120.931709,14.696365],[120.931633,14.696401],[120.931573,14.696465],[120.931529,14.696473],[120.931484,14.696505],[120.931394,14.69666],[120.931322,14.696699],[120.931027,14.696971],[120.930869,14.697133],[120.930825,14.697209],[120.930725,14.697316],[120.930314,14.697579],[120.929858,14.698013],[120.929701,14.698107],[120.929613,14.698195],[120.929515,14.698245],[120.929448,14.698319],[120.92942,14.698382],[120.929236,14.698569],[120.929122,14.698666],[120.929046,14.698701],[120.928987,14.698765],[120.928928,14.698786],[120.928868,14.69885],[120.928815,14.69887],[120.92861,14.699069],[120.928503,14.69913],[120.92833,14.699296],[120.928249,14.69941],[120.92814,14.699455],[120.928127,14.699475],[120.928061,14.699487],[120.928036,14.69958],[120.927969,14.699665],[120.927858,14.699724],[120.927798,14.699788],[120.927752,14.6998],[120.92764,14.699905],[120.927561,14.699936],[120.927527,14.700052],[120.927501,14.700084],[120.927334,14.700126],[120.927108,14.700093],[120.927055,14.700048],[120.927048,14.700012],[120.927045,14.699967],[120.927079,14.699903],[120.927212,14.699782],[120.927257,14.699702],[120.927358,14.699595],[120.927508,14.699495],[120.927521,14.69945],[120.927588,14.699375],[120.927712,14.699303],[120.928103,14.698937],[120.928198,14.698828],[120.928215,14.698785],[120.92827,14.698743],[120.928343,14.698634],[120.928529,14.698467],[120.928635,14.69833],[120.929333,14.697651],[120.929378,14.697584],[120.929284,14.697403],[120.929292,14.697335],[120.929329,14.697269],[120.929442,14.697165],[120.929463,14.697115],[120.929507,14.697102],[120.929613,14.696994],[120.929714,14.696932],[120.929727,14.696887],[120.929794,14.696813],[120.929916,14.696749],[120.929972,14.6967],[120.930051,14.696557],[120.930519,14.696107],[120.930564,14.696023],[120.930612,14.695974],[120.930714,14.695969],[120.930786,14.695921],[120.930809,14.695836],[120.930777,14.695738],[120.930717,14.695675],[120.930652,14.695653],[120.930587,14.695588],[120.93041,14.69557],[120.930531,14.695451],[120.930565,14.695378],[120.930633,14.695314],[120.930688,14.695142],[120.93073,14.695087],[120.930779,14.694951],[120.930818,14.694939],[120.930851,14.694873],[120.930927,14.694809],[120.931001,14.694665],[120.931051,14.694633],[120.931119,14.694621],[120.931182,14.694577],[120.931266,14.694486],[120.931276,14.69443],[120.931309,14.694447],[120.931336,14.694442],[120.931366,14.694388],[120.931485,14.694328],[120.931873,14.694],[120.931925,14.693977],[120.932089,14.693948],[120.932113,14.693927],[120.932222,14.693912],[120.932254,14.693874],[120.932337,14.693828],[120.932348,14.693785],[120.932399,14.693727],[120.932528,14.69366],[120.932618,14.693467],[120.932777,14.693298],[120.932812,14.693227],[120.932902,14.693149],[120.932937,14.693079],[120.933049,14.692979],[120.933075,14.692913],[120.933142,14.692835],[120.933152,14.692792],[120.933204,14.692746],[120.933211,14.692708],[120.933256,14.692691],[120.933277,14.6926],[120.933407,14.692493],[120.933422,14.692448],[120.9335,14.692377],[120.933515,14.692329],[120.933627,14.692208],[120.933672,14.692121],[120.933739,14.692064],[120.93375,14.692025],[120.933819,14.692007],[120.933879,14.691907],[120.933958,14.69189],[120.93401,14.691855],[120.934161,14.691829],[120.934232,14.691765],[120.934324,14.691739],[120.934404,14.691665],[120.934438,14.691582],[120.934475,14.691538],[120.934487,14.691479],[120.934465,14.691425],[120.934371,14.691302],[120.934341,14.691157],[120.934233,14.69101],[120.934227,14.690917],[120.93425,14.690821],[120.934404,14.690748],[120.934433,14.690711],[120.934485,14.690697],[120.934524,14.690654],[120.934602,14.690639],[120.934693,14.690573],[120.934805,14.690528],[120.934949,14.690393],[120.93501,14.690361],[120.935012,14.690275],[120.935055,14.690232],[120.935065,14.690166],[120.935085,14.690154],[120.935119,14.690064],[120.935192,14.689993],[120.935215,14.689895],[120.935298,14.689838],[120.935326,14.689801],[120.935376,14.689787],[120.935425,14.689698],[120.935619,14.689649],[120.935717,14.689577],[120.935963,14.689486],[120.9361,14.689376],[120.936171,14.689346],[120.936253,14.68926],[120.93631,14.689238],[120.936546,14.689014],[120.936683,14.688967],[120.93672,14.688924],[120.936799,14.688898],[120.9369,14.688829],[120.93696,14.688856],[120.93708,14.688854],[120.937261,14.688769],[120.937422,14.688722],[120.937494,14.688676],[120.937561,14.688607],[120.937622,14.688579],[120.937639,14.68852],[120.937713,14.688517],[120.937767,14.688467],[120.937808,14.688458],[120.937854,14.688384],[120.93802,14.688227],[120.938119,14.688033],[120.938309,14.687839],[120.938354,14.687766],[120.938371,14.687696],[120.938431,14.687662],[120.938513,14.68753],[120.938626,14.687406],[120.938821,14.68723],[120.938879,14.687207],[120.938907,14.687141],[120.938968,14.687084],[120.939057,14.687064],[120.939148,14.686998],[120.939268,14.686947],[120.939291,14.686895],[120.939499,14.686675],[120.939531,14.686607],[120.939598,14.68655],[120.939632,14.686477],[120.939754,14.686367],[120.939812,14.686359],[120.939816,14.686455],[120.939893,14.686539],[120.939931,14.686621],[120.939991,14.68667],[120.940052,14.686692],[120.94011,14.686758],[120.940169,14.686781],[120.940423,14.687001],[120.940597,14.687065],[120.940812,14.687104],[120.940852,14.68718],[120.940885,14.687198],[120.9411,14.687231],[120.941204,14.687329],[120.941377,14.687429],[120.941462,14.687523],[120.941547,14.687566],[120.941605,14.687632],[120.941649,14.687641],[120.941713,14.687685],[120.941835,14.687698],[120.941871,14.68772],[120.941982,14.687728],[120.942029,14.687748],[120.942334,14.68773],[120.942432,14.687824],[120.942487,14.687846],[120.942546,14.687895],[120.942984,14.688334],[120.943304,14.688601],[120.943461,14.688679],[120.943709,14.688746],[120.944001,14.689035],[120.943985,14.689058],[120.943856,14.689129],[120.94381,14.689154],[120.943656,14.689239],[120.943599,14.689271],[120.943456,14.689349],[120.943387,14.689387],[120.943256,14.689459],[120.943149,14.689518],[120.943055,14.68957],[120.943,14.6896],[120.942908,14.689699],[120.942742,14.689878],[120.942731,14.68989],[120.942484,14.690157],[120.942469,14.690174],[120.942253,14.690406],[120.942231,14.69043],[120.942057,14.690618],[120.942047,14.69063],[120.941799,14.690897]],[[120.930824,14.696591],[120.930879,14.696607],[120.930979,14.696603],[120.931123,14.696532],[120.931182,14.696481],[120.931237,14.696386],[120.931348,14.696308],[120.931399,14.696226],[120.931488,14.696148],[120.931496,14.696096],[120.931321,14.695907],[120.931196,14.69585],[120.931146,14.695883],[120.931,14.695934],[120.930891,14.696077],[120.930797,14.696126],[120.930748,14.696231],[120.930691,14.696286],[120.930638,14.696404],[120.930715,14.696434],[120.930781,14.696488],[120.930824,14.696591]],[[120.93245,14.694104],[120.93236,14.694124],[120.932285,14.694215],[120.932279,14.694296],[120.932303,14.6943],[120.932308,14.694332],[120.932341,14.694345],[120.932485,14.694317],[120.932533,14.694273],[120.932546,14.694155],[120.932474,14.694129],[120.93245,14.694104]]]]}},{"type":"Feature","properties":{"codes":["C-1"],"name":"C-1","color":"#ff7f7f"},"geometry":{"type":"MultiPolygon","coordinates":[[[[120.948,14.685],[120.945576,14.685889],[120.945556,14.685896],[120.94536,14.685968],[120.945301,14.68599],[120.945,14.6861],[120.945,14.687],[120.945,14.688129],[120.945,14.6885],[120.944968,14.688518],[120.944078,14.689007],[120.943985,14.689058],[120.944001,14.689035],[120.943709,14.688746],[120.943724,14.688386],[120.943769,14.688287],[120.943779,14.688155],[120.943798,14.688137],[120.943806,14.688051],[120.943832,14.688003],[120.943841,14.687895],[120.943859,14.687876],[120.943872,14.687725],[120.943891,14.687708],[120.943899,14.687622],[120.943925,14.687573],[120.943933,14.687466],[120.943952,14.687441],[120.943949,14.687204],[120.943895,14.687089],[120.943787,14.68698],[120.943758,14.686903],[120.943698,14.686863],[120.943504,14.686845],[120.943486,14.686827],[120.943378,14.686797],[120.942991,14.686789],[120.943012,14.686715],[120.942967,14.686632],[120.942964,14.686559],[120.942988,14.686525],[120.943006,14.686369],[120.943043,14.686348],[120.943051,14.686326],[120.943067,14.686198],[120.943104,14.686176],[120.943111,14.686155],[120.943122,14.686026],[120.94314,14.686008],[120.943152,14.685908],[120.943175,14.685879],[120.943183,14.685793],[120.943201,14.685783],[120.943218,14.685733],[120.943268,14.685713],[120.943296,14.68566],[120.943369,14.685635],[120.943386,14.685591],[120.943375,14.685499],[120.94335,14.685465],[120.943319,14.685454],[120.943059,14.685435],[120.942971,14.685408],[120.942916,14.685337],[120.942888,14.685258],[120.942805,14.6852],[120.942796,14.68516],[120.942753,14.685121],[120.942726,14.684998],[120.942671,14.684933],[120.942628,14.68484],[120.942533,14.684746],[120.942414,14.684682],[120.942393,14.684606],[120.942403,14.684537],[120.942542,14.684371],[120.942532,14.684312],[120.942506,14.684281],[120.942407,14.684235],[120.942138,14.684217],[120.94206,14.684173],[120.94199,14.684163],[120.941984,14.68414],[120.941991,14.684065],[120.942058,14.683979],[120.942075,14.683915],[120.941884,14.683693],[120.941877,14.68359],[120.94213,14.683372],[120.942169,14.683313],[120.942169,14.683281],[120.94225,14.683355],[120.942404,14.683427],[120.942401,14.68352],[120.94238,14.683584],[120.94241,14.683757],[120.942458,14.683784],[120.94255,14.683898],[120.942629,14.683961],[120.942782,14.683975],[120.942794,14.684081],[120.942951,14.684254],[120.943046,14.684306],[120.943258,14.684489],[120.943344,14.684525],[120.943376,14.684606],[120.943421,14.684623],[120.94344,14.684682],[120.943499,14.68474],[120.943563,14.684762],[120.943641,14.684838],[120.943704,14.684848],[120.943753,14.68488],[120.943807,14.684892],[120.944199,14.684906],[120.944453,14.68489],[120.945122,14.684887],[120.948,14.684911],[120.948,14.685]]]]}},{"type":"Feature","properties":{"codes":["INSTITUTIONAL"],"name":"Institutional","color":"#0000ff"},"geometry":{"type":"MultiPolygon","coordinates":[[[[120.942864,14.683642],[120.942891,14.683739],[120.942889,14.683798],[120.942846,14.683847],[120.94283,14.683923],[120.942782,14.683975],[120.942629,14.683961],[120.94255,14.683898],[120.942458,14.683784],[120.94241,14.683757],[120.94238,14.683584],[120.942401,14.68352],[120.942404,14.683427],[120.942529,14.683413],[120.942661,14.68354],[120.942782,14.683582],[120.942813,14.68362],[120.942864,14.683642]]],[[[120.938699,14.684755],[120.93863,14.6847],[120.938547,14.684672],[120.938533,14.684523],[120.939,14.6845],[120.939211,14.684378],[120.93921,14.684535],[120.939187,14.684653],[120.939098,14.684724],[120.93909,14.684753],[120.939046,14.684776],[120.938869,14.684794],[120.938845,14.684777],[120.938699,14.684755]]],[[[120.943012,14.686715],[120.942991,14.686789],[120.942506,14.687234],[120.942385,14.687371],[120.942342,14.687461],[120.942334,14.68773],[120.942029,14.687748],[120.941982,14.687728],[120.941871,14.68772],[120.941835,14.687698],[120.941713,14.687685],[120.941649,14.687641],[120.941605,14.687632],[120.941547,14.687566],[120.941462,14.687523],[120.941377,14.687429],[120.941204,14.687329],[120.9411,14.687231],[120.941102,14.687037],[120.94112,14.686935],[120.941154,14.68686],[120.941355,14.686631],[120.941379,14.686555],[120.941484,14.686454],[120.941497,14.686411],[120.941573,14.686369],[120.941673,14.686268],[120.941764,14.686209],[120.94195,14.686173],[120.94198,14.686154],[120.942192,14.686161],[120.942239,14.686204],[120.942282,14.686212],[120.942351,14.686257],[120.942544,14.6863],[120.942616,14.686351],[120.942676,14.686433],[120.942731,14.686453],[120.942758,14.686489],[120.942832,14.686504],[120.94289,14.686555],[120.942964,14.686559],[120.942967,14.686632],[120.943012,14.686715]]],[[[120.932303,14.6943],[120.932279,14.694296],[120.932285,14.694215],[120.93236,14.694124],[120.93245,14.694104],[120.932474,14.694129],[120.932546,14.694155],[120.932533,14.694273],[120.932485,14.694317],[120.932341,14.694345],[120.932308,14.694332],[120.932303,14.6943]]],[[[120.930797,14.696126],[120.930891,14.696077],[120.931,14.695934],[120.931146,14.695883],[120.931196,14.69585],[120.931321,14.695907],[120.931496,14.696096],[120.931488,14.696148],[120.931399,14.696226],[120.931348,14.696308],[120.931237,14.696386],[120.931182,14.696481],[120.931123,14.696532],[120.930979,14.696603],[120.930879,14.696607],[120.930824,14.696591],[120.930781,14.696488],[120.930715,14.696434],[120.930638,14.696404],[120.930691,14.696286],[120.930748,14.696231],[120.930797,14.696126]]]]}},{"type":"Feature","properties":{"codes":["FISHPOND"],"name":"Fishpond","color":"#006400"},"geometry":{"type":"MultiPolygon","coordinates":[[[[120.931988,14.690706],[120.932025,14.690688],[120.932043,14.690679],[120.932085,14.690657],[120.932098,14.690651],[120.932146,14.690627],[120.932153,14.690623],[120.932207,14.690597],[120.932208,14.690596],[120.932533,14.690434],[120.932658,14.690371],[120.933,14.6902],[120.93313,14.690096],[120.933365,14.689908],[120.933453,14.689837],[120.934,14.6894],[120.938,14.6865],[120.937385,14.685701],[120.937382,14.685696],[120.937299,14.685589],[120.93729,14.685577],[120.937213,14.685477],[120.937198,14.685457],[120.937127,14.685366],[120.937105,14.685337],[120.937033,14.685243],[120.937,14.6852],[120.937,14.684983],[120.937,14.684811],[120.937,14.6846],[120.937241,14.684588],[120.937677,14.684566],[120.937674,14.684851],[120.937693,14.685],[120.937733,14.685105],[120.937793,14.685197],[120.938001,14.685381],[120.938148,14.68544],[120.938239,14.685507],[120.938316,14.685513],[120.93841,14.685595],[120.938452,14.685602],[120.938466,14.685624],[120.938646,14.685701],[120.939086,14.685726],[120.939138,14.685743],[120.939167,14.685718],[120.939287,14.685694],[120.939455,14.685721],[120.939493,14.685737],[120.939493,14.685753],[120.939498,14.685803],[120.939564,14.685861],[120.939587,14.685921],[120.939675,14.686001],[120.939708,14.686067],[120.939748,14.686075],[120.939792,14.686107],[120.939824,14.686194],[120.939872,14.686244],[120.939812,14.686359],[120.939754,14.686367],[120.939632,14.686477],[120.939598,14.68655],[120.939531,14.686607],[120.939499,14.686675],[120.939291,14.686895],[120.939268,14.686947],[120.939148,14.686998],[120.939057,14.687064],[120.938968,14.687084],[120.938907,14.687141],[120.938879,14.687207],[120.938821,14.68723],[120.938626,14.687406],[120.938513,14.68753],[120.938431,14.687662],[120.938371,14.687696],[120.938354,14.687766],[120.938309,14.687839],[120.938119,14.688033],[120.93802,14.688227],[120.937854,14.688384],[120.937808,14.688458],[120.937767,14.688467],[120.937713,14.688517],[120.937639,14.68852],[120.937592,14.688516],[120.937581,14.688483],[120.937537,14.688465],[120.937382,14.688465],[120.93719,14.68855],[120.936994,14.688607],[120.93694,14.688657],[120.9369,14.688829],[120.936799,14.688898],[120.93672,14.688924],[120.936683,14.688967],[120.936546,14.689014],[120.93631,14.689238],[120.936253,14.68926],[120.936171,14.689346],[120.9361,14.689376],[120.935963,14.689486],[120.935717,14.689577],[120.935619,14.689649],[120.935425,14.689698],[120.935376,14.689787],[120.935326,14.689801],[120.935298,14.689838],[120.935215,14.689895],[120.935192,14.689993],[120.935119,14.690064],[120.935085,14.690154],[120.935065,14.690166],[120.935055,14.690232],[120.935012,14.690275],[120.93501,14.690361],[120.934949,14.690393],[120.934805,14.690528],[120.934693,14.690573],[120.934602,14.690639],[120.934524,14.690654],[120.934485,14.690697],[120.934433,14.690711],[120.934404,14.690748],[120.93425,14.690821],[120.934227,14.690917],[120.934233,14.69101],[120.934341,14.691157],[120.934371,14.691302],[120.934271,14.691371],[120.934136,14.691424],[120.934006,14.691532],[120.933857,14.69161],[120.93345,14.69199],[120.933327,14.692143],[120.933265,14.692261],[120.933223,14.692298],[120.933189,14.692409],[120.933115,14.692437],[120.933081,14.692492],[120.93302,14.692511],[120.93296,14.692568],[120.93294,14.692629],[120.932888,14.69268],[120.932867,14.692757],[120.932807,14.692807],[120.932727,14.692948],[120.932678,14.692989],[120.932669,14.69303],[120.932574,14.693133],[120.932495,14.693308],[120.932469,14.693333],[120.932446,14.69343],[120.932414,14.693488],[120.932295,14.693547],[120.932182,14.693637],[120.93209,14.693663],[120.931946,14.693635],[120.931785,14.693526],[120.931686,14.693516],[120.931647,14.693532],[120.931608,14.693612],[120.931612,14.693757],[120.931635,14.69381],[120.931468,14.694002],[120.931452,14.694048],[120.931384,14.694075],[120.931323,14.694139],[120.931273,14.694305],[120.931254,14.694323],[120.931276,14.69443],[120.931266,14.694486],[120.931182,14.694577],[120.931119,14.694621],[120.931051,14.694633],[120.931001,14.694665],[120.930927,14.694809],[120.930851,14.694873],[120.930818,14.694939],[120.930779,14.694951],[120.93073,14.695087],[120.930688,14.695142],[120.930633,14.695314],[120.930565,14.695378],[120.930531,14.695451],[120.93041,14.69557],[120.930365,14.695609],[120.930404,14.69581],[120.930451,14.695868],[120.930534,14.695901],[120.930612,14.695974],[120.930564,14.696023],[120.930519,14.696107],[120.930051,14.696557],[120.929972,14.6967],[120.929916,14.696749],[120.929794,14.696813],[120.929727,14.696887],[120.929714,14.696932],[120.929613,14.696994],[120.929507,14.697102],[120.929463,14.697115],[120.929442,14.697165],[120.929329,14.697269],[120.929292,14.697335],[120.929284,14.697403],[120.929378,14.697584],[120.929333,14.697651],[120.928635,14.69833],[120.928529,14.698467],[120.928343,14.698634],[120.92827,14.698743],[120.928215,14.698785],[120.928198,14.698828],[120.928103,14.698937],[120.927712,14.699303],[120.927588,14.699375],[120.927521,14.69945],[120.927508,14.699495],[120.927358,14.699595],[120.927257,14.699702],[120.927212,14.699782],[120.927079,14.699903],[120.927045,14.699967],[120.927048,14.700012],[120.927055,14.700048],[120.927108,14.700093],[120.927334,14.700126],[120.927501,14.700084],[120.927527,14.700052],[120.927561,14.699936],[120.92764,14.699905],[120.927752,14.6998],[120.927798,14.699788],[120.927858,14.699724],[120.927969,14.699665],[120.928036,14.69958],[120.928061,14.699487],[120.928127,14.699475],[120.92814,14.699455],[120.928249,14.69941],[120.92833,14.699296],[120.928503,14.69913],[120.92861,14.699069],[120.928815,14.69887],[120.928868,14.69885],[120.928928,14.698786],[120.928987,14.698765],[120.929046,14.698701],[120.929122,14.698666],[120.929236,14.698569],[120.92942,14.698382],[120.929448,14.698319],[120.929515,14.698245],[120.929613,14.698195],[120.929701,14.698107],[120.929858,14.698013],[120.930314,14.697579],[120.930725,14.697316],[120.930825,14.697209],[120.930869,14.697133],[120.931027,14.696971],[120.931322,14.696699],[120.931394,14.69666],[120.931484,14.696505],[120.931529,14.696473],[120.931573,14.696465],[120.931633,14.696401],[120.931709,14.696365],[120.931965,14.696127],[120.932045,14.69601],[120.932306,14.695765],[120.932341,14.695695],[120.932408,14.695638],[120.932418,14.695599],[120.932475,14.695573],[120.932511,14.695507],[120.932581,14.695428],[120.93268,14.695339],[120.932828,14.695257],[120.932868,14.695173],[120.933055,14.694991],[120.933095,14.694922],[120.933459,14.694577],[120.933498,14.694506],[120.933616,14.694383],[120.933692,14.694321],[120.93379,14.694274],[120.933824,14.694197],[120.933958,14.694076],[120.934027,14.693973],[120.934451,14.693553],[120.934557,14.693434],[120.934561,14.693409],[120.934653,14.693363],[120.934695,14.693279],[120.934918,14.693073],[120.935113,14.692842],[120.935582,14.692394],[120.935851,14.692187],[120.936115,14.691935],[120.936219,14.691794],[120.936534,14.691495],[120.936621,14.691372],[120.936617,14.691254],[120.936542,14.691171],[120.936469,14.691138],[120.936462,14.6911],[120.936418,14.691059],[120.936407,14.691008],[120.936425,14.690912],[120.936481,14.690846],[120.936515,14.690771],[120.936598,14.69068],[120.936766,14.690536],[120.936891,14.690493],[120.937034,14.690601],[120.937111,14.690631],[120.937158,14.690714],[120.937213,14.690725],[120.937313,14.690715],[120.937347,14.690656],[120.937447,14.690562],[120.937511,14.690452],[120.937782,14.69019],[120.937812,14.690128],[120.937969,14.689952],[120.937997,14.689871],[120.938067,14.689832],[120.938218,14.689683],[120.938331,14.689604],[120.938385,14.689588],[120.938484,14.689598],[120.938568,14.689643],[120.938662,14.689725],[120.938729,14.689756],[120.939058,14.69006],[120.939194,14.690147],[120.939298,14.690261],[120.939332,14.690326],[120.939415,14.690354],[120.939469,14.690446],[120.939637,14.690612],[120.939738,14.690672],[120.939752,14.690719],[120.93985,14.690827],[120.939916,14.690882],[120.939977,14.690907],[120.940145,14.691081],[120.940247,14.691145],[120.940556,14.691424],[120.940653,14.691455],[120.940703,14.691491],[120.940822,14.691514],[120.940862,14.691557],[120.940905,14.691565],[120.940969,14.691608],[120.941118,14.691621],[120.941105,14.691646],[120.940912,14.691855],[120.940887,14.691882],[120.940458,14.692346],[120.940426,14.692379],[120.939974,14.692868],[120.93997,14.692872],[120.939743,14.693118],[120.939731,14.69313],[120.939288,14.693609],[120.939285,14.693612],[120.939058,14.693858],[120.939046,14.69387],[120.938603,14.694349],[120.9386,14.694352],[120.938372,14.694598],[120.938361,14.69461],[120.938,14.695],[120.937934,14.695046],[120.937883,14.695082],[120.937741,14.695181],[120.937678,14.695226],[120.937486,14.69536],[120.937473,14.695369],[120.937292,14.695496],[120.937219,14.695547],[120.937041,14.695671],[120.937028,14.69568],[120.936847,14.695807],[120.936774,14.695858],[120.936596,14.695983],[120.936583,14.695992],[120.936432,14.696097],[120.936363,14.696146],[120.936151,14.696295],[120.936139,14.696303],[120.935987,14.696409],[120.935918,14.696457],[120.935705,14.696606],[120.935694,14.696615],[120.93553,14.696729],[120.935483,14.696762],[120.935387,14.696829],[120.935361,14.696847],[120.935248,14.696927],[120.935215,14.69695],[120.935075,14.697048],[120.93504,14.697072],[120.934938,14.697143],[120.934916,14.697159],[120.934802,14.697238],[120.93477,14.697261],[120.93463,14.697359],[120.934595,14.697383],[120.934493,14.697455],[120.934471,14.69747],[120.934383,14.697532],[120.934371,14.69754],[120.934212,14.697651],[120.934169,14.697682],[120.934062,14.697756],[120.934006,14.697795],[120.934,14.6978],[120.933997,14.697803],[120.933958,14.697847],[120.933739,14.698087],[120.933728,14.698099],[120.93,14.7022],[120.927,14.7026],[120.924005,14.699205],[120.924,14.6992],[120.924003,14.699197],[120.926635,14.696125],[120.926644,14.696115],[120.926917,14.695797],[120.926921,14.695792],[120.927,14.6957],[120.927132,14.695423],[120.927135,14.695417],[120.927554,14.694536],[120.927555,14.694534],[120.92795,14.693704],[120.928,14.6936],[120.928012,14.693591],[120.928032,14.693576],[120.928114,14.693515],[120.928204,14.693447],[120.928264,14.693402],[120.928359,14.693331],[120.928405,14.693296],[120.928504,14.693222],[120.928564,14.693177],[120.928756,14.693033],[120.928841,14.692969],[120.929061,14.692804],[120.929085,14.692786],[120.92923,14.692678],[120.929242,14.692668],[120.929339,14.692596],[120.929388,14.692559],[120.929635,14.692374],[120.929642,14.692369],[120.93,14.6921],[120.930993,14.691206],[120.931,14.6912],[120.931027,14.691186],[120.93126,14.69107],[120.931392,14.691004],[120.931423,14.690989],[120.931488,14.690956],[120.931787,14.690806],[120.93189,14.690755],[120.931933,14.690734],[120.931964,14.690718],[120.931988,14.690706]],[[120.925459,14.699776],[120.925497,14.699828],[120.925543,14.699961],[120.925622,14.70006],[120.925728,14.700162],[120.925819,14.700211],[120.925878,14.700276],[120.925936,14.700298],[120.926006,14.700367],[120.926237,14.700439],[120.926262,14.700143],[120.926208,14.700033],[120.926147,14.699984],[120.926092,14.699968],[120.926056,14.699924],[120.926004,14.69991],[120.925975,14.699872],[120.925845,14.699813],[120.925787,14.699761],[120.925732,14.699658],[120.925689,14.699616],[120.925651,14.699446],[120.925602,14.699375],[120.925514,14.699353],[120.925448,14.699374],[120.925408,14.699433],[120.925391,14.699513],[120.925415,14.699522],[120.925421,14.69963],[120.925443,14.699664],[120.925459,14.699776]],[[120.927683,14.69776],[120.927767,14.697618],[120.927886,14.697502],[120.927973,14.697462],[120.928068,14.697382],[120.928161,14.697236],[120.928241,14.697206],[120.928336,14.697126],[120.928382,14.697066],[120.928392,14.696987],[120.928173,14.697015],[120.928132,14.697033],[120.928061,14.697106],[120.927967,14.697126],[120.927818,14.69713],[120.92774,14.697166],[120.927541,14.697361],[120.9275,14.697459],[120.927479,14.697473],[120.927435,14.697679],[120.927331,14.697786],[120.927317,14.697831],[120.927251,14.697887],[120.927226,14.697948],[120.927159,14.698023],[120.927078,14.698058],[120.926882,14.698074],[120.926812,14.698117],[120.926768,14.698125],[120.926708,14.698189],[120.92664,14.698215],[120.926591,14.698263],[120.926501,14.698293],[120.926488,14.698313],[120.926316,14.698356],[120.92628,14.698395],[120.926114,14.698465],[120.92608,14.698505],[120.926029,14.698518],[120.925973,14.69857],[120.925612,14.698733],[120.925579,14.698776],[120.925571,14.698817],[120.925526,14.698853],[120.925509,14.698908],[120.925489,14.698921],[120.925454,14.699055],[120.925502,14.699082],[120.925522,14.699129],[120.925605,14.699124],[120.925772,14.699029],[120.925905,14.698987],[120.925997,14.698922],[120.926069,14.698911],[120.92609,14.698888],[120.926275,14.698813],[120.926421,14.698708],[120.926641,14.698617],[120.926721,14.698539],[120.926882,14.698465],[120.927088,14.698306],[120.927188,14.698269],[120.9273,14.698162],[120.927364,14.69815],[120.927418,14.698101],[120.927457,14.698092],[120.92748,14.698011],[120.927521,14.697979],[120.927601,14.697839],[120.927683,14.69776]]]]}},{"type":"Feature","properties":{"codes":["MANGROVE"],"name":"Mangrove","color":"#55ff00"},"geometry":{"type":"MultiPolygon","coordinates":[[[[120.940759,14.685585],[120.940725,14.685628],[120.940653,14.685654],[120.940614,14.685718],[120.940531,14.685739],[120.940525,14.685762],[120.94049,14.685739],[120.940324,14.685721],[120.940281,14.685678],[120.940242,14.68567],[120.94022,14.685614],[120.940176,14.685578],[120.940162,14.685528],[120.940118,14.685492],[120.940108,14.685447],[120.940042,14.685371],[120.940006,14.685281],[120.940008,14.685089],[120.940046,14.685009],[120.940134,14.684961],[120.940223,14.684947],[120.940383,14.684818],[120.940468,14.684797],[120.940515,14.684807],[120.940622,14.684874],[120.94077,14.68501],[120.940839,14.685046],[120.940866,14.685107],[120.94091,14.685144],[120.940924,14.685199],[120.940972,14.68525],[120.940964,14.685327],[120.940859,14.685453],[120.940846,14.685498],[120.940768,14.685544],[120.940759,14.685585]]],[[[120.938768,14.68534],[120.938858,14.685353],[120.93891,14.685449],[120.939084,14.685434],[120.939216,14.685478],[120.939281,14.68557],[120.939287,14.685694],[120.939167,14.685718],[120.939138,14.685743],[120.939086,14.685726],[120.938646,14.685701],[120.938466,14.685624],[120.938452,14.685602],[120.93841,14.685595],[120.938316,14.685513],[120.938412,14.68551],[120.938442,14.685466],[120.938557,14.685415],[120.938611,14.685358],[120.938668,14.685333],[120.938751,14.685323],[120.938768,14.68534]]],[[[120.940066,14.685977],[120.940102,14.686024],[120.940108,14.686189],[120.940084,14.686192],[120.940078,14.686225],[120.940039,14.686242],[120.939872,14.686244],[120.939824,14.686194],[120.939792,14.686107],[120.939748,14.686075],[120.939708,14.686067],[120.939675,14.686001],[120.939587,14.685921],[120.939564,14.685861],[120.939498,14.685803],[120.939493,14.685753],[120.939541,14.685752],[120.939576,14.685732],[120.939792,14.685745],[120.939922,14.685793],[120.939957,14.685833],[120.940011,14.685952],[120.940066,14.685977]]],[[[120.936994,14.688607],[120.93719,14.68855],[120.937382,14.688465],[120.937537,14.688465],[120.937581,14.688483],[120.937592,14.688516],[120.937639,14.68852],[120.937622,14.688579],[120.937561,14.688607],[120.937494,14.688676],[120.937422,14.688722],[120.937261,14.688769],[120.93708,14.688854],[120.93696,14.688856],[120.9369,14.688829],[120.93694,14.688657],[120.936994,14.688607]]],[[[120.933327,14.692143],[120.93345,14.69199],[120.933857,14.69161],[120.934006,14.691532],[120.934136,14.691424],[120.934271,14.691371],[120.934371,14.691302],[120.934465,14.691425],[120.934487,14.691479],[120.934475,14.691538],[120.934438,14.691582],[120.934404,14.691665],[120.934324,14.691739],[120.934232,14.691765],[120.934161,14.691829],[120.93401,14.691855],[120.933958,14.69189],[120.933879,14.691907],[120.933819,14.692007],[120.93375,14.692025],[120.933739,14.692064],[120.933672,14.692121],[120.933627,14.692208],[120.933515,14.692329],[120.9335,14.692377],[120.933422,14.692448],[120.933407,14.692493],[120.933277,14.6926],[120.933256,14.692691],[120.933211,14.692708],[120.933204,14.692746],[120.933152,14.692792],[120.933142,14.692835],[120.933075,14.692913],[120.933049,14.692979],[120.932937,14.693079],[120.932902,14.693149],[120.932812,14.693227],[120.932777,14.693298],[120.932618,14.693467],[120.932528,14.69366],[120.932399,14.693727],[120.932348,14.693785],[120.932337,14.693828],[120.932254,14.693874],[120.932222,14.693912],[120.932113,14.693927],[120.932089,14.693948],[120.931925,14.693977],[120.931873,14.694],[120.931485,14.694328],[120.931366,14.694388],[120.931336,14.694442],[120.931309,14.694447],[120.931276,14.69443],[120.931254,14.694323],[120.931273,14.694305],[120.931323,14.694139],[120.931384,14.694075],[120.931452,14.694048],[120.931468,14.694002],[120.931635,14.69381],[120.931612,14.693757],[120.931608,14.693612],[120.931647,14.693532],[120.931686,14.693516],[120.931785,14.693526],[120.931946,14.693635],[120.93209,14.693663],[120.932182,14.693637],[120.932295,14.693547],[120.932414,14.693488],[120.932446,14.69343],[120.932469,14.693333],[120.932495,14.693308],[120.932574,14.693133],[120.932669,14.69303],[120.932678,14.692989],[120.932727,14.692948],[120.932807,14.692807],[120.932867,14.692757],[120.932888,14.69268],[120.93294,14.692629],[120.93296,14.692568],[120.93302,14.692511],[120.933081,14.692492],[120.933115,14.692437],[120.933189,14.692409],[120.933223,14.692298],[120.933265,14.692261],[120.933327,14.692143]]],[[[120.92774,14.697166],[120.927818,14.69713],[120.927967,14.697126],[120.928061,14.697106],[120.928132,14.697033],[120.928173,14.697015],[120.928392,14.696987],[120.928382,14.697066],[120.928336,14.697126],[120.928241,14.697206],[120.928161,14.697236],[120.928068,14.697382],[120.927973,14.697462],[120.927886,14.697502],[120.927767,14.697618],[120.927683,14.69776],[120.927601,14.697839],[120.927521,14.697979],[120.92748,14.698011],[120.927457,14.698092],[120.927418,14.698101],[120.927364,14.69815],[120.9273,14.698162],[120.927188,14.698269],[120.927088,14.698306],[120.926882,14.698465],[120.926721,14.698539],[120.926641,14.698617],[120.926421,14.698708],[120.926275,14.698813],[120.92609,14.698888],[120.926069,14.698911],[120.925997,14.698922],[120.925905,14.698987],[120.925772,14.699029],[120.925605,14.699124],[120.925522,14.699129],[120.925502,14.699082],[120.925454,14.699055],[120.925489,14.698921],[120.925509,14.698908],[120.925526,14.698853],[120.925571,14.698817],[120.925579,14.698776],[120.925612,14.698733],[120.925973,14.69857],[120.926029,14.698518],[120.92608,14.698505],[120.926114,14.698465],[120.92628,14.698395],[120.926316,14.698356],[120.926488,14.698313],[120.926501,14.698293],[120.926591,14.698263],[120.92664,14.698215],[120.926708,14.698189],[120.926768,14.698125],[120.926812,14.698117],[120.926882,14.698074],[120.927078,14.698058],[120.927159,14.698023],[120.927226,14.697948],[120.927251,14.697887],[120.927317,14.697831],[120.927331,14.697786],[120.927435,14.697679],[120.927479,14.697473],[120.9275,14.697459],[120.927541,14.697361],[120.92774,14.697166]]],[[[120.926004,14.69991],[120.926056,14.699924],[120.926092,14.699968],[120.926147,14.699984],[120.926208,14.700033],[120.926262,14.700143],[120.926237,14.700439],[120.926006,14.700367],[120.925936,14.700298],[120.925878,14.700276],[120.925819,14.700211],[120.925728,14.700162],[120.925622,14.70006],[120.925543,14.699961],[120.925497,14.699828],[120.925459,14.699776],[120.925443,14.699664],[120.925421,14.69963],[120.925415,14.699522],[120.925391,14.699513],[120.925408,14.699433],[120.925448,14.699374],[120.925514,14.699353],[120.925602,14.699375],[120.925651,14.699446],[120.925689,14.699616],[120.925732,14.699658],[120.925787,14.699761],[120.925845,14.699813],[120.925975,14.699872],[120.926004,14.69991]]]]}}]}
