{"type":"FeatureCollection","features":[{"type":"Feature","properties":{"codes":["R-2-BASIC","R-2-MAX"],"name":"R-2 Basic or R-2 Max","color":"#ffffb4"},"geometry":{"type":"MultiPolygon","coordinates":[[[[120.940702,14.674502],[120.940873,14.67433],[120.94088,14.67432],[120.941,14.6742],[120.941855,14.672575],[120.942226,14.672582],[120.942296,14.67259],[120.942345,14.672601],[120.942398,14.672626],[120.942421,14.672633],[120.942473,14.672636],[120.942481,14.672644],[120.942484,14.672655],[120.942482,14.672671],[120.942488,14.67269],[120.9425,14.672712],[120.942548,14.672763],[120.942622,14.672815],[120.942722,14.672864],[120.942836,14.672929],[120.942962,14.673017],[120.943007,14.673059],[120.943035,14.673096],[120.943044,14.673128],[120.943031,14.673178],[120.943033,14.673197],[120.943042,14.673212],[120.943067,14.673232],[120.943078,14.67325],[120.943068,14.673286],[120.943045,14.673334],[120.943045,14.67336],[120.943058,14.673384],[120.943083,14.673407],[120.94315,14.673449],[120.943167,14.673466],[120.943174,14.673481],[120.94317,14.673493],[120.943156,14.67351],[120.943145,14.673515],[120.943118,14.673514],[120.943104,14.673509],[120.943056,14.673479],[120.943043,14.673475],[120.943019,14.673481],[120.943,14.673504],[120.94289,14.673676],[120.942834,14.673779],[120.942823,14.673808],[120.942826,14.673831],[120.942842,14.673847],[120.942854,14.673853],[120.942862,14.673862],[120.942865,14.673874],[120.942855,14.67391],[120.942833,14.673936],[120.942788,14.673948],[120.942766,14.673965],[120.942758,14.673977],[120.942745,14.673984],[120.942726,14.673983],[120.942622,14.673952],[120.942606,14.673953],[120.942586,14.673966],[120.942575,14.673987],[120.942573,14.674002],[120.942578,14.674015],[120.942588,14.674028],[120.942649,14.674062],[120.942676,14.674083],[120.942684,14.674094],[120.942685,14.674105],[120.942682,14.674117],[120.942643,14.674159],[120.942615,14.674208],[120.942602,14.67424],[120.942585,14.674264],[120.942564,14.674278],[120.942538,14.674283],[120.942509,14.674279],[120.942482,14.674284],[120.942458,14.674297],[120.942437,14.674319],[120.942404,14.674376],[120.942396,14.674399],[120.942394,14.674435],[120.942372,14.674495],[120.942317,14.674593],[120.94229,14.674633],[120.942268,14.67466],[120.94225,14.674673],[120.94222,14.674668],[120.942198,14.674658],[120.94214,14.674623],[120.942118,14.674602],[120.942107,14.674579],[120.942105,14.674555],[120.942116,14.67451],[120.942116,14.674493],[120.942113,14.674482],[120.942097,14.67447],[120.942078,14.674466],[120.942056,14.674475],[120.942044,14.674487],[120.942011,14.674545],[120.942,14.674556],[120.941989,14.67456],[120.941978,14.674559],[120.941912,14.674515],[120.941672,14.674337],[120.941515,14.674244],[120.941506,14.674235],[120.941499,14.674216],[120.941495,14.674188],[120.941493,14.674064],[120.941486,14.674028],[120.941481,14.674028],[120.941476,14.674049],[120.941473,14.674091],[120.94147,14.674238],[120.941494,14.674316],[120.941542,14.674388],[120.941615,14.674452],[120.941712,14.67451],[120.941778,14.674563],[120.941814,14.674609],[120.941818,14.674649],[120.941769,14.674707],[120.941748,14.674723],[120.941731,14.67473],[120.941716,14.674728],[120.941685,14.674713],[120.941488,14.674589],[120.941385,14.674548],[120.941261,14.67452],[120.941075,14.674505],[120.940702,14.674502]]],[[[120.941939,14.672419],[120.941896,14.672498],[120.942,14.6723],[120.942975,14.67282],[120.942557,14.672614],[120.942163,14.672449],[120.941939,14.672419]]],[[[120.94429,14.675088],[120.944291,14.675126],[120.944282,14.675187],[120.944235,14.675385],[120.944213,14.675497],[120.944198,14.675611],[120.94419,14.675755],[120.944187,14.676013],[120.944,14.6765],[120.943562,14.676383],[120.943555,14.676381],[120.942992,14.676229],[120.942997,14.6757],[120.943007,14.675343],[120.943014,14.675279],[120.943031,14.675261],[120.943038,14.675247],[120.943047,14.675207],[120.943043,14.675189],[120.943031,14.675174],[120.943012,14.675161],[120.942984,14.675152],[120.942964,14.675137],[120.94295,14.675116],[120.942943,14.67509],[120.942944,14.675058],[120.94293,14.675026],[120.942901,14.674995],[120.942859,14.674965],[120.942759,14.674912],[120.942731,14.674892],[120.942717,14.674876],[120.942724,14.674845],[120.942754,14.674814],[120.942853,14.674847],[120.942908,14.674841],[120.942951,14.674808],[120.942993,14.67475],[120.943084,14.674557],[120.943093,14.674528],[120.943091,14.674517],[120.943078,14.674502],[120.943005,14.67445],[120.942898,14.674385],[120.94294,14.674333],[120.942964,14.674313],[120.942985,14.674308],[120.943006,14.674311],[120.943028,14.674324],[120.943053,14.674317],[120.943082,14.67429],[120.943114,14.674244],[120.94315,14.674178],[120.943187,14.674133],[120.943226,14.674109],[120.943267,14.674107],[120.943343,14.674138],[120.943389,14.67415],[120.9434,14.674148],[120.943419,14.674131],[120.943435,14.674096],[120.943435,14.674077],[120.943428,14.674058],[120.943375,14.674003],[120.943363,14.673985],[120.943355,14.67395],[120.943337,14.673918],[120.943287,14.673879],[120.943277,14.673868],[120.943272,14.673849],[120.943277,14.673831],[120.94329,14.673814],[120.943309,14.673803],[120.943334,14.6738],[120.943353,14.673785],[120.943409,14.673704],[120.943475,14.673585],[120.943494,14.67354],[120.94351,14.673457],[120.943522,14.673446],[120.94354,14.673442],[120.943584,14.673445],[120.943599,14.673441],[120.943611,14.673433],[120.943627,14.673411],[120.943636,14.673405],[120.943657,14.673402],[120.943698,14.673417],[120.943794,14.673469],[120.943814,14.673484],[120.943838,14.673513],[120.943853,14.673521],[120.943899,14.673537],[120.943935,14.673554],[120.943951,14.673575],[120.94395,14.673593],[120.943942,14.673618],[120.943892,14.673721],[120.943877,14.673761],[120.943877,14.67377],[120.943885,14.673787],[120.943904,14.673802],[120.943925,14.673811],[120.943943,14.673813],[120.943957,14.673801],[120.943975,14.673777],[120.944023,14.673693],[120.944051,14.673662],[120.94408,14.673648],[120.944112,14.673651],[120.944145,14.673671],[120.944161,14.673705],[120.944162,14.673755],[120.944146,14.673818],[120.944114,14.673897],[120.944116,14.673966],[120.944152,14.674026],[120.944223,14.674076],[120.944407,14.674151],[120.944461,14.67418],[120.94449,14.674203],[120.944493,14.674221],[120.944507,14.674249],[120.94453,14.674267],[120.944539,14.674278],[120.944544,14.674293],[120.94454,14.674355],[120.944545,14.674369],[120.944574,14.674392],[120.944577,14.674403],[120.944567,14.674433],[120.944552,14.674444],[120.944531,14.67445],[120.944441,14.674448],[120.944421,14.674453],[120.94441,14.674463],[120.944406,14.674477],[120.944389,14.674498],[120.944345,14.674513],[120.944334,14.674521],[120.944325,14.674531],[120.944314,14.674563],[120.944297,14.674661],[120.9443,14.674694],[120.944314,14.67472],[120.944337,14.674739],[120.94437,14.674752],[120.944414,14.674777],[120.944425,14.67479],[120.944429,14.674803],[120.94443,14.674837],[120.944424,14.674884],[120.944408,14.674918],[120.944396,14.674927],[120.944366,14.674932],[120.944313,14.674922],[120.944298,14.674923],[120.944286,14.674931],[120.944277,14.674946],[120.944267,14.674987],[120.944263,14.675035],[120.944271,14.675063],[120.94429,14.675088]],[[120.943216,14.67485],[120.94319,14.674886],[120.943155,14.674948],[120.943144,14.67498],[120.943135,14.675032],[120.943359,14.675121],[120.943426,14.675139],[120.943451,14.675136],[120.943443,14.675111],[120.943434,14.675096],[120.943377,14.675052],[120.94336,14.675028],[120.943349,14.674996],[120.943343,14.674873],[120.943332,14.674844],[120.943315,14.674824],[120.943291,14.674813],[120.943267,14.674814],[120.943242,14.674826],[120.943216,14.67485]],[[120.943605,14.673694],[120.943588,14.673714],[120.943567,14.673767],[120.943629,14.673791],[120.943659,14.673796],[120.943679,14.673789],[120.943697,14.673767],[120.943722,14.673711],[120.943656,14.67369],[120.943625,14.673687],[120.943605,14.673694]]]]}},{"type":"Feature","properties":{"codes":["C-1"],"name":"C-1","color":"#ff7f7f"},"geometry":{"type":"MultiPolygon","coordinates":[[[[120.942163,14.672449],[120.942557,14.672614],[120.942975,14.67282],[120.943899,14.673313],[120.945,14.6739],[120.944646,14.67482],[120.944187,14.676013],[120.94419,14.675755],[120.944198,14.675611],[120.944213,14.675497],[120.944235,14.675385],[120.944282,14.675187],[120.944291,14.675126],[120.94429,14.675088],[120.944271,14.675063],[120.944263,14.675035],[120.944267,14.674987],[120.944277,14.674946],[120.944286,14.674931],[120.944298,14.674923],[120.944313,14.674922],[120.944366,14.674932],[120.944396,14.674927],[120.944408,14.674918],[120.944424,14.674884],[120.94443,14.674837],[120.944429,14.674803],[120.944425,14.67479],[120.944414,14.674777],[120.94437,14.674752],[120.944337,14.674739],[120.944314,14.67472],[120.9443,14.674694],[120.944297,14.674661],[120.944314,14.674563],[120.944325,14.674531],[120.944334,14.674521],[120.944345,14.674513],[120.944389,14.674498],[120.944406,14.674477],[120.94441,14.674463],[120.944421,14.674453],[120.944441,14.674448],[120.944531,14.67445],[120.944552,14.674444],[120.944567,14.674433],[120.944577,14.674403],[120.944574,14.674392],[120.944545,14.674369],[120.94454,14.674355],[120.944544,14.674293],[120.944539,14.674278],[120.94453,14.674267],[120.944507,14.674249],[120.944493,14.674221],[120.94449,14.674203],[120.944461,14.67418],[120.944407,14.674151],[120.944223,14.674076],[120.944152,14.674026],[120.944116,14.673966],[120.944114,14.673897],[120.944146,14.673818],[120.944162,14.673755],[120.944161,14.673705],[120.944145,14.673671],[120.944112,14.673651],[120.94408,14.673648],[120.944051,14.673662],[120.944023,14.673693],[120.943975,14.673777],[120.943957,14.673801],[120.943943,14.673813],[120.943925,14.673811],[120.943904,14.673802],[120.943885,14.673787],[120.943877,14.67377],[120.943877,14.673761],[120.943892,14.673721],[120.943942,14.673618],[120.94395,14.673593],[120.943951,14.673575],[120.943935,14.673554],[120.943899,14.673537],[120.943853,14.673521],[120.943838,14.673513],[120.943814,14.673484],[120.943794,14.673469],[120.943698,14.673417],[120.943657,14.673402],[120.943636,14.673405],[120.943627,14.673411],[120.943611,14.673433],[120.943599,14.673441],[120.943584,14.673445],[120.94354,14.673442],[120.943522,14.673446],[120.94351,14.673457],[120.943494,14.67354],[120.943475,14.673585],[120.943409,14.673704],[120.943353,14.673785],[120.943334,14.6738],[120.943309,14.673803],[120.94329,14.673814],[120.943277,14.673831],[120.943272,14.673849],[120.943277,14.673868],[120.943287,14.673879],[120.943337,14.673918],[120.943355,14.67395],[120.943363,14.673985],[120.943375,14.674003],[120.943428,14.674058],[120.943435,14.674077],[120.943435,14.674096],[120.943419,14.674131],[120.9434,14.674148],[120.943389,14.67415],[120.943343,14.674138],[120.943267,14.674107],[120.943226,14.674109],[120.943187,14.674133],[120.94315,14.674178],[120.943114,14.674244],[120.943082,14.67429],[120.943053,14.674317],[120.943028,14.674324],[120.943006,14.674311],[120.942985,14.674308],[120.942964,14.674313],[120.94294,14.674333],[120.942898,14.674385],[120.942824,14.67436],[120.942776,14.67437],[120.942731,14.674406],[120.942679,14.674466],[120.942621,14.67455],[120.942553,14.674661],[120.942543,14.674689],[120.942548,14.674698],[120.942564,14.674709],[120.942589,14.674722],[120.942731,14.67478],[120.942746,14.674794],[120.942754,14.674814],[120.942724,14.674845],[120.942717,14.674876],[120.942731,14.674892],[120.942759,14.674912],[120.942859,14.674965],[120.942901,14.674995],[120.94293,14.675026],[120.942944,14.675058],[120.942943,14.67509],[120.94295,14.675116],[120.942964,14.675137],[120.942984,14.675152],[120.943012,14.675161],[120.943031,14.675174],[120.943043,14.675189],[120.943047,14.675207],[120.943038,14.675247],[120.943031,14.675261],[120.943014,14.675279],[120.943007,14.675343],[120.942997,14.6757],[120.942992,14.676229],[120.943555,14.676381],[120.941956,14.675955],[120.941879,14.675934],[120.941864,14.67593],[120.941,14.6757],[120.940666,14.675533],[120.940526,14.675463],[120.94,14.6752],[120.94088,14.67432],[120.940873,14.67433],[120.940702,14.674502],[120.941075,14.674505],[120.941261,14.67452],[120.941385,14.674548],[120.941488,14.674589],[120.941685,14.674713],[120.941716,14.674728],[120.941731,14.67473],[120.941748,14.674723],[120.941769,14.674707],[120.941818,14.674649],[120.941814,14.674609],[120.941778,14.674563],[120.941712,14.67451],[120.941615,14.674452],[120.941542,14.674388],[120.941494,14.674316],[120.94147,14.674238],[120.941473,14.674091],[120.941476,14.674049],[120.941481,14.674028],[120.941486,14.674028],[120.941493,14.674064],[120.941495,14.674188],[120.941499,14.674216],[120.941506,14.674235],[120.941515,14.674244],[120.941672,14.674337],[120.941912,14.674515],[120.941978,14.674559],[120.941989,14.67456],[120.942,14.674556],[120.942011,14.674545],[120.942044,14.674487],[120.942056,14.674475],[120.942078,14.674466],[120.942097,14.67447],[120.942113,14.674482],[120.942116,14.674493],[120.942116,14.67451],[120.942105,14.674555],[120.942107,14.674579],[120.942118,14.674602],[120.94214,14.674623],[120.942198,14.674658],[120.94222,14.674668],[120.94225,14.674673],[120.942268,14.67466],[120.94229,14.674633],[120.942317,14.674593],[120.942372,14.674495],[120.942394,14.674435],[120.942396,14.674399],[120.942404,14.674376],[120.942437,14.674319],[120.942458,14.674297],[120.942482,14.674284],[120.942509,14.674279],[120.942538,14.674283],[120.942564,14.674278],[120.942585,14.674264],[120.942602,14.67424],[120.942615,14.674208],[120.942643,14.674159],[120.942682,14.674117],[120.942685,14.674105],[120.942684,14.674094],[120.942676,14.674083],[120.942649,14.674062],[120.942588,14.674028],[120.942578,14.674015],[120.942573,14.674002],[120.942575,14.673987],[120.942586,14.673966],[120.942606,14.673953],[120.942622,14.673952],[120.942726,14.673983],[120.942745,14.673984],[120.942758,14.673977],[120.942766,14.673965],[120.942788,14.673948],[120.942833,14.673936],[120.942855,14.67391],[120.942865,14.673874],[120.942862,14.673862],[120.942854,14.673853],[120.942842,14.673847],[120.942826,14.673831],[120.942823,14.673808],[120.942834,14.673779],[120.94289,14.673676],[120.943,14.673504],[120.943019,14.673481],[120.943043,14.673475],[120.943056,14.673479],[120.943104,14.673509],[120.943118,14.673514],[120.943145,14.673515],[120.943156,14.67351],[120.94317,14.673493],[120.943174,14.673481],[120.943167,14.673466],[120.94315,14.673449],[120.943083,14.673407],[120.943058,14.673384],[120.943045,14.67336],[120.943045,14.673334],[120.943068,14.673286],[120.943078,14.67325],[120.943067,14.673232],[120.943042,14.673212],[120.943033,14.673197],[120.943031,14.673178],[120.943044,14.673128],[120.943035,14.673096],[120.943007,14.673059],[120.942962,14.673017],[120.942836,14.672929],[120.942722,14.672864],[120.942622,14.672815],[120.942548,14.672763],[120.9425,14.672712],[120.942488,14.67269],[120.942482,14.672671],[120.942484,14.672655],[120.942481,14.672644],[120.942473,14.672636],[120.942421,14.672633],[120.942398,14.672626],[120.942345,14.672601],[120.942296,14.67259],[120.942226,14.672582],[120.941855,14.672575],[120.941896,14.672498],[120.941939,14.672419],[120.942163,14.672449]]]]}},{"type":"Feature","properties":{"codes":["INSTITUTIONAL"],"name":"Institutional","color":"#0000ff"},"geometry":{"type":"MultiPolygon","coordinates":[[[[120.943588,14.673714],[120.943605,14.673694],[120.943625,14.673687],[120.943656,14.67369],[120.943722,14.673711],[120.943697,14.673767],[120.943679,14.673789],[120.943659,14.673796],[120.943629,14.673791],[120.943567,14.673767],[120.943588,14.673714]]],[[[120.942621,14.67455],[120.942679,14.674466],[120.942731,14.674406],[120.942776,14.67437],[120.942824,14.67436],[120.942898,14.674385],[120.943005,14.67445],[120.943078,14.674502],[120.943091,14.674517],[120.943093,14.674528],[120.943084,14.674557],[120.942993,14.67475],[120.942951,14.674808],[120.942908,14.674841],[120.942853,14.674847],[120.942754,14.674814],[120.942746,14.674794],[120.942731,14.67478],[120.942589,14.674722],[120.942564,14.674709],[120.942548,14.674698],[120.942543,14.674689],[120.942553,14.674661],[120.942621,14.67455]]],[[[120.943349,14.674996],[120.94336,14.675028],[120.943377,14.675052],[120.943434,14.675096],[120.943443,14.675111],[120.943451,14.675136],[120.943426,14.675139],[120.943359,14.675121],[120.943135,14.675032],[120.943144,14.67498],[120.943155,14.674948],[120.94319,14.674886],[120.943216,14.67485],[120.943242,14.674826],[120.943267,14.674814],[120.943291,14.674813],[120.943315,14.674824],[120.943332,14.674844],[120.943343,14.674873],[120.943349,14.674996]]]]}}]}
