{"type":"FeatureCollection","features":[{"type":"Feature","properties":{"codes":["R-2-BASIC","R-2-MAX"],"name":"R-2 Basic or R-2 Max","color":"#ffffb4"},"geometry":{"type":"MultiPolygon","coordinates":[[[[120.938902,14.679602],[120.939014,14.679429],[120.939022,14.679417],[120.939133,14.679244],[120.939138,14.679236],[120.939205,14.679132],[120.939219,14.679111],[120.939325,14.678947],[120.939339,14.678925],[120.939444,14.678762],[120.939453,14.678748],[120.939516,14.67865],[120.939536,14.678619],[120.94,14.6779],[120.94,14.6752],[120.940275,14.675338],[120.940719,14.675567],[120.940718,14.675653],[120.940658,14.675724],[120.940597,14.675939],[120.940596,14.676054],[120.940537,14.676139],[120.940399,14.676655],[120.940325,14.676697],[120.940325,14.676754],[120.940369,14.676783],[120.940353,14.676884],[120.940264,14.676926],[120.940264,14.676969],[120.940308,14.676998],[120.940307,14.677084],[120.940231,14.677299],[120.940259,14.677514],[120.940361,14.677558],[120.940567,14.677588],[120.940597,14.677617],[120.94092,14.677663],[120.941023,14.677722],[120.941303,14.677753],[120.941464,14.677869],[120.941552,14.677898],[120.941655,14.677885],[120.941758,14.677943],[120.941861,14.677944],[120.941919,14.677988],[120.941904,14.678102],[120.941815,14.678159],[120.941697,14.678144],[120.941638,14.6781],[120.941579,14.678114],[120.941593,14.678214],[120.941813,14.678288],[120.941857,14.67836],[120.941738,14.678474],[120.941487,14.678472],[120.941413,14.678543],[120.941308,14.678771],[120.941307,14.678829],[120.941248,14.678871],[120.941188,14.679029],[120.941113,14.679128],[120.941097,14.679229],[120.941286,14.679488],[120.941285,14.679589],[120.941226,14.67966],[120.941254,14.679847],[120.941164,14.679918],[120.941134,14.679989],[120.941162,14.680162],[120.941,14.680203],[120.940969,14.680346],[120.940894,14.680489],[120.940555,14.680443],[120.940495,14.680586],[120.940289,14.68057],[120.93996,14.681083],[120.939959,14.681169],[120.940061,14.681256],[120.940873,14.681192],[120.940901,14.681292],[120.940885,14.681407],[120.940988,14.681508],[120.941017,14.681509],[120.941016,14.68158],[120.940882,14.681751],[120.940881,14.681909],[120.939682,14.682429],[120.939593,14.682514],[120.939592,14.682601],[120.939769,14.682616],[120.939814,14.682559],[120.939873,14.682546],[120.940166,14.682677],[120.940343,14.682665],[120.940504,14.682738],[120.940608,14.682739],[120.940667,14.682682],[120.940726,14.682668],[120.940726,14.682639],[120.940786,14.682625],[120.94089,14.682512],[120.940949,14.682498],[120.941142,14.682327],[120.941231,14.6823],[120.941275,14.682329],[120.941362,14.682487],[120.94145,14.682459],[120.941435,14.682502],[120.941523,14.682575],[120.94161,14.682748],[120.941607,14.682991],[120.942185,14.682667],[120.942187,14.682494],[120.942143,14.682465],[120.942056,14.682249],[120.942013,14.682206],[120.941968,14.682206],[120.941911,14.68209],[120.941911,14.682019],[120.942015,14.681977],[120.942045,14.681934],[120.942092,14.681561],[120.942034,14.681518],[120.94196,14.681517],[120.941888,14.681373],[120.94174,14.681372],[120.941711,14.681343],[120.941727,14.681257],[120.941698,14.681228],[120.941698,14.681127],[120.941728,14.681099],[120.941846,14.681086],[120.941877,14.680957],[120.941936,14.6809],[120.941893,14.680842],[120.941894,14.680684],[120.941659,14.680625],[120.94163,14.680596],[120.941631,14.68051],[120.941528,14.680437],[120.941558,14.680423],[120.941574,14.680237],[120.941604,14.68018],[120.941606,14.67995],[120.941666,14.679908],[120.941653,14.679678],[120.941742,14.679622],[120.941933,14.679638],[120.942022,14.679595],[120.941994,14.679437],[120.942027,14.679136],[120.941983,14.679064],[120.941984,14.678935],[120.942044,14.678878],[120.942047,14.678491],[120.942077,14.678434],[120.942269,14.67845],[120.942371,14.678494],[120.942371,14.678551],[120.942429,14.678609],[120.942562,14.678625],[120.942726,14.678397],[120.9428,14.678397],[120.942829,14.678441],[120.943006,14.678428],[120.943036,14.678385],[120.943038,14.678141],[120.943097,14.678142],[120.943096,14.678185],[120.943126,14.678199],[120.943124,14.678343],[120.943242,14.678344],[120.943361,14.678245],[120.943435,14.678245],[120.943493,14.678303],[120.943582,14.678304],[120.943656,14.678218],[120.943657,14.678147],[120.943569,14.678089],[120.94357,14.678017],[120.943674,14.677917],[120.943836,14.677847],[120.943881,14.67779],[120.944001,14.677576],[120.944032,14.677404],[120.94418,14.677391],[120.94418,14.677305],[120.944107,14.677261],[120.944109,14.677046],[120.944213,14.677004],[120.944258,14.67689],[120.944258,14.676861],[120.9442,14.676817],[120.944201,14.676688],[120.944245,14.676647],[120.944435,14.676761],[120.944443,14.676766],[120.944768,14.676961],[120.944794,14.676976],[120.945027,14.677116],[120.945076,14.677146],[120.945286,14.677271],[120.945378,14.677327],[120.945883,14.67763],[120.946,14.6777],[120.945997,14.677704],[120.945528,14.678408],[120.945056,14.679115],[120.945,14.6792],[120.944995,14.679207],[120.944952,14.679272],[120.944891,14.679364],[120.944847,14.679429],[120.944773,14.67954],[120.944712,14.679633],[120.944657,14.679714],[120.944607,14.67979],[120.944553,14.67987],[120.944502,14.679947],[120.944449,14.680027],[120.944398,14.680104],[120.944344,14.680184],[120.944293,14.68026],[120.944228,14.680358],[120.944158,14.680464],[120.944111,14.680534],[120.944053,14.680621],[120.944006,14.680691],[120.943948,14.680778],[120.943902,14.680847],[120.943844,14.680935],[120.943744,14.681084],[120.943604,14.681295],[120.943564,14.681354],[120.943499,14.681452],[120.94346,14.681511],[120.943394,14.681609],[120.943355,14.681667],[120.94329,14.681766],[120.943242,14.681837],[120.943055,14.682118],[120.943006,14.682192],[120.943,14.6822],[120.940441,14.683671],[120.939,14.6845],[120.937009,14.6846],[120.937,14.6846],[120.936985,14.684576],[120.936942,14.684508],[120.936914,14.684462],[120.936869,14.684391],[120.936843,14.684348],[120.936796,14.684274],[120.936531,14.683849],[120.936001,14.683002],[120.936,14.683],[120.936059,14.682929],[120.936455,14.682454],[120.936479,14.682425],[120.936665,14.682202],[120.936699,14.682161],[120.936849,14.681982],[120.93686,14.681968],[120.937,14.6818],[120.938,14.681],[120.938582,14.680098],[120.938585,14.680093],[120.938702,14.679911],[120.938705,14.679908],[120.938822,14.679726],[120.938823,14.679724],[120.938894,14.679614],[120.938902,14.679602]],[[120.939868,14.678343],[120.939897,14.678372],[120.939852,14.678385],[120.939809,14.678356],[120.939779,14.678399],[120.939896,14.678501],[120.94016,14.678632],[120.940291,14.678748],[120.940395,14.67872],[120.940499,14.678592],[120.940499,14.678563],[120.940294,14.678447],[120.940088,14.678445],[120.939956,14.678343],[120.939868,14.678343]]],[[[120.9431,14.677769],[120.943114,14.677898],[120.94304,14.677912],[120.942908,14.677853],[120.942805,14.677852],[120.942702,14.67778],[120.942614,14.677779],[120.942584,14.677879],[120.942539,14.677907],[120.942495,14.677907],[120.942451,14.677863],[120.942421,14.677892],[120.942304,14.677876],[120.94226,14.677804],[120.942305,14.677733],[120.942452,14.677763],[120.942497,14.67772],[120.942497,14.677663],[120.942557,14.677606],[120.942557,14.67752],[120.942602,14.677463],[120.942603,14.677391],[120.942544,14.677334],[120.9425,14.677333],[120.942471,14.677261],[120.942502,14.677147],[120.942488,14.677032],[120.942503,14.676989],[120.942563,14.676961],[120.942622,14.676961],[120.942651,14.67699],[120.94271,14.676976],[120.942742,14.676704],[120.942803,14.676518],[120.942847,14.676475],[120.942965,14.676477],[120.943025,14.676391],[120.943128,14.676406],[120.943112,14.676521],[120.943053,14.676578],[120.943052,14.676635],[120.943096,14.676664],[120.943184,14.676694],[120.943244,14.676622],[120.943273,14.676651],[120.943508,14.676697],[120.943522,14.676783],[120.943492,14.676826],[120.943492,14.676912],[120.943653,14.676999],[120.943622,14.677185],[120.943665,14.677229],[120.943664,14.677329],[120.943649,14.677415],[120.943604,14.677458],[120.943516,14.677471],[120.943339,14.677427],[120.943221,14.677426],[120.943192,14.677454],[120.94316,14.677726],[120.9431,14.677769]]]]}},{"type":"Feature","properties":{"codes":["CMP"],"name":"CMP","color":"#a8a800"},"geometry":{"type":"MultiPolygon","coordinates":[[[[120.940885,14.681407],[120.940901,14.681292],[120.94096,14.681322],[120.941269,14.681339],[120.941313,14.681397],[120.941341,14.681526],[120.941428,14.681641],[120.941442,14.681756],[120.941205,14.681883],[120.941042,14.682011],[120.940939,14.68201],[120.940925,14.681938],[120.940881,14.681909],[120.940882,14.681751],[120.941016,14.68158],[120.941017,14.681509],[120.940988,14.681508],[120.940885,14.681407]]]]}},{"type":"Feature","properties":{"codes":["C-1"],"name":"C-1","color":"#ff7f7f"},"geometry":{"type":"MultiPolygon","coordinates":[[[[120.942185,14.682667],[120.941607,14.682991],[120.94161,14.682748],[120.941523,14.682575],[120.941435,14.682502],[120.94145,14.682459],[120.941362,14.682487],[120.941275,14.682329],[120.941231,14.6823],[120.941142,14.682327],[120.940949,14.682498],[120.94089,14.682512],[120.940786,14.682625],[120.940726,14.682639],[120.940726,14.682668],[120.940667,14.682682],[120.940608,14.682739],[120.940504,14.682738],[120.940343,14.682665],[120.940166,14.682677],[120.939873,14.682546],[120.939814,14.682559],[120.939769,14.682616],[120.939592,14.682601],[120.939593,14.682514],[120.939682,14.682429],[120.940881,14.681909],[120.940925,14.681938],[120.940939,14.68201],[120.941042,14.682011],[120.941205,14.681883],[120.941442,14.681756],[120.941428,14.681641],[120.941341,14.681526],[120.941313,14.681397],[120.941269,14.681339],[120.94096,14.681322],[120.940901,14.681292],[120.940873,14.681192],[120.940061,14.681256],[120.939959,14.681169],[120.93996,14.681083],[120.940289,14.68057],[120.940495,14.680586],[120.940555,14.680443],[120.940894,14.680489],[120.940969,14.680346],[120.941,14.680203],[120.941162,14.680162],[120.941134,14.679989],[120.941164,14.679918],[120.941254,14.679847],[120.941226,14.67966],[120.941285,14.679589],[120.941286,14.679488],[120.941097,14.679229],[120.941113,14.679128],[120.941188,14.679029],[120.941248,14.678871],[120.941307,14.678829],[120.941308,14.678771],[120.941413,14.678543],[120.941487,14.678472],[120.941738,14.678474],[120.941857,14.67836],[120.941813,14.678288],[120.941593,14.678214],[120.941579,14.678114],[120.941638,14.6781],[120.941697,14.678144],[120.941815,14.678159],[120.941904,14.678102],[120.941919,14.677988],[120.942008,14.677989],[120.942067,14.677932],[120.942159,14.677574],[120.942189,14.67756],[120.942295,14.677217],[120.942372,14.676844],[120.942417,14.676802],[120.942464,14.676501],[120.942494,14.676472],[120.942494,14.676415],[120.942524,14.676401],[120.94254,14.676215],[120.942614,14.676143],[120.942659,14.676144],[120.942772,14.676172],[120.944,14.6765],[120.944245,14.676647],[120.944201,14.676688],[120.9442,14.676817],[120.944258,14.676861],[120.944258,14.67689],[120.944213,14.677004],[120.944109,14.677046],[120.944107,14.677261],[120.94418,14.677305],[120.94418,14.677391],[120.944032,14.677404],[120.944001,14.677576],[120.943881,14.67779],[120.943836,14.677847],[120.943674,14.677917],[120.94357,14.678017],[120.943569,14.678089],[120.943657,14.678147],[120.943656,14.678218],[120.943582,14.678304],[120.943493,14.678303],[120.943435,14.678245],[120.943361,14.678245],[120.943242,14.678344],[120.943124,14.678343],[120.943126,14.678199],[120.943096,14.678185],[120.943097,14.678142],[120.943038,14.678141],[120.943036,14.678385],[120.943006,14.678428],[120.942829,14.678441],[120.9428,14.678397],[120.942726,14.678397],[120.942562,14.678625],[120.942429,14.678609],[120.942371,14.678551],[120.942371,14.678494],[120.942269,14.67845],[120.942077,14.678434],[120.942047,14.678491],[120.942044,14.678878],[120.941984,14.678935],[120.941983,14.679064],[120.942027,14.679136],[120.941994,14.679437],[120.942022,14.679595],[120.941933,14.679638],[120.941742,14.679622],[120.941653,14.679678],[120.941666,14.679908],[120.941606,14.67995],[120.941604,14.68018],[120.941574,14.680237],[120.941558,14.680423],[120.941528,14.680437],[120.941631,14.68051],[120.94163,14.680596],[120.941659,14.680625],[120.941894,14.680684],[120.941893,14.680842],[120.941936,14.6809],[120.941877,14.680957],[120.941846,14.681086],[120.941728,14.681099],[120.941698,14.681127],[120.941698,14.681228],[120.941727,14.681257],[120.941711,14.681343],[120.94174,14.681372],[120.941888,14.681373],[120.94196,14.681517],[120.942034,14.681518],[120.942092,14.681561],[120.942045,14.681934],[120.942015,14.681977],[120.941911,14.682019],[120.941911,14.68209],[120.941968,14.682206],[120.942013,14.682206],[120.942056,14.682249],[120.942143,14.682465],[120.942187,14.682494],[120.942185,14.682667]],[[120.942495,14.677907],[120.942539,14.677907],[120.942537,14.678108],[120.942728,14.678167],[120.942788,14.67811],[120.94276,14.677938],[120.942805,14.677852],[120.942908,14.677853],[120.94304,14.677912],[120.943114,14.677898],[120.9431,14.677769],[120.94316,14.677726],[120.943192,14.677454],[120.943221,14.677426],[120.943339,14.677427],[120.943516,14.677471],[120.943604,14.677458],[120.943649,14.677415],[120.943664,14.677329],[120.943665,14.677229],[120.943622,14.677185],[120.943653,14.676999],[120.943492,14.676912],[120.943492,14.676826],[120.943522,14.676783],[120.943508,14.676697],[120.943273,14.676651],[120.943244,14.676622],[120.943184,14.676694],[120.943096,14.676664],[120.943052,14.676635],[120.943053,14.676578],[120.943112,14.676521],[120.943128,14.676406],[120.943025,14.676391],[120.942965,14.676477],[120.942847,14.676475],[120.942803,14.676518],[120.942742,14.676704],[120.94271,14.676976],[120.942651,14.67699],[120.942622,14.676961],[120.942563,14.676961],[120.942503,14.676989],[120.942488,14.677032],[120.942502,14.677147],[120.942471,14.677261],[120.9425,14.677333],[120.942544,14.677334],[120.942603,14.677391],[120.942602,14.677463],[120.942557,14.67752],[120.942557,14.677606],[120.942497,14.677663],[120.942497,14.67772],[120.942452,14.677763],[120.942305,14.677733],[120.94226,14.677804],[120.942304,14.677876],[120.942421,14.677892],[120.942451,14.677863],[120.942495,14.677907]]]]}},{"type":"Feature","properties":{"codes":["C-2"],"name":"C-2","color":"#ff0000"},"geometry":{"type":"MultiPolygon","coordinates":[[[[120.940275,14.675338],[120.941,14.6757],[120.941734,14.675896],[120.941835,14.675923],[120.94176,14.676107],[120.941714,14.676322],[120.940596,14.676054],[120.940597,14.675939],[120.940658,14.675724],[120.940718,14.675653],[120.940719,14.675567],[120.940275,14.675338]]]]}},{"type":"Feature","properties":{"codes":["INSTITUTIONAL"],"name":"Institutional","color":"#0000ff"},"geometry":{"type":"MultiPolygon","coordinates":[[[[120.942067,14.677932],[120.942008,14.677989],[120.941919,14.677988],[120.941861,14.677944],[120.941758,14.677943],[120.941655,14.677885],[120.941552,14.677898],[120.941464,14.677869],[120.941303,14.677753],[120.941023,14.677722],[120.94092,14.677663],[120.940597,14.677617],[120.940567,14.677588],[120.940361,14.677558],[120.940259,14.677514],[120.940231,14.677299],[120.940307,14.677084],[120.940308,14.676998],[120.940264,14.676969],[120.940264,14.676926],[120.940353,14.676884],[120.940369,14.676783],[120.940325,14.676754],[120.940325,14.676697],[120.940399,14.676655],[120.940537,14.676139],[120.940596,14.676054],[120.941714,14.676322],[120.942464,14.676501],[120.942417,14.676802],[120.942372,14.676844],[120.942295,14.677217],[120.942189,14.67756],[120.942159,14.677574],[120.942067,14.677932]]],[[[120.942584,14.677879],[120.942614,14.677779],[120.942702,14.67778],[120.942805,14.677852],[120.94276,14.677938],[120.942788,14.67811],[120.942728,14.678167],[120.942537,14.678108],[120.942539,14.677907],[120.942584,14.677879]]],[[[120.940088,14.678445],[120.940294,14.678447],[120.940499,14.678563],[120.940499,14.678592],[120.940395,14.67872],[120.940291,14.678748],[120.94016,14.678632],[120.939896,14.678501],[120.939779,14.678399],[120.939809,14.678356],[120.939852,14.678385],[120.939897,14.678372],[120.939868,14.678343],[120.939956,14.678343],[120.940088,14.678445]]]]}},{"type":"Feature","properties":{"codes":["PARKS"],"name":"Parks and Recreation","color":"#38a800"},"geometry":{"type":"MultiPolygon","coordinates":[[[[120.942772,14.676172],[120.942659,14.676144],[120.942614,14.676143],[120.94254,14.676215],[120.942524,14.676401],[120.942494,14.676415],[120.942494,14.676472],[120.942464,14.676501],[120.941714,14.676322],[120.94176,14.676107],[120.941835,14.675923],[120.942225,14.676027],[120.942772,14.676172]]]]}}]}
