{"type":"FeatureCollection","features":[{"type":"Feature","properties":{"codes":["R-2-BASIC","R-2-MAX"],"name":"R-2 Basic or R-2 Max","color":"#ffffb4"},"geometry":{"type":"MultiPolygon","coordinates":[[[[120.950186,14.663024],[120.95021,14.662975],[120.950244,14.662862],[120.950112,14.662829],[120.950109,14.662827],[120.950813,14.663003],[120.952,14.6633],[120.952,14.663517],[120.952,14.6639],[120.953294,14.664288],[120.954,14.6645],[120.953486,14.665169],[120.953623,14.664987],[120.953104,14.664982],[120.952858,14.664964],[120.952712,14.66493],[120.952608,14.664881],[120.952468,14.664722],[120.95243,14.664653],[120.952406,14.664623],[120.952288,14.6645],[120.95219,14.664375],[120.952159,14.664344],[120.952127,14.664324],[120.952094,14.664313],[120.95206,14.664313],[120.95196,14.664332],[120.951817,14.664377],[120.951761,14.664408],[120.951724,14.664445],[120.951706,14.664487],[120.951708,14.664535],[120.951737,14.664663],[120.951801,14.664834],[120.951849,14.664993],[120.951882,14.665212],[120.951925,14.665306],[120.951925,14.665362],[120.95193,14.665378],[120.95195,14.665404],[120.951959,14.665424],[120.951963,14.665453],[120.951963,14.66557],[120.951971,14.665594],[120.951983,14.665607],[120.952,14.66561],[120.952055,14.665602],[120.952137,14.665579],[120.952179,14.665577],[120.952219,14.665587],[120.952258,14.665608],[120.952324,14.665671],[120.95236,14.665714],[120.952374,14.665756],[120.952368,14.665798],[120.952569,14.6658],[120.952108,14.6658],[120.952,14.6658],[120.951648,14.66587],[120.950552,14.66609],[120.950311,14.666138],[120.95,14.6662],[120.949594,14.666105],[120.949185,14.66601],[120.948938,14.66595],[120.948972,14.665858],[120.948995,14.665814],[120.949017,14.665787],[120.949043,14.665766],[120.949073,14.665752],[120.949096,14.665734],[120.949113,14.665712],[120.949125,14.665685],[120.94913,14.665654],[120.949126,14.665588],[120.949095,14.665487],[120.949095,14.665461],[120.949102,14.665442],[120.949117,14.665428],[120.949137,14.665419],[120.949162,14.665417],[120.949225,14.665431],[120.949279,14.665458],[120.949334,14.66551],[120.949394,14.66553],[120.949488,14.665537],[120.949503,14.665533],[120.949517,14.665509],[120.949535,14.665407],[120.949523,14.665372],[120.949494,14.665344],[120.949447,14.665324],[120.949273,14.665286],[120.949251,14.665269],[120.949252,14.665245],[120.949274,14.665197],[120.949287,14.665182],[120.949301,14.665172],[120.949355,14.665155],[120.949369,14.665142],[120.949387,14.6651],[120.949401,14.665083],[120.94942,14.665072],[120.949446,14.665068],[120.949523,14.665069],[120.949544,14.665057],[120.949556,14.66502],[120.949574,14.664889],[120.949592,14.664846],[120.949608,14.664832],[120.94963,14.664822],[120.949693,14.664818],[120.949721,14.664799],[120.949744,14.664761],[120.94976,14.664704],[120.949771,14.664628],[120.949771,14.664567],[120.94976,14.664521],[120.949739,14.664491],[120.949707,14.664476],[120.949683,14.664454],[120.949666,14.664422],[120.949656,14.664383],[120.949654,14.664335],[120.94966,14.664295],[120.949674,14.664265],[120.949696,14.664242],[120.949725,14.664228],[120.949749,14.664208],[120.949766,14.664182],[120.949778,14.664149],[120.949801,14.664035],[120.949838,14.663926],[120.949842,14.6639],[120.949829,14.663843],[120.94983,14.663776],[120.949836,14.66373],[120.949852,14.663697],[120.949879,14.663676],[120.949917,14.663667],[120.949966,14.663669],[120.950004,14.663664],[120.95003,14.66365],[120.950044,14.663627],[120.950045,14.66357],[120.950037,14.66355],[120.950025,14.663535],[120.950008,14.663525],[120.949987,14.663502],[120.949983,14.663475],[120.949991,14.663464],[120.950007,14.663457],[120.950089,14.66345],[120.95011,14.663444],[120.950126,14.663433],[120.950144,14.6634],[120.950157,14.663314],[120.950148,14.663265],[120.950136,14.663249],[120.950099,14.663231],[120.950026,14.663218],[120.950007,14.663207],[120.949996,14.663188],[120.949993,14.66316],[120.950012,14.663074],[120.950031,14.663053],[120.950069,14.663048],[120.950132,14.663055],[120.950161,14.663046],[120.950186,14.663024]],[[120.950726,14.665177],[120.950766,14.665697],[120.950774,14.666042],[120.951237,14.665951],[120.951226,14.665913],[120.951227,14.665892],[120.951255,14.665855],[120.951312,14.665802],[120.951323,14.665772],[120.951285,14.665628],[120.951109,14.665064],[120.95105,14.664822],[120.951016,14.664722],[120.950987,14.664657],[120.95098,14.664629],[120.950977,14.664558],[120.950967,14.664541],[120.950952,14.664528],[120.950905,14.66451],[120.950817,14.664497],[120.950791,14.664502],[120.950771,14.664513],[120.950758,14.664532],[120.95075,14.664559],[120.950736,14.664686],[120.950723,14.664915],[120.950726,14.665177]],[[120.950412,14.663611],[120.950401,14.663588],[120.950385,14.663571],[120.950335,14.663576],[120.950313,14.663586],[120.950302,14.663601],[120.950296,14.66363],[120.950295,14.663695],[120.950362,14.663679],[120.950391,14.663668],[120.950406,14.663657],[120.950413,14.663642],[120.950412,14.663611]]]]}},{"type":"Feature","properties":{"codes":["CMP"],"name":"CMP","color":"#a8a800"},"geometry":{"type":"MultiPolygon","coordinates":[[[[120.953486,14.665169],[120.953288,14.665425],[120.953255,14.665468],[120.953,14.6658],[120.952732,14.6658],[120.952569,14.6658],[120.952368,14.665798],[120.952374,14.665756],[120.95236,14.665714],[120.952324,14.665671],[120.952258,14.665608],[120.952219,14.665587],[120.952179,14.665577],[120.952137,14.665579],[120.952055,14.665602],[120.952,14.66561],[120.951983,14.665607],[120.951971,14.665594],[120.951963,14.66557],[120.951963,14.665453],[120.951959,14.665424],[120.95195,14.665404],[120.95193,14.665378],[120.951925,14.665362],[120.951925,14.665306],[120.951882,14.665212],[120.951849,14.664993],[120.951801,14.664834],[120.951737,14.664663],[120.951708,14.664535],[120.951706,14.664487],[120.951724,14.664445],[120.951761,14.664408],[120.951817,14.664377],[120.95196,14.664332],[120.95206,14.664313],[120.952094,14.664313],[120.952127,14.664324],[120.952159,14.664344],[120.95219,14.664375],[120.952288,14.6645],[120.952406,14.664623],[120.95243,14.664653],[120.952468,14.664722],[120.952608,14.664881],[120.952712,14.66493],[120.952858,14.664964],[120.953104,14.664982],[120.953623,14.664987],[120.953486,14.665169]]]]}},{"type":"Feature","properties":{"codes":["C-1"],"name":"C-1","color":"#ff7f7f"},"geometry":{"type":"MultiPolygon","coordinates":[[[[120.949185,14.66601],[120.947,14.6655],[120.949,14.6618],[120.95,14.6628],[120.950109,14.662827],[120.950112,14.662829],[120.950244,14.662862],[120.95021,14.662975],[120.950186,14.663024],[120.950161,14.663046],[120.950132,14.663055],[120.950069,14.663048],[120.950031,14.663053],[120.950012,14.663074],[120.949993,14.66316],[120.949996,14.663188],[120.950007,14.663207],[120.950026,14.663218],[120.950099,14.663231],[120.950136,14.663249],[120.950148,14.663265],[120.950157,14.663314],[120.950144,14.6634],[120.950126,14.663433],[120.95011,14.663444],[120.950089,14.66345],[120.950007,14.663457],[120.949991,14.663464],[120.949983,14.663475],[120.949987,14.663502],[120.950008,14.663525],[120.950025,14.663535],[120.950037,14.66355],[120.950045,14.66357],[120.950044,14.663627],[120.95003,14.66365],[120.950004,14.663664],[120.949966,14.663669],[120.949917,14.663667],[120.949879,14.663676],[120.949852,14.663697],[120.949836,14.66373],[120.94983,14.663776],[120.949829,14.663843],[120.949842,14.6639],[120.949838,14.663926],[120.949801,14.664035],[120.949778,14.664149],[120.949766,14.664182],[120.949749,14.664208],[120.949725,14.664228],[120.949696,14.664242],[120.949674,14.664265],[120.94966,14.664295],[120.949654,14.664335],[120.949656,14.664383],[120.949666,14.664422],[120.949683,14.664454],[120.949707,14.664476],[120.949739,14.664491],[120.94976,14.664521],[120.949771,14.664567],[120.949771,14.664628],[120.94976,14.664704],[120.949744,14.664761],[120.949721,14.664799],[120.949693,14.664818],[120.94963,14.664822],[120.949608,14.664832],[120.949592,14.664846],[120.949574,14.664889],[120.949556,14.66502],[120.949544,14.665057],[120.949523,14.665069],[120.949446,14.665068],[120.94942,14.665072],[120.949401,14.665083],[120.949387,14.6651],[120.949369,14.665142],[120.949355,14.665155],[120.949301,14.665172],[120.949287,14.665182],[120.949274,14.665197],[120.949252,14.665245],[120.949251,14.665269],[120.949273,14.665286],[120.949447,14.665324],[120.949494,14.665344],[120.949523,14.665372],[120.949535,14.665407],[120.949517,14.665509],[120.949503,14.665533],[120.949488,14.665537],[120.949394,14.66553],[120.949334,14.66551],[120.949279,14.665458],[120.949225,14.665431],[120.949162,14.665417],[120.949137,14.665419],[120.949117,14.665428],[120.949102,14.665442],[120.949095,14.665461],[120.949095,14.665487],[120.949126,14.665588],[120.94913,14.665654],[120.949125,14.665685],[120.949113,14.665712],[120.949096,14.665734],[120.949073,14.665752],[120.949043,14.665766],[120.949017,14.665787],[120.948995,14.665814],[120.948972,14.665858],[120.948938,14.66595],[120.949185,14.66601]]]]}},{"type":"Feature","properties":{"codes":["INSTITUTIONAL"],"name":"Institutional","color":"#0000ff"},"geometry":{"type":"MultiPolygon","coordinates":[[[[120.950413,14.663642],[120.950406,14.663657],[120.950391,14.663668],[120.950362,14.663679],[120.950295,14.663695],[120.950296,14.66363],[120.950302,14.663601],[120.950313,14.663586],[120.950335,14.663576],[120.950385,14.663571],[120.950401,14.663588],[120.950412,14.663611],[120.950413,14.663642]]],[[[120.951255,14.665855],[120.951227,14.665892],[120.951226,14.665913],[120.951237,14.665951],[120.950774,14.666042],[120.950766,14.665697],[120.950726,14.665177],[120.950723,14.664915],[120.950736,14.664686],[120.95075,14.664559],[120.950758,14.664532],[120.950771,14.664513],[120.950791,14.664502],[120.950817,14.664497],[120.950905,14.66451],[120.950952,14.664528],[120.950967,14.664541],[120.950977,14.664558],[120.95098,14.664629],[120.950987,14.664657],[120.951016,14.664722],[120.95105,14.664822],[120.951109,14.665064],[120.951285,14.665628],[120.951323,14.665772],[120.951312,14.665802],[120.951255,14.665855]]]]}}]}
