{"type":"FeatureCollection","features":[{"type":"Feature","properties":{"codes":["R-1"],"name":"R-1","color":"#ffffdb"},"geometry":{"type":"MultiPolygon","coordinates":[[[[120.960823,14.655257],[120.960961,14.655275],[120.960977,14.655342],[120.961012,14.655342],[120.961199,14.655528],[120.961233,14.655528],[120.961301,14.655612],[120.961353,14.65563],[120.961352,14.655696],[120.961213,14.655829],[120.961162,14.655845],[120.961043,14.65571],[120.960957,14.655676],[120.960957,14.655643],[120.960889,14.655575],[120.960855,14.655575],[120.960753,14.655457],[120.960718,14.655457],[120.960702,14.655406],[120.960582,14.655338],[120.960583,14.655255],[120.960652,14.655188],[120.960738,14.655189],[120.960755,14.655239],[120.960807,14.655223],[120.960823,14.655257]]]]}},{"type":"Feature","properties":{"codes":["R-2-BASIC","R-2-MAX"],"name":"R-2 Basic or R-2 Max","color":"#ffffb4"},"geometry":{"type":"MultiPolygon","coordinates":[[[[120.960367,14.646918],[120.960368,14.646918],[120.962,14.645],[120.962002,14.645001],[120.962302,14.645196],[120.962325,14.645211],[120.962352,14.645229],[120.962377,14.645245],[120.962403,14.645262],[120.962429,14.645279],[120.962454,14.645295],[120.962482,14.645313],[120.962505,14.645328],[120.962534,14.645347],[120.962556,14.645361],[120.962586,14.645381],[120.962606,14.645394],[120.962651,14.645423],[120.962695,14.645452],[120.962717,14.645466],[120.962746,14.645485],[120.962769,14.6455],[120.962797,14.645518],[120.962821,14.645534],[120.962848,14.645551],[120.962873,14.645568],[120.963061,14.64569],[120.963359,14.645883],[120.963394,14.645906],[120.963421,14.645924],[120.963445,14.645939],[120.963474,14.645958],[120.963495,14.645972],[120.963526,14.645992],[120.963678,14.646091],[120.963996,14.646297],[120.963999,14.646299],[120.964,14.6463],[120.963685,14.646599],[120.963706,14.646579],[120.963534,14.646578],[120.963483,14.646527],[120.963414,14.64651],[120.963278,14.646358],[120.963279,14.646324],[120.963193,14.646324],[120.963019,14.646523],[120.962967,14.646539],[120.962967,14.646573],[120.962846,14.646672],[120.962845,14.646756],[120.963084,14.646975],[120.963082,14.647172],[120.962,14.6482],[120.962116,14.648292],[120.962132,14.648306],[120.962202,14.648362],[120.962217,14.648374],[120.962288,14.648431],[120.962302,14.648441],[120.962375,14.6485],[120.962386,14.648509],[120.962461,14.648569],[120.962471,14.648577],[120.962556,14.648645],[120.962577,14.648661],[120.962645,14.648716],[120.962661,14.648729],[120.962731,14.648785],[120.962746,14.648797],[120.962818,14.648854],[120.96283,14.648864],[120.962904,14.648923],[120.962915,14.648932],[120.962999,14.648999],[120.963021,14.649017],[120.963088,14.64907],[120.963105,14.649084],[120.963174,14.649139],[120.96319,14.649152],[120.96326,14.649208],[120.963275,14.64922],[120.963593,14.649474],[120.963506,14.649573],[120.96318,14.649587],[120.963127,14.649687],[120.963058,14.649703],[120.962989,14.649769],[120.962989,14.649803],[120.962937,14.649836],[120.962901,14.649953],[120.962641,14.650218],[120.962638,14.650503],[120.962363,14.650517],[120.961738,14.651198],[120.961701,14.651415],[120.961736,14.651432],[120.961735,14.651466],[120.961425,14.651513],[120.961339,14.651596],[120.961303,14.651763],[120.961079,14.651761],[120.961061,14.651878],[120.960974,14.651978],[120.960956,14.652044],[120.960871,14.652027],[120.960819,14.651976],[120.960803,14.651909],[120.960717,14.651892],[120.960632,14.651757],[120.960529,14.651756],[120.960547,14.651723],[120.960513,14.651706],[120.960513,14.651672],[120.960461,14.651655],[120.960376,14.651554],[120.960342,14.651554],[120.960138,14.651351],[120.960121,14.651284],[120.960035,14.651267],[120.960036,14.651233],[120.959933,14.651182],[120.959831,14.651064],[120.959796,14.651064],[120.959643,14.650912],[120.959609,14.650911],[120.959592,14.650844],[120.959558,14.650844],[120.959388,14.650658],[120.959353,14.650658],[120.959268,14.650574],[120.959268,14.65054],[120.959148,14.650506],[120.958893,14.650252],[120.958807,14.650235],[120.958773,14.650201],[120.958704,14.6502],[120.95874,14.6501],[120.958637,14.650049],[120.958535,14.649931],[120.9585,14.649931],[120.958313,14.649745],[120.958279,14.649745],[120.958194,14.649644],[120.958125,14.649626],[120.958108,14.649576],[120.958108,14.649573],[120.958174,14.649496],[120.958182,14.649487],[120.958327,14.649316],[120.958334,14.649307],[120.9584,14.649229],[120.958407,14.649222],[120.958554,14.649049],[120.95856,14.649042],[120.958627,14.648963],[120.958632,14.648957],[120.958781,14.648783],[120.958786,14.648776],[120.958854,14.648697],[120.958858,14.648692],[120.959007,14.648516],[120.959012,14.648511],[120.95908,14.648431],[120.959083,14.648428],[120.959234,14.64825],[120.959238,14.648245],[120.959307,14.648164],[120.959308,14.648163],[120.959461,14.647984],[120.959464,14.64798],[120.959534,14.647898],[120.959687,14.647717],[120.95969,14.647714],[120.959914,14.647451],[120.959916,14.647449],[120.960141,14.647185],[120.960142,14.647183],[120.960367,14.646918]],[[120.960361,14.651387],[120.960395,14.651387],[120.96048,14.651488],[120.960532,14.651488],[120.960618,14.651406],[120.960636,14.651339],[120.961018,14.650991],[120.961001,14.650907],[120.961036,14.650924],[120.961053,14.650874],[120.960968,14.650773],[120.960883,14.650722],[120.960849,14.650654],[120.960746,14.650603],[120.960676,14.650737],[120.960572,14.650803],[120.960503,14.650919],[120.960416,14.650969],[120.960329,14.651118],[120.960208,14.651218],[120.960207,14.651251],[120.960276,14.651285],[120.960361,14.651387]],[[120.960812,14.647223],[120.960777,14.64724],[120.960778,14.647206],[120.960743,14.647206],[120.960657,14.647255],[120.960657,14.647289],[120.96057,14.647355],[120.96057,14.647388],[120.960449,14.647488],[120.960448,14.647538],[120.960721,14.647791],[120.960823,14.647842],[120.960823,14.647909],[120.960684,14.648042],[120.96065,14.648042],[120.960649,14.648092],[120.960511,14.648208],[120.960458,14.648291],[120.96051,14.648292],[120.96051,14.648325],[120.960527,14.648292],[120.960578,14.648309],[120.960646,14.64841],[120.960681,14.64841],[120.960902,14.64863],[120.960936,14.64863],[120.961004,14.648714],[120.961039,14.648715],[120.961124,14.648816],[120.961192,14.64885],[120.961279,14.648767],[120.961279,14.648734],[120.961401,14.648634],[120.961401,14.648601],[120.961557,14.648485],[120.961592,14.648385],[120.961644,14.648369],[120.961679,14.648302],[120.961713,14.648302],[120.961713,14.648269],[120.961817,14.648186],[120.96187,14.648069],[120.961665,14.6479],[120.961649,14.647833],[120.961546,14.647799],[120.961427,14.647647],[120.961375,14.647646],[120.961307,14.647562],[120.961188,14.647494],[120.961084,14.64751],[120.961085,14.647477],[120.96105,14.647476],[120.960965,14.647392],[120.960965,14.647358],[120.960897,14.647324],[120.960915,14.647291],[120.960864,14.647224],[120.960829,14.647257],[120.960812,14.647223]]],[[[120.962721,14.654537],[120.962721,14.65457],[120.962582,14.654686],[120.962565,14.654736],[120.962357,14.654902],[120.962322,14.654985],[120.9622,14.655085],[120.9622,14.655135],[120.962336,14.655237],[120.962336,14.655303],[120.962232,14.655353],[120.962215,14.655403],[120.962145,14.655436],[120.962145,14.655469],[120.961972,14.655652],[120.961936,14.655769],[120.961849,14.655835],[120.961849,14.655885],[120.96178,14.655901],[120.961728,14.655951],[120.96171,14.656051],[120.961588,14.656184],[120.96157,14.656301],[120.961466,14.6564],[120.961447,14.656551],[120.961343,14.65665],[120.961275,14.65665],[120.960967,14.656496],[120.960846,14.656495],[120.960795,14.656445],[120.960623,14.656426],[120.960556,14.656325],[120.96047,14.656308],[120.960419,14.656257],[120.960367,14.656257],[120.960265,14.656189],[120.96011,14.656154],[120.960076,14.656104],[120.960008,14.656103],[120.959991,14.656069],[120.959939,14.656069],[120.959854,14.656018],[120.95975,14.656017],[120.959682,14.655966],[120.959579,14.655965],[120.959477,14.655881],[120.959357,14.655863],[120.959254,14.655745],[120.959151,14.655727],[120.959118,14.655677],[120.958963,14.655675],[120.958946,14.655642],[120.958843,14.655607],[120.958808,14.655641],[120.958792,14.65559],[120.95874,14.655573],[120.958706,14.655523],[120.958655,14.655522],[120.958621,14.655488],[120.958586,14.655505],[120.958501,14.65542],[120.958364,14.655386],[120.958346,14.655419],[120.958347,14.655385],[120.958312,14.655385],[120.95826,14.655418],[120.958262,14.655301],[120.958142,14.655233],[120.95809,14.655233],[120.958091,14.655199],[120.958056,14.655199],[120.958005,14.655131],[120.957936,14.655131],[120.957886,14.65498],[120.9578,14.655012],[120.957765,14.655079],[120.957731,14.655079],[120.95773,14.655129],[120.957644,14.655178],[120.957523,14.655177],[120.957198,14.655057],[120.957043,14.655039],[120.957043,14.655106],[120.957009,14.655089],[120.956972,14.65529],[120.956766,14.655254],[120.956544,14.655135],[120.956442,14.655034],[120.956,14.65503],[120.956,14.6544],[120.956,14.6541],[120.958887,14.650925],[120.958885,14.651106],[120.958988,14.651107],[120.959022,14.651157],[120.959108,14.651191],[120.959312,14.651394],[120.959432,14.651462],[120.959465,14.651546],[120.959517,14.651546],[120.959687,14.651715],[120.960048,14.651735],[120.960167,14.65187],[120.960236,14.651888],[120.96073,14.65236],[120.960712,14.652444],[120.960574,14.652443],[120.960488,14.652509],[120.960488,14.652542],[120.960436,14.652559],[120.960436,14.652592],[120.960332,14.652675],[120.960331,14.652708],[120.960193,14.652757],[120.960175,14.652858],[120.960036,14.653007],[120.960018,14.653124],[120.959966,14.653174],[120.95988,14.653156],[120.95981,14.653256],[120.959741,14.653289],[120.959741,14.653322],[120.959672,14.653355],[120.959654,14.653422],[120.959603,14.653438],[120.959585,14.653505],[120.959498,14.653571],[120.95948,14.653621],[120.959325,14.653654],[120.959255,14.653787],[120.959152,14.653819],[120.959065,14.653919],[120.958996,14.653935],[120.958978,14.654019],[120.958926,14.654052],[120.958943,14.654119],[120.958908,14.654185],[120.958839,14.654218],[120.958787,14.654285],[120.958752,14.654284],[120.958752,14.654351],[120.958665,14.654384],[120.95863,14.654451],[120.958561,14.6545],[120.95856,14.654601],[120.958473,14.6547],[120.958422,14.654717],[120.958369,14.654817],[120.958317,14.654833],[120.958282,14.654967],[120.958247,14.654966],[120.958247,14.655],[120.958213,14.655016],[120.958194,14.655133],[120.958229,14.65515],[120.958228,14.655184],[120.958314,14.655201],[120.958349,14.655168],[120.958348,14.655268],[120.958433,14.655319],[120.958573,14.655103],[120.958693,14.655121],[120.958694,14.655054],[120.958746,14.654971],[120.959024,14.654689],[120.959024,14.654622],[120.958922,14.654537],[120.958922,14.654487],[120.958974,14.654471],[120.959061,14.654388],[120.959061,14.654354],[120.959286,14.654155],[120.959322,14.654055],[120.959408,14.653989],[120.959409,14.653939],[120.959512,14.65389],[120.959634,14.653773],[120.959685,14.653774],[120.959702,14.653824],[120.959822,14.653892],[120.959975,14.654061],[120.960009,14.654061],[120.960197,14.654247],[120.960248,14.654264],[120.960282,14.654365],[120.960177,14.654464],[120.960194,14.654498],[120.960125,14.654548],[120.960125,14.654581],[120.960176,14.654598],[120.960329,14.654767],[120.960364,14.654767],[120.960483,14.654902],[120.960517,14.654903],[120.960585,14.65497],[120.960602,14.655071],[120.960653,14.655105],[120.960652,14.655188],[120.960583,14.655255],[120.960582,14.655338],[120.960702,14.655406],[120.960718,14.655457],[120.960753,14.655457],[120.960855,14.655575],[120.960889,14.655575],[120.960957,14.655643],[120.960957,14.655676],[120.961043,14.65571],[120.961162,14.655845],[120.961213,14.655829],[120.961352,14.655696],[120.961353,14.65563],[120.961301,14.655612],[120.961233,14.655528],[120.961199,14.655528],[120.961012,14.655342],[120.960977,14.655342],[120.960961,14.655275],[120.96103,14.655208],[120.96103,14.655175],[120.961186,14.655042],[120.961187,14.655009],[120.961308,14.654909],[120.961308,14.654876],[120.961343,14.654876],[120.961343,14.654843],[120.961447,14.654794],[120.961482,14.65471],[120.961551,14.654661],[120.961552,14.654594],[120.961364,14.654425],[120.96133,14.654424],[120.96133,14.654391],[120.961296,14.654391],[120.961245,14.654323],[120.96121,14.654323],[120.961194,14.654273],[120.961074,14.654205],[120.960938,14.654069],[120.960921,14.653986],[120.96075,14.65385],[120.960751,14.653817],[120.960682,14.653799],[120.96058,14.653681],[120.960443,14.653663],[120.960273,14.653478],[120.960238,14.653477],[120.960136,14.653359],[120.96012,14.653292],[120.960172,14.653226],[120.960395,14.653228],[120.960396,14.653194],[120.960517,14.653078],[120.9605,14.653011],[120.960621,14.652979],[120.960812,14.652746],[120.960881,14.652763],[120.960983,14.652882],[120.961017,14.652882],[120.961102,14.652983],[120.961137,14.652983],[120.961222,14.653101],[120.961324,14.653136],[120.961358,14.653253],[120.961409,14.653253],[120.961529,14.653321],[120.961853,14.653626],[120.961955,14.653677],[120.961989,14.653761],[120.962109,14.653795],[120.962109,14.653845],[120.962143,14.653846],[120.962313,14.654031],[120.962433,14.654099],[120.962433,14.654133],[120.962467,14.654133],[120.962552,14.654234],[120.962655,14.654269],[120.962688,14.654353],[120.962723,14.654353],[120.962808,14.654437],[120.96279,14.654487],[120.962721,14.654537]]],[[[120.958464,14.657545],[120.958465,14.657428],[120.958517,14.657395],[120.958552,14.657312],[120.958536,14.657262],[120.958178,14.656907],[120.958178,14.656857],[120.958144,14.656856],[120.958127,14.656806],[120.958059,14.656755],[120.958025,14.656655],[120.95818,14.656673],[120.95823,14.656807],[120.958452,14.65701],[120.958452,14.657043],[120.95852,14.657111],[120.958571,14.657128],[120.958571,14.657161],[120.958605,14.657162],[120.958605,14.657195],[120.958673,14.657263],[120.958725,14.657263],[120.958776,14.657314],[120.958809,14.657415],[120.958844,14.657415],[120.958843,14.657448],[120.958912,14.657499],[120.958928,14.657566],[120.959013,14.657634],[120.959013,14.657667],[120.959098,14.657752],[120.959253,14.657803],[120.959321,14.657854],[120.959336,14.658022],[120.959249,14.658172],[120.959145,14.658271],[120.959076,14.658271],[120.958578,14.658199],[120.958186,14.657928],[120.958065,14.657927],[120.957944,14.657993],[120.957772,14.657991],[120.957704,14.657924],[120.957601,14.657889],[120.957465,14.657754],[120.957345,14.657703],[120.957243,14.657602],[120.957192,14.657601],[120.957106,14.657517],[120.957004,14.657482],[120.957007,14.657114],[120.957128,14.657082],[120.957163,14.656948],[120.957198,14.656932],[120.957268,14.656748],[120.95732,14.656715],[120.957321,14.656648],[120.95739,14.656599],[120.957426,14.656432],[120.957478,14.656382],[120.957529,14.656382],[120.957684,14.656451],[120.9577,14.656484],[120.957889,14.656553],[120.957889,14.656586],[120.957854,14.656653],[120.957768,14.656652],[120.957682,14.656585],[120.957596,14.656584],[120.957561,14.656651],[120.957458,14.656666],[120.957475,14.6567],[120.957406,14.656699],[120.957406,14.65675],[120.957474,14.656817],[120.957473,14.656884],[120.957439,14.6569],[120.957421,14.657001],[120.957541,14.657019],[120.957626,14.657103],[120.957883,14.657239],[120.957917,14.657273],[120.957916,14.657373],[120.958087,14.657475],[120.958138,14.657543],[120.958137,14.657626],[120.958342,14.657795],[120.958428,14.657779],[120.958428,14.657746],[120.958532,14.657646],[120.958532,14.657596],[120.958464,14.657545]]],[[[120.957768,14.65846],[120.957802,14.658494],[120.957939,14.658528],[120.958094,14.65853],[120.958112,14.658496],[120.95818,14.658497],[120.958265,14.658598],[120.958193,14.658999],[120.95809,14.658998],[120.95802,14.659048],[120.957948,14.659449],[120.957673,14.659413],[120.957603,14.659613],[120.957242,14.659543],[120.957263,14.659142],[120.957298,14.659092],[120.957373,14.658423],[120.957408,14.658373],[120.95758,14.658391],[120.957648,14.658459],[120.957768,14.65846]]],[[[120.963729,14.649692],[120.963866,14.649694],[120.963867,14.649694],[120.963962,14.64977],[120.963973,14.649778],[120.964058,14.649846],[120.964078,14.649863],[120.964146,14.649917],[120.964163,14.64993],[120.964233,14.649986],[120.964248,14.649998],[120.964429,14.650144],[120.964428,14.650301],[120.964289,14.65045],[120.964289,14.650484],[120.964202,14.650533],[120.964202,14.650567],[120.964046,14.650699],[120.964046,14.650733],[120.963994,14.650749],[120.963959,14.650816],[120.963976,14.650849],[120.964147,14.650935],[120.964181,14.650985],[120.964215,14.650985],[120.964249,14.651036],[120.964284,14.651036],[120.964403,14.651171],[120.964264,14.651304],[120.964264,14.651312],[120.962302,14.653208],[120.962287,14.653178],[120.962184,14.65316],[120.962116,14.653059],[120.962064,14.653058],[120.961911,14.652906],[120.961808,14.652855],[120.96174,14.652855],[120.961724,14.652737],[120.961519,14.652585],[120.961502,14.652518],[120.961365,14.652466],[120.961263,14.652332],[120.96135,14.652249],[120.96135,14.652215],[120.96142,14.652149],[120.961454,14.652149],[120.961489,14.652083],[120.961593,14.652033],[120.961593,14.651983],[120.961697,14.651884],[120.961697,14.65185],[120.961923,14.651651],[120.961889,14.651534],[120.961958,14.651518],[120.962028,14.651435],[120.962166,14.651402],[120.962166,14.651352],[120.962374,14.651153],[120.962375,14.65112],[120.962496,14.651037],[120.962496,14.651004],[120.962687,14.650821],[120.962687,14.650788],[120.962722,14.650788],[120.962722,14.650755],[120.962774,14.650738],[120.962826,14.650672],[120.962877,14.650672],[120.962878,14.650589],[120.963225,14.65024],[120.963225,14.650207],[120.963295,14.650174],[120.963312,14.650107],[120.963381,14.650074],[120.963383,14.649873],[120.963504,14.649874],[120.963573,14.649842],[120.96359,14.649792],[120.963729,14.649692]]]]}},{"type":"Feature","properties":{"codes":["CMP"],"name":"CMP","color":"#a8a800"},"geometry":{"type":"MultiPolygon","coordinates":[[[[120.963278,14.646358],[120.963414,14.64651],[120.963483,14.646527],[120.963534,14.646578],[120.963706,14.646579],[120.963685,14.646599],[120.963082,14.647172],[120.963084,14.646975],[120.962845,14.646756],[120.962846,14.646672],[120.962967,14.646573],[120.962967,14.646539],[120.963019,14.646523],[120.963193,14.646324],[120.963279,14.646324],[120.963278,14.646358]]],[[[120.964289,14.650484],[120.964289,14.65045],[120.964428,14.650301],[120.964429,14.650144],[120.965,14.6506],[120.96457,14.651015],[120.964264,14.651312],[120.964264,14.651304],[120.964403,14.651171],[120.964284,14.651036],[120.964249,14.651036],[120.964215,14.650985],[120.964181,14.650985],[120.964147,14.650935],[120.963976,14.650849],[120.963959,14.650816],[120.963994,14.650749],[120.964046,14.650733],[120.964046,14.650699],[120.964202,14.650567],[120.964202,14.650533],[120.964289,14.650484]]],[[[120.957704,14.657924],[120.957772,14.657991],[120.95784,14.658126],[120.958147,14.658379],[120.958146,14.658446],[120.958181,14.658463],[120.95818,14.658497],[120.958112,14.658496],[120.958094,14.65853],[120.957939,14.658528],[120.957802,14.658494],[120.957768,14.65846],[120.957648,14.658459],[120.95758,14.658391],[120.957408,14.658373],[120.95734,14.658222],[120.956791,14.6582],[120.956774,14.658167],[120.956795,14.657681],[120.956762,14.657614],[120.956763,14.657447],[120.956815,14.657414],[120.956866,14.657464],[120.957004,14.657482],[120.957106,14.657517],[120.957192,14.657601],[120.957243,14.657602],[120.957345,14.657703],[120.957465,14.657754],[120.957601,14.657889],[120.957704,14.657924]]],[[[120.958291,14.659519],[120.958136,14.659517],[120.957982,14.659483],[120.957948,14.659449],[120.95802,14.659048],[120.95809,14.658998],[120.958193,14.658999],[120.958191,14.659183],[120.958276,14.659284],[120.958276,14.659318],[120.958361,14.659369],[120.958361,14.659452],[120.958291,14.659519]]]]}},{"type":"Feature","properties":{"codes":["C-1"],"name":"C-1","color":"#ff7f7f"},"geometry":{"type":"MultiPolygon","coordinates":[[[[120.963703,14.649563],[120.963719,14.649575],[120.96379,14.649632],[120.963803,14.649643],[120.963866,14.649692],[120.963867,14.649694],[120.963866,14.649694],[120.963729,14.649692],[120.96359,14.649792],[120.963573,14.649842],[120.963504,14.649874],[120.963383,14.649873],[120.963381,14.650074],[120.963312,14.650107],[120.963295,14.650174],[120.963225,14.650207],[120.963225,14.65024],[120.962878,14.650589],[120.962877,14.650672],[120.962826,14.650672],[120.962774,14.650738],[120.962722,14.650755],[120.962722,14.650788],[120.962687,14.650788],[120.962687,14.650821],[120.962496,14.651004],[120.962496,14.651037],[120.962375,14.65112],[120.962374,14.651153],[120.962166,14.651352],[120.962166,14.651402],[120.962028,14.651435],[120.961958,14.651518],[120.961889,14.651534],[120.961923,14.651651],[120.961697,14.65185],[120.961697,14.651884],[120.961593,14.651983],[120.961593,14.652033],[120.961489,14.652083],[120.961454,14.652149],[120.96142,14.652149],[120.96135,14.652215],[120.96135,14.652249],[120.961263,14.652332],[120.961143,14.65228],[120.961075,14.652213],[120.96111,14.652146],[120.961059,14.652146],[120.961042,14.652112],[120.960973,14.652095],[120.960956,14.652044],[120.960974,14.651978],[120.961061,14.651878],[120.961079,14.651761],[120.961303,14.651763],[120.961339,14.651596],[120.961425,14.651513],[120.961735,14.651466],[120.961736,14.651432],[120.961701,14.651415],[120.961738,14.651198],[120.962363,14.650517],[120.962638,14.650503],[120.962641,14.650218],[120.962901,14.649953],[120.962937,14.649836],[120.962989,14.649803],[120.962989,14.649769],[120.963058,14.649703],[120.963127,14.649687],[120.96318,14.649587],[120.963506,14.649573],[120.963593,14.649474],[120.963703,14.649563]]],[[[120.96012,14.653292],[120.960051,14.653292],[120.959895,14.653424],[120.959877,14.653525],[120.959686,14.65369],[120.959634,14.653773],[120.959512,14.65389],[120.959409,14.653939],[120.959408,14.653989],[120.959322,14.654055],[120.959286,14.654155],[120.959061,14.654354],[120.959061,14.654388],[120.958974,14.654471],[120.958922,14.654487],[120.958922,14.654537],[120.959024,14.654622],[120.959024,14.654689],[120.958746,14.654971],[120.958694,14.655054],[120.958693,14.655121],[120.958573,14.655103],[120.958433,14.655319],[120.958348,14.655268],[120.958349,14.655168],[120.958314,14.655201],[120.958228,14.655184],[120.958229,14.65515],[120.958194,14.655133],[120.958213,14.655016],[120.958247,14.655],[120.958247,14.654966],[120.958282,14.654967],[120.958317,14.654833],[120.958369,14.654817],[120.958422,14.654717],[120.958473,14.6547],[120.95856,14.654601],[120.958561,14.6545],[120.95863,14.654451],[120.958665,14.654384],[120.958752,14.654351],[120.958752,14.654284],[120.958787,14.654285],[120.958839,14.654218],[120.958908,14.654185],[120.958943,14.654119],[120.958926,14.654052],[120.958978,14.654019],[120.958996,14.653935],[120.959065,14.653919],[120.959152,14.653819],[120.959255,14.653787],[120.959325,14.653654],[120.95948,14.653621],[120.959498,14.653571],[120.959585,14.653505],[120.959603,14.653438],[120.959654,14.653422],[120.959672,14.653355],[120.959741,14.653322],[120.959741,14.653289],[120.95981,14.653256],[120.95988,14.653156],[120.959966,14.653174],[120.960018,14.653124],[120.960036,14.653007],[120.960175,14.652858],[120.960193,14.652757],[120.960331,14.652708],[120.960332,14.652675],[120.960436,14.652592],[120.960436,14.652559],[120.960488,14.652542],[120.960488,14.652509],[120.960574,14.652443],[120.960712,14.652444],[120.960711,14.652578],[120.960676,14.652645],[120.96071,14.652645],[120.960744,14.652695],[120.960796,14.652696],[120.960812,14.652746],[120.960621,14.652979],[120.9605,14.653011],[120.960517,14.653078],[120.960396,14.653194],[120.960395,14.653228],[120.960172,14.653226],[120.96012,14.653292]]]]}},{"type":"Feature","properties":{"codes":["C-2"],"name":"C-2","color":"#ff0000"},"geometry":{"type":"MultiPolygon","coordinates":[[[[120.958108,14.649573],[120.958108,14.649576],[120.958125,14.649626],[120.958194,14.649644],[120.958279,14.649745],[120.958313,14.649745],[120.9585,14.649931],[120.958535,14.649931],[120.958637,14.650049],[120.95874,14.6501],[120.958704,14.6502],[120.958773,14.650201],[120.958807,14.650235],[120.958893,14.650252],[120.959148,14.650506],[120.959268,14.65054],[120.959268,14.650574],[120.959353,14.650658],[120.959388,14.650658],[120.959558,14.650844],[120.959592,14.650844],[120.959609,14.650911],[120.959643,14.650912],[120.959796,14.651064],[120.959831,14.651064],[120.959933,14.651182],[120.960036,14.651233],[120.960035,14.651267],[120.960121,14.651284],[120.960138,14.651351],[120.960342,14.651554],[120.960376,14.651554],[120.960461,14.651655],[120.960513,14.651672],[120.960513,14.651706],[120.960547,14.651723],[120.960529,14.651756],[120.960632,14.651757],[120.960717,14.651892],[120.960803,14.651909],[120.960819,14.651976],[120.960871,14.652027],[120.960956,14.652044],[120.960973,14.652095],[120.961042,14.652112],[120.961059,14.652146],[120.96111,14.652146],[120.961075,14.652213],[120.961143,14.65228],[120.961263,14.652332],[120.961365,14.652466],[120.961502,14.652518],[120.961519,14.652585],[120.961724,14.652737],[120.96174,14.652855],[120.961808,14.652855],[120.961911,14.652906],[120.962064,14.653058],[120.962116,14.653059],[120.962184,14.65316],[120.962287,14.653178],[120.962302,14.653208],[120.962,14.6535],[120.962011,14.653507],[120.963134,14.65418],[120.963034,14.654121],[120.963033,14.654305],[120.962929,14.654388],[120.962894,14.654388],[120.96286,14.654438],[120.962808,14.654437],[120.962723,14.654353],[120.962688,14.654353],[120.962655,14.654269],[120.962552,14.654234],[120.962467,14.654133],[120.962433,14.654133],[120.962433,14.654099],[120.962313,14.654031],[120.962143,14.653846],[120.962109,14.653845],[120.962109,14.653795],[120.961989,14.653761],[120.961955,14.653677],[120.961853,14.653626],[120.961529,14.653321],[120.961409,14.653253],[120.961358,14.653253],[120.961324,14.653136],[120.961222,14.653101],[120.961137,14.652983],[120.961102,14.652983],[120.961017,14.652882],[120.960983,14.652882],[120.960881,14.652763],[120.960812,14.652746],[120.960796,14.652696],[120.960744,14.652695],[120.96071,14.652645],[120.960676,14.652645],[120.960711,14.652578],[120.960712,14.652444],[120.96073,14.65236],[120.960236,14.651888],[120.960167,14.65187],[120.960048,14.651735],[120.959687,14.651715],[120.959517,14.651546],[120.959465,14.651546],[120.959432,14.651462],[120.959312,14.651394],[120.959108,14.651191],[120.959022,14.651157],[120.958988,14.651107],[120.958885,14.651106],[120.958887,14.650925],[120.959,14.6508],[120.95899,14.650789],[120.958932,14.650725],[120.958,14.6497],[120.958101,14.649582],[120.958108,14.649573]]]]}},{"type":"Feature","properties":{"codes":["CBD"],"name":"CBD","color":"#e60000"},"geometry":{"type":"MultiPolygon","coordinates":[[[[120.962313,14.655881],[120.962256,14.655921],[120.962189,14.655968],[120.96216,14.655988],[120.962121,14.656015],[120.962053,14.656063],[120.962002,14.656099],[120.962,14.6561],[120.962,14.6576],[120.962,14.6595],[120.957,14.6603],[120.956397,14.660149],[120.956004,14.660051],[120.955,14.6598],[120.955462,14.658691],[120.955462,14.65869],[120.955497,14.658608],[120.955499,14.658602],[120.955761,14.657974],[120.955761,14.657973],[120.955795,14.657891],[120.955796,14.657889],[120.95583,14.657808],[120.955832,14.657803],[120.956,14.6574],[120.956,14.65503],[120.956442,14.655034],[120.956544,14.655135],[120.956766,14.655254],[120.956972,14.65529],[120.95704,14.655374],[120.957092,14.655374],[120.957109,14.655408],[120.957177,14.655425],[120.957228,14.655493],[120.95728,14.655493],[120.957537,14.655613],[120.957537,14.655579],[120.95764,14.655547],[120.957644,14.655178],[120.95773,14.655129],[120.957731,14.655079],[120.957765,14.655079],[120.9578,14.655012],[120.957886,14.65498],[120.957936,14.655131],[120.958005,14.655131],[120.958056,14.655199],[120.958091,14.655199],[120.95809,14.655233],[120.958142,14.655233],[120.958262,14.655301],[120.95826,14.655418],[120.958312,14.655385],[120.958347,14.655385],[120.958346,14.655419],[120.958364,14.655386],[120.958501,14.65542],[120.958586,14.655505],[120.958621,14.655488],[120.958655,14.655522],[120.958706,14.655523],[120.95874,14.655573],[120.958792,14.65559],[120.958808,14.655641],[120.958843,14.655607],[120.958946,14.655642],[120.958963,14.655675],[120.959118,14.655677],[120.959151,14.655727],[120.959254,14.655745],[120.959357,14.655863],[120.959477,14.655881],[120.959579,14.655965],[120.959682,14.655966],[120.95975,14.656017],[120.959854,14.656018],[120.959939,14.656069],[120.959991,14.656069],[120.960008,14.656103],[120.960076,14.656104],[120.96011,14.656154],[120.960265,14.656189],[120.960367,14.656257],[120.960419,14.656257],[120.96047,14.656308],[120.960556,14.656325],[120.960623,14.656426],[120.960795,14.656445],[120.960846,14.656495],[120.960967,14.656496],[120.961275,14.65665],[120.961343,14.65665],[120.961447,14.656551],[120.961466,14.6564],[120.96157,14.656301],[120.961588,14.656184],[120.96171,14.656051],[120.961728,14.655951],[120.96178,14.655901],[120.961849,14.655885],[120.961849,14.655835],[120.961936,14.655769],[120.961972,14.655652],[120.962145,14.655469],[120.962145,14.655436],[120.962215,14.655403],[120.962232,14.655353],[120.962336,14.655303],[120.962592,14.655523],[120.962746,14.655575],[120.962723,14.655594],[120.962558,14.65571],[120.962505,14.655747],[120.962443,14.65579],[120.962381,14.655833],[120.962349,14.655856],[120.962313,14.655881]],[[120.956763,14.657447],[120.956762,14.657614],[120.956795,14.657681],[120.956774,14.658167],[120.956791,14.6582],[120.95734,14.658222],[120.957408,14.658373],[120.957373,14.658423],[120.957298,14.659092],[120.957263,14.659142],[120.957242,14.659543],[120.957603,14.659613],[120.957673,14.659413],[120.957948,14.659449],[120.957982,14.659483],[120.958136,14.659517],[120.958291,14.659519],[120.958361,14.659452],[120.958361,14.659369],[120.958276,14.659318],[120.958276,14.659284],[120.958191,14.659183],[120.958193,14.658999],[120.958265,14.658598],[120.95818,14.658497],[120.958181,14.658463],[120.958146,14.658446],[120.958147,14.658379],[120.95784,14.658126],[120.957772,14.657991],[120.957944,14.657993],[120.958065,14.657927],[120.958186,14.657928],[120.958578,14.658199],[120.959076,14.658271],[120.959145,14.658271],[120.959249,14.658172],[120.959336,14.658022],[120.959321,14.657854],[120.959253,14.657803],[120.959098,14.657752],[120.959013,14.657667],[120.959013,14.657634],[120.958928,14.657566],[120.958912,14.657499],[120.958843,14.657448],[120.958844,14.657415],[120.958809,14.657415],[120.958776,14.657314],[120.958725,14.657263],[120.958673,14.657263],[120.958605,14.657195],[120.958605,14.657162],[120.958571,14.657161],[120.958571,14.657128],[120.95852,14.657111],[120.958452,14.657043],[120.958452,14.65701],[120.95823,14.656807],[120.95818,14.656673],[120.958025,14.656655],[120.957974,14.656604],[120.957889,14.656586],[120.957889,14.656553],[120.9577,14.656484],[120.957684,14.656451],[120.957529,14.656382],[120.957478,14.656382],[120.957426,14.656432],[120.95739,14.656599],[120.957321,14.656648],[120.95732,14.656715],[120.957268,14.656748],[120.957198,14.656932],[120.957163,14.656948],[120.957128,14.657082],[120.957007,14.657114],[120.957004,14.657482],[120.956866,14.657464],[120.956815,14.657414],[120.956763,14.657447]]],[[[120.963644,14.654949],[120.963577,14.654996],[120.963576,14.654997],[120.96336,14.655148],[120.963328,14.65517],[120.963176,14.655277],[120.963136,14.655305],[120.963144,14.655294],[120.963058,14.655293],[120.963043,14.655092],[120.96294,14.655058],[120.962889,14.65499],[120.962854,14.65499],[120.962855,14.654957],[120.962769,14.654922],[120.962565,14.654736],[120.962582,14.654686],[120.962721,14.65457],[120.962721,14.654537],[120.96279,14.654487],[120.962808,14.654437],[120.96286,14.654438],[120.962894,14.654388],[120.962929,14.654388],[120.963033,14.654305],[120.963034,14.654121],[120.963134,14.65418],[120.964,14.6547],[120.963653,14.654943],[120.963644,14.654949]]]]}},{"type":"Feature","properties":{"codes":["INSTITUTIONAL"],"name":"Institutional","color":"#0000ff"},"geometry":{"type":"MultiPolygon","coordinates":[[[[120.961592,14.648385],[120.961557,14.648485],[120.961401,14.648601],[120.961401,14.648634],[120.961279,14.648734],[120.961279,14.648767],[120.961192,14.64885],[120.961124,14.648816],[120.961039,14.648715],[120.961004,14.648714],[120.960936,14.64863],[120.960902,14.64863],[120.960681,14.64841],[120.960646,14.64841],[120.960578,14.648309],[120.960527,14.648292],[120.96051,14.648325],[120.96051,14.648292],[120.960458,14.648291],[120.960511,14.648208],[120.960649,14.648092],[120.96065,14.648042],[120.960684,14.648042],[120.960823,14.647909],[120.960823,14.647842],[120.960721,14.647791],[120.960448,14.647538],[120.960449,14.647488],[120.96057,14.647388],[120.96057,14.647355],[120.960657,14.647289],[120.960657,14.647255],[120.960743,14.647206],[120.960778,14.647206],[120.960777,14.64724],[120.960812,14.647223],[120.960829,14.647257],[120.960864,14.647224],[120.960915,14.647291],[120.960897,14.647324],[120.960965,14.647358],[120.960965,14.647392],[120.96105,14.647476],[120.961085,14.647477],[120.961084,14.64751],[120.961188,14.647494],[120.961307,14.647562],[120.961375,14.647646],[120.961427,14.647647],[120.961546,14.647799],[120.961649,14.647833],[120.961665,14.6479],[120.96187,14.648069],[120.961817,14.648186],[120.961713,14.648269],[120.961713,14.648302],[120.961679,14.648302],[120.961644,14.648369],[120.961592,14.648385]]],[[[120.960503,14.650919],[120.960572,14.650803],[120.960676,14.650737],[120.960746,14.650603],[120.960849,14.650654],[120.960883,14.650722],[120.960968,14.650773],[120.961053,14.650874],[120.961036,14.650924],[120.961001,14.650907],[120.961018,14.650991],[120.960636,14.651339],[120.960618,14.651406],[120.960532,14.651488],[120.96048,14.651488],[120.960395,14.651387],[120.960361,14.651387],[120.960276,14.651285],[120.960207,14.651251],[120.960208,14.651218],[120.960329,14.651118],[120.960416,14.650969],[120.960503,14.650919]]],[[[120.961343,14.654876],[120.961308,14.654876],[120.961308,14.654909],[120.961187,14.655009],[120.961186,14.655042],[120.96103,14.655175],[120.96103,14.655208],[120.960961,14.655275],[120.960823,14.655257],[120.960807,14.655223],[120.960755,14.655239],[120.960738,14.655189],[120.960652,14.655188],[120.960653,14.655105],[120.960602,14.655071],[120.960585,14.65497],[120.960517,14.654903],[120.960483,14.654902],[120.960364,14.654767],[120.960329,14.654767],[120.960176,14.654598],[120.960125,14.654581],[120.960125,14.654548],[120.960194,14.654498],[120.960177,14.654464],[120.960282,14.654365],[120.960248,14.654264],[120.960197,14.654247],[120.960009,14.654061],[120.959975,14.654061],[120.959822,14.653892],[120.959702,14.653824],[120.959685,14.653774],[120.959634,14.653773],[120.959686,14.65369],[120.959877,14.653525],[120.959895,14.653424],[120.960051,14.653292],[120.96012,14.653292],[120.960136,14.653359],[120.960238,14.653477],[120.960273,14.653478],[120.960443,14.653663],[120.96058,14.653681],[120.960682,14.653799],[120.960751,14.653817],[120.96075,14.65385],[120.960921,14.653986],[120.960938,14.654069],[120.961074,14.654205],[120.961194,14.654273],[120.96121,14.654323],[120.961245,14.654323],[120.961296,14.654391],[120.96133,14.654391],[120.96133,14.654424],[120.961364,14.654425],[120.961552,14.654594],[120.961551,14.654661],[120.961482,14.65471],[120.961447,14.654794],[120.961343,14.654843],[120.961343,14.654876]]],[[[120.963144,14.655294],[120.963136,14.655305],[120.963047,14.655367],[120.963012,14.655391],[120.962963,14.655426],[120.962723,14.655594],[120.962746,14.655575],[120.962592,14.655523],[120.962336,14.655303],[120.962336,14.655237],[120.9622,14.655135],[120.9622,14.655085],[120.962322,14.654985],[120.962357,14.654902],[120.962565,14.654736],[120.962769,14.654922],[120.962855,14.654957],[120.962854,14.65499],[120.962889,14.65499],[120.96294,14.655058],[120.963043,14.655092],[120.963058,14.655293],[120.963144,14.655294]]],[[[120.95704,14.655374],[120.956972,14.65529],[120.957009,14.655089],[120.957043,14.655106],[120.957043,14.655039],[120.957198,14.655057],[120.957523,14.655177],[120.957644,14.655178],[120.95764,14.655547],[120.957537,14.655579],[120.957537,14.655613],[120.95728,14.655493],[120.957228,14.655493],[120.957177,14.655425],[120.957109,14.655408],[120.957092,14.655374],[120.95704,14.655374]]],[[[120.957561,14.656651],[120.957596,14.656584],[120.957682,14.656585],[120.957768,14.656652],[120.957854,14.656653],[120.957889,14.656586],[120.957974,14.656604],[120.958025,14.656655],[120.958059,14.656755],[120.958127,14.656806],[120.958144,14.656856],[120.958178,14.656857],[120.958178,14.656907],[120.958536,14.657262],[120.958552,14.657312],[120.958517,14.657395],[120.958465,14.657428],[120.958464,14.657545],[120.958532,14.657596],[120.958532,14.657646],[120.958428,14.657746],[120.958428,14.657779],[120.958342,14.657795],[120.958137,14.657626],[120.958138,14.657543],[120.958087,14.657475],[120.957916,14.657373],[120.957917,14.657273],[120.957883,14.657239],[120.957626,14.657103],[120.957541,14.657019],[120.957421,14.657001],[120.957439,14.6569],[120.957473,14.656884],[120.957474,14.656817],[120.957406,14.65675],[120.957406,14.656699],[120.957475,14.6567],[120.957458,14.656666],[120.957561,14.656651]]]]}}]}
