{"type":"FeatureCollection","features":[{"type":"Feature","properties":{"codes":["R-2-BASIC","R-2-MAX"],"name":"R-2 Basic or R-2 Max","color":"#ffffb4"},"geometry":{"type":"MultiPolygon","coordinates":[[[[120.954037,14.673713],[120.954168,14.673759],[120.954239,14.673784],[120.954479,14.673868],[120.954595,14.673908],[120.954802,14.673981],[120.954951,14.674033],[120.955126,14.674094],[120.955307,14.674157],[120.955449,14.674207],[120.955663,14.674282],[120.95577,14.67432],[120.955887,14.67436],[120.955916,14.674371],[120.956,14.6744],[120.956282,14.674438],[120.956318,14.674442],[120.956453,14.67446],[120.956476,14.674464],[120.956605,14.674481],[120.956635,14.674485],[120.956757,14.674501],[120.956794,14.674506],[120.956909,14.674521],[120.956953,14.674527],[120.957061,14.674541],[120.957111,14.674548],[120.957213,14.674562],[120.95727,14.674569],[120.957365,14.674582],[120.957421,14.67459],[120.957558,14.674608],[120.957756,14.674634],[120.957792,14.674639],[120.957915,14.674655],[120.957944,14.674659],[120.958074,14.674677],[120.958096,14.674679],[120.958233,14.674698],[120.958248,14.6747],[120.958391,14.674719],[120.9584,14.67472],[120.95855,14.67474],[120.958552,14.67474],[120.959,14.6748],[120.959406,14.674699],[120.959403,14.675017],[120.959416,14.675175],[120.959445,14.675275],[120.959488,14.675355],[120.959595,14.675465],[120.959682,14.675595],[120.959718,14.675624],[120.959837,14.675654],[120.960024,14.675652],[120.96007,14.675639],[120.960421,14.675615],[120.960608,14.675541],[120.960621,14.675514],[120.96069,14.675483],[120.960699,14.675457],[120.960745,14.675434],[120.960767,14.675409],[120.961112,14.675236],[120.96119,14.675171],[120.961185,14.675122],[120.961127,14.67501],[120.96111,14.674899],[120.961077,14.674845],[120.961066,14.674801],[120.96106,14.674288],[120.962635,14.673973],[120.962639,14.674359],[120.96265,14.674377],[120.962655,14.674445],[120.962723,14.674592],[120.962734,14.674661],[120.962755,14.674677],[120.962782,14.674679],[120.962911,14.674676],[120.962972,14.674697],[120.962992,14.674716],[120.963011,14.674855],[120.962995,14.675247],[120.962966,14.675385],[120.962946,14.675404],[120.962892,14.675428],[120.962761,14.675438],[120.962696,14.67547],[120.962587,14.675493],[120.962569,14.675511],[120.962534,14.675848],[120.962533,14.67595],[120.962542,14.676027],[120.962561,14.676077],[120.962627,14.676146],[120.962634,14.676186],[120.962611,14.676252],[120.962534,14.676401],[120.96248,14.676463],[120.962437,14.676547],[120.962357,14.676623],[120.962336,14.676677],[120.962294,14.676725],[120.962272,14.676792],[120.962168,14.676927],[120.962167,14.676981],[120.96221,14.677044],[120.962213,14.677081],[120.962203,14.677096],[120.962154,14.677116],[120.962069,14.677114],[120.962018,14.677097],[120.961795,14.676982],[120.961728,14.676971],[120.961661,14.676992],[120.961628,14.677032],[120.961619,14.677063],[120.961574,14.677102],[120.961559,14.677133],[120.961535,14.677388],[120.96152,14.677431],[120.961497,14.677455],[120.961468,14.677459],[120.961421,14.677488],[120.961357,14.67754],[120.961176,14.677715],[120.961079,14.677791],[120.960985,14.677842],[120.960894,14.67787],[120.960643,14.677894],[120.960591,14.67793],[120.960569,14.677965],[120.96049,14.677979],[120.960127,14.67799],[120.959627,14.677989],[120.959407,14.678005],[120.959377,14.678052],[120.959298,14.678126],[120.959276,14.67818],[120.95925,14.678205],[120.959245,14.678283],[120.959258,14.678528],[120.959234,14.678623],[120.959163,14.678694],[120.959049,14.678859],[120.958881,14.679033],[120.958827,14.679127],[120.9588,14.679227],[120.958739,14.6793],[120.958723,14.679338],[120.958567,14.679485],[120.95855,14.679522],[120.958491,14.679574],[120.958443,14.679643],[120.957985,14.680083],[120.957904,14.680202],[120.957827,14.680286],[120.957822,14.680316],[120.957783,14.680287],[120.957764,14.680273],[120.957285,14.679914],[120.95728,14.67991],[120.957122,14.679791],[120.957117,14.679788],[120.957035,14.679726],[120.957,14.6797],[120.956964,14.679674],[120.956961,14.679672],[120.956766,14.679531],[120.956761,14.679528],[120.956553,14.679378],[120.956544,14.679372],[120.956341,14.679225],[120.956327,14.679216],[120.956128,14.679072],[120.95611,14.67906],[120.955916,14.67892],[120.955894,14.678903],[120.955704,14.678767],[120.955677,14.678747],[120.955491,14.678614],[120.95546,14.678591],[120.955279,14.678461],[120.955243,14.678435],[120.955066,14.678308],[120.955024,14.678278],[120.954902,14.67819],[120.954892,14.678182],[120.954827,14.678135],[120.954796,14.678113],[120.954646,14.678005],[120.954599,14.677971],[120.95447,14.677879],[120.95444,14.677857],[120.954282,14.677743],[120.954249,14.677719],[120.954069,14.67759],[120.954032,14.677563],[120.953857,14.677437],[120.953816,14.677407],[120.953645,14.677284],[120.953599,14.677251],[120.953432,14.677131],[120.953382,14.677095],[120.95322,14.676978],[120.953162,14.676937],[120.953051,14.676856],[120.953035,14.676845],[120.952975,14.676802],[120.952933,14.676772],[120.952837,14.676702],[120.952819,14.67669],[120.952762,14.676648],[120.952716,14.676616],[120.952623,14.676548],[120.952604,14.676535],[120.952548,14.676494],[120.952505,14.676464],[120.952407,14.676393],[120.952381,14.676374],[120.952334,14.67634],[120.952289,14.676308],[120.9522,14.676244],[120.952172,14.676224],[120.952123,14.676188],[120.952089,14.676164],[120.952015,14.676111],[120.952,14.6761],[120.95206,14.67607],[120.953,14.6756],[120.953378,14.674881],[120.954,14.6737],[120.954037,14.673713]]],[[[120.96358,14.673784],[120.963982,14.673704],[120.964,14.6737],[120.964003,14.673704],[120.964567,14.674437],[120.964568,14.674439],[120.964625,14.674512],[120.96463,14.674518],[120.964682,14.674586],[120.964691,14.674598],[120.964739,14.674661],[120.964752,14.674678],[120.964796,14.674735],[120.964814,14.674758],[120.964854,14.67481],[120.964875,14.674838],[120.964911,14.674884],[120.964936,14.674917],[120.964966,14.674956],[120.964988,14.674984],[120.964989,14.674985],[120.965,14.675],[120.965,14.675765],[120.965,14.6792],[120.965,14.679904],[120.965,14.6801],[120.964993,14.680117],[120.964,14.6827],[120.96343,14.684011],[120.963429,14.684013],[120.963291,14.68433],[120.963055,14.684873],[120.963,14.685],[120.962982,14.684994],[120.961737,14.684558],[120.961684,14.684539],[120.961711,14.684546],[120.961732,14.682663],[120.961755,14.682217],[120.961807,14.682161],[120.961875,14.682031],[120.961927,14.681857],[120.961979,14.68177],[120.962017,14.68165],[120.962126,14.681427],[120.962134,14.681336],[120.962168,14.681299],[120.962194,14.681203],[120.962261,14.681168],[120.962298,14.681118],[120.962314,14.681032],[120.962304,14.680942],[120.962293,14.680929],[120.96226,14.680921],[120.962246,14.680932],[120.962097,14.680941],[120.962039,14.680972],[120.962019,14.680938],[120.961971,14.680909],[120.961891,14.680892],[120.961847,14.680863],[120.961752,14.680837],[120.96159,14.680764],[120.961539,14.680755],[120.961491,14.680724],[120.961366,14.680689],[120.961289,14.680644],[120.961207,14.680625],[120.961156,14.680592],[120.96112,14.680543],[120.961136,14.680538],[120.961148,14.680457],[120.961195,14.680376],[120.961236,14.680355],[120.961323,14.680343],[120.961366,14.680302],[120.961386,14.68022],[120.961423,14.680134],[120.961498,14.680002],[120.96153,14.679973],[120.961541,14.679925],[120.96157,14.679897],[120.961593,14.679824],[120.961811,14.679418],[120.961919,14.679154],[120.962016,14.678979],[120.962052,14.67894],[120.962081,14.678819],[120.962105,14.678786],[120.962139,14.678677],[120.96224,14.678682],[120.962356,14.678733],[120.962471,14.678745],[120.962509,14.678769],[120.962579,14.678779],[120.962646,14.678809],[120.962763,14.678819],[120.962828,14.67885],[120.962923,14.678868],[120.962953,14.678888],[120.962972,14.678921],[120.962981,14.678969],[120.962976,14.679109],[120.962961,14.679139],[120.962957,14.679188],[120.962928,14.679222],[120.962916,14.679304],[120.962869,14.679415],[120.962834,14.679751],[120.962814,14.67981],[120.962789,14.679967],[120.962763,14.680033],[120.962752,14.680119],[120.96273,14.680136],[120.962715,14.680177],[120.962591,14.680748],[120.962546,14.68085],[120.962505,14.681041],[120.962479,14.681075],[120.962478,14.681114],[120.962496,14.681201],[120.962511,14.681218],[120.962612,14.681233],[120.962663,14.681257],[120.962778,14.681268],[120.962843,14.681302],[120.962922,14.681307],[120.963004,14.681339],[120.963245,14.681389],[120.963315,14.681423],[120.963352,14.681413],[120.963373,14.681375],[120.963421,14.681343],[120.963446,14.681309],[120.963455,14.681221],[120.963468,14.681208],[120.963473,14.681136],[120.963488,14.681105],[120.963495,14.680948],[120.963507,14.680899],[120.963489,14.680757],[120.963513,14.680731],[120.963539,14.680634],[120.963579,14.680287],[120.963597,14.680238],[120.963634,14.679995],[120.963655,14.679921],[120.963647,14.679737],[120.963659,14.679711],[120.963665,14.679553],[120.963681,14.679463],[120.963699,14.67871],[120.96371,14.678689],[120.963719,14.678589],[120.963745,14.678524],[120.963757,14.678392],[120.963802,14.678306],[120.96381,14.67827],[120.963819,14.678094],[120.963832,14.678065],[120.963848,14.677925],[120.963835,14.677875],[120.963804,14.677836],[120.963754,14.677809],[120.963625,14.677778],[120.963399,14.677684],[120.963204,14.677628],[120.9631,14.677579],[120.963045,14.677572],[120.962976,14.677529],[120.962821,14.677509],[120.962782,14.677485],[120.962712,14.677473],[120.962642,14.6774],[120.96272,14.677347],[120.962772,14.67729],[120.962786,14.677198],[120.9628,14.677181],[120.962847,14.677023],[120.962867,14.676996],[120.96292,14.676988],[120.963096,14.676991],[120.96312,14.676981],[120.963149,14.67694],[120.963208,14.676674],[120.96326,14.676543],[120.963255,14.676513],[120.963211,14.676458],[120.963187,14.676402],[120.963188,14.676281],[120.963251,14.676125],[120.963267,14.676061],[120.963311,14.675755],[120.963339,14.675686],[120.963355,14.675527],[120.963379,14.675465],[120.963375,14.675393],[120.963402,14.67537],[120.963435,14.675252],[120.963488,14.675206],[120.963556,14.675175],[120.96358,14.675135],[120.963561,14.675084],[120.963435,14.674958],[120.963433,14.674927],[120.963452,14.674897],[120.963531,14.674847],[120.96361,14.674826],[120.963698,14.674824],[120.963719,14.67481],[120.963758,14.674805],[120.963782,14.674787],[120.963804,14.674745],[120.963802,14.674698],[120.963742,14.674584],[120.963681,14.674299],[120.963621,14.674145],[120.963614,14.674059],[120.963581,14.673934],[120.96358,14.673784]],[[120.963644,14.67717],[120.963686,14.677209],[120.963781,14.677237],[120.963818,14.67727],[120.963891,14.677277],[120.964024,14.677271],[120.964072,14.677218],[120.964105,14.677111],[120.964133,14.677086],[120.964158,14.67701],[120.964193,14.67697],[120.964219,14.676859],[120.964174,14.676828],[120.963971,14.676808],[120.963913,14.676766],[120.963808,14.676724],[120.963667,14.676684],[120.96359,14.676677],[120.963556,14.676709],[120.96355,14.676748],[120.963518,14.676792],[120.963471,14.677082],[120.963487,14.677086],[120.9635,14.67713],[120.963644,14.67717]]]]}},{"type":"Feature","properties":{"codes":["CMP"],"name":"CMP","color":"#a8a800"},"geometry":{"type":"MultiPolygon","coordinates":[[[[120.959403,14.675017],[120.959406,14.674699],[120.959576,14.674656],[120.959629,14.674643],[120.961,14.6743],[120.96106,14.674288],[120.961066,14.674801],[120.961077,14.674845],[120.96111,14.674899],[120.961127,14.67501],[120.961185,14.675122],[120.96119,14.675171],[120.961112,14.675236],[120.960767,14.675409],[120.960745,14.675434],[120.960699,14.675457],[120.96069,14.675483],[120.960621,14.675514],[120.960608,14.675541],[120.960421,14.675615],[120.96007,14.675639],[120.960024,14.675652],[120.959837,14.675654],[120.959718,14.675624],[120.959682,14.675595],[120.959595,14.675465],[120.959488,14.675355],[120.959445,14.675275],[120.959416,14.675175],[120.959403,14.675017]]],[[[120.963556,14.676709],[120.96359,14.676677],[120.963667,14.676684],[120.963808,14.676724],[120.963913,14.676766],[120.963971,14.676808],[120.964174,14.676828],[120.964219,14.676859],[120.964193,14.67697],[120.964158,14.67701],[120.964133,14.677086],[120.964105,14.677111],[120.964072,14.677218],[120.964024,14.677271],[120.963891,14.677277],[120.963818,14.67727],[120.963781,14.677237],[120.963686,14.677209],[120.963644,14.67717],[120.9635,14.67713],[120.963487,14.677086],[120.963471,14.677082],[120.963518,14.676792],[120.96355,14.676748],[120.963556,14.676709]]],[[[120.962234,14.677843],[120.962271,14.677713],[120.962348,14.677649],[120.962383,14.677599],[120.962407,14.677483],[120.962436,14.677427],[120.962456,14.677408],[120.96251,14.677388],[120.962642,14.6774],[120.962712,14.677473],[120.962782,14.677485],[120.962821,14.677509],[120.962976,14.677529],[120.963045,14.677572],[120.9631,14.677579],[120.963204,14.677628],[120.963399,14.677684],[120.963625,14.677778],[120.963754,14.677809],[120.963804,14.677836],[120.963835,14.677875],[120.963848,14.677925],[120.963832,14.678065],[120.963819,14.678094],[120.96381,14.67827],[120.963802,14.678306],[120.963757,14.678392],[120.963745,14.678524],[120.963719,14.678589],[120.96371,14.678689],[120.963699,14.67871],[120.963681,14.679463],[120.963665,14.679553],[120.963659,14.679711],[120.963647,14.679737],[120.963655,14.679921],[120.963634,14.679995],[120.963597,14.680238],[120.963579,14.680287],[120.963539,14.680634],[120.963513,14.680731],[120.963489,14.680757],[120.963507,14.680899],[120.963495,14.680948],[120.963488,14.681105],[120.963473,14.681136],[120.963468,14.681208],[120.963455,14.681221],[120.963446,14.681309],[120.963421,14.681343],[120.963373,14.681375],[120.963352,14.681413],[120.963315,14.681423],[120.963245,14.681389],[120.963004,14.681339],[120.962922,14.681307],[120.962843,14.681302],[120.962778,14.681268],[120.962663,14.681257],[120.962612,14.681233],[120.962511,14.681218],[120.962496,14.681201],[120.962478,14.681114],[120.962479,14.681075],[120.962505,14.681041],[120.962546,14.68085],[120.962591,14.680748],[120.962715,14.680177],[120.96273,14.680136],[120.962752,14.680119],[120.962763,14.680033],[120.962789,14.679967],[120.962814,14.67981],[120.962834,14.679751],[120.962869,14.679415],[120.962916,14.679304],[120.962928,14.679222],[120.962957,14.679188],[120.962961,14.679139],[120.962976,14.679109],[120.962981,14.678969],[120.962972,14.678921],[120.962953,14.678888],[120.962923,14.678868],[120.962828,14.67885],[120.962763,14.678819],[120.962646,14.678809],[120.962579,14.678779],[120.962509,14.678769],[120.962471,14.678745],[120.962356,14.678733],[120.96224,14.678682],[120.962139,14.678677],[120.962049,14.678628],[120.961899,14.67858],[120.961873,14.678536],[120.961884,14.678485],[120.96193,14.678422],[120.961971,14.678317],[120.962003,14.678284],[120.962009,14.678245],[120.962054,14.678198],[120.962081,14.67808],[120.96214,14.67802],[120.962148,14.677979],[120.962178,14.677951],[120.962197,14.677887],[120.962234,14.677843]]],[[[120.962097,14.680941],[120.962246,14.680932],[120.96226,14.680921],[120.962293,14.680929],[120.962304,14.680942],[120.962314,14.681032],[120.962298,14.681118],[120.962261,14.681168],[120.962194,14.681203],[120.962178,14.681194],[120.962175,14.681119],[120.962161,14.681073],[120.962091,14.681039],[120.962039,14.680991],[120.962039,14.680972],[120.962097,14.680941]]]]}},{"type":"Feature","properties":{"codes":["C-1"],"name":"C-1","color":"#ff7f7f"},"geometry":{"type":"MultiPolygon","coordinates":[[[[120.957991,14.680443],[120.957925,14.680394],[120.957921,14.680391],[120.957822,14.680316],[120.957827,14.680286],[120.957904,14.680202],[120.957985,14.680083],[120.958443,14.679643],[120.958491,14.679574],[120.95855,14.679522],[120.958567,14.679485],[120.958723,14.679338],[120.958739,14.6793],[120.9588,14.679227],[120.958827,14.679127],[120.958881,14.679033],[120.959049,14.678859],[120.959163,14.678694],[120.959234,14.678623],[120.959258,14.678528],[120.959245,14.678283],[120.95925,14.678205],[120.959276,14.67818],[120.959298,14.678126],[120.959377,14.678052],[120.959407,14.678005],[120.959627,14.677989],[120.960127,14.67799],[120.96049,14.677979],[120.960569,14.677965],[120.960591,14.67793],[120.960643,14.677894],[120.960894,14.67787],[120.960985,14.677842],[120.961079,14.677791],[120.961176,14.677715],[120.961357,14.67754],[120.961421,14.677488],[120.961468,14.677459],[120.961497,14.677455],[120.96152,14.677431],[120.961535,14.677388],[120.961559,14.677133],[120.961574,14.677102],[120.961619,14.677063],[120.961628,14.677032],[120.961661,14.676992],[120.961728,14.676971],[120.961795,14.676982],[120.962018,14.677097],[120.962069,14.677114],[120.962154,14.677116],[120.962203,14.677096],[120.962213,14.677081],[120.96221,14.677044],[120.962167,14.676981],[120.962168,14.676927],[120.962272,14.676792],[120.962294,14.676725],[120.962336,14.676677],[120.962357,14.676623],[120.962437,14.676547],[120.96248,14.676463],[120.962534,14.676401],[120.962611,14.676252],[120.962634,14.676186],[120.962627,14.676146],[120.962561,14.676077],[120.962542,14.676027],[120.962533,14.67595],[120.962534,14.675848],[120.962569,14.675511],[120.962587,14.675493],[120.962696,14.67547],[120.962761,14.675438],[120.962892,14.675428],[120.962946,14.675404],[120.962966,14.675385],[120.962995,14.675247],[120.963011,14.674855],[120.962992,14.674716],[120.962972,14.674697],[120.962911,14.674676],[120.962782,14.674679],[120.962755,14.674677],[120.962734,14.674661],[120.962723,14.674592],[120.962655,14.674445],[120.96265,14.674377],[120.962639,14.674359],[120.962635,14.673973],[120.96358,14.673784],[120.963581,14.673934],[120.963614,14.674059],[120.963621,14.674145],[120.963681,14.674299],[120.963742,14.674584],[120.963802,14.674698],[120.963804,14.674745],[120.963782,14.674787],[120.963758,14.674805],[120.963719,14.67481],[120.963698,14.674824],[120.96361,14.674826],[120.963531,14.674847],[120.963452,14.674897],[120.963433,14.674927],[120.963435,14.674958],[120.963561,14.675084],[120.96358,14.675135],[120.963556,14.675175],[120.963488,14.675206],[120.963435,14.675252],[120.963402,14.67537],[120.963375,14.675393],[120.963379,14.675465],[120.963355,14.675527],[120.963339,14.675686],[120.963311,14.675755],[120.963267,14.676061],[120.963251,14.676125],[120.963188,14.676281],[120.963187,14.676402],[120.963211,14.676458],[120.963255,14.676513],[120.96326,14.676543],[120.963208,14.676674],[120.963149,14.67694],[120.96312,14.676981],[120.963096,14.676991],[120.96292,14.676988],[120.962867,14.676996],[120.962847,14.677023],[120.9628,14.677181],[120.962786,14.677198],[120.962772,14.67729],[120.96272,14.677347],[120.962642,14.6774],[120.96251,14.677388],[120.962456,14.677408],[120.962436,14.677427],[120.962407,14.677483],[120.962383,14.677599],[120.962348,14.677649],[120.962271,14.677713],[120.962234,14.677843],[120.962197,14.677887],[120.962178,14.677951],[120.962148,14.677979],[120.96214,14.67802],[120.962081,14.67808],[120.962054,14.678198],[120.962009,14.678245],[120.962003,14.678284],[120.961971,14.678317],[120.96193,14.678422],[120.961884,14.678485],[120.961873,14.678536],[120.961899,14.67858],[120.962049,14.678628],[120.962139,14.678677],[120.962105,14.678786],[120.962081,14.678819],[120.962052,14.67894],[120.962016,14.678979],[120.961919,14.679154],[120.961811,14.679418],[120.961593,14.679824],[120.96157,14.679897],[120.961541,14.679925],[120.96153,14.679973],[120.961498,14.680002],[120.961423,14.680134],[120.961386,14.68022],[120.961366,14.680302],[120.961323,14.680343],[120.961236,14.680355],[120.961195,14.680376],[120.961148,14.680457],[120.961136,14.680538],[120.96112,14.680543],[120.961004,14.680538],[120.960913,14.680495],[120.96085,14.680526],[120.960836,14.68056],[120.960758,14.680631],[120.960684,14.680727],[120.960545,14.680984],[120.960496,14.681032],[120.96046,14.68111],[120.960434,14.68113],[120.960404,14.681205],[120.960327,14.68128],[120.960273,14.681309],[120.960227,14.681416],[120.96013,14.68153],[120.960097,14.681609],[120.960045,14.681655],[120.960018,14.681706],[120.960023,14.681726],[120.960045,14.681745],[120.96005,14.68177],[120.960079,14.68178],[120.960103,14.681817],[120.960257,14.681901],[120.96035,14.681976],[120.960374,14.682016],[120.960403,14.682117],[120.960429,14.682144],[120.960443,14.682205],[120.960468,14.682237],[120.960482,14.682315],[120.960507,14.682338],[120.960538,14.682426],[120.960564,14.68244],[120.960574,14.682548],[120.960617,14.68269],[120.960631,14.683178],[120.960645,14.683196],[120.960662,14.683257],[120.96071,14.683299],[120.96073,14.68343],[120.960774,14.683496],[120.96078,14.683549],[120.960802,14.683574],[120.960808,14.683619],[120.96081,14.684232],[120.960818,14.684236],[120.96078,14.684223],[120.960498,14.684124],[120.96042,14.684097],[120.960314,14.68406],[120.960302,14.684056],[120.960252,14.684038],[120.960247,14.684037],[120.960175,14.684011],[120.960074,14.683976],[120.959923,14.683923],[120.95991,14.683918],[120.959845,14.683896],[120.959708,14.683848],[120.959542,14.68379],[120.959352,14.683723],[120.959221,14.683677],[120.959,14.6836],[120.959249,14.683152],[120.96,14.6818],[120.959,14.6812],[120.957995,14.680446],[120.957991,14.680443]]]]}},{"type":"Feature","properties":{"codes":["INSTITUTIONAL"],"name":"Institutional","color":"#0000ff"},"geometry":{"type":"MultiPolygon","coordinates":[[[[120.961875,14.682031],[120.961807,14.682161],[120.961755,14.682217],[120.961732,14.682663],[120.961711,14.684546],[120.961684,14.684539],[120.961119,14.684342],[120.961089,14.684331],[120.960818,14.684236],[120.96081,14.684232],[120.960808,14.683619],[120.960802,14.683574],[120.96078,14.683549],[120.960774,14.683496],[120.96073,14.68343],[120.96071,14.683299],[120.960662,14.683257],[120.960645,14.683196],[120.960631,14.683178],[120.960617,14.68269],[120.960574,14.682548],[120.960564,14.68244],[120.960538,14.682426],[120.960507,14.682338],[120.960482,14.682315],[120.960468,14.682237],[120.960443,14.682205],[120.960429,14.682144],[120.960403,14.682117],[120.960374,14.682016],[120.96035,14.681976],[120.960257,14.681901],[120.960103,14.681817],[120.960079,14.68178],[120.96005,14.68177],[120.960045,14.681745],[120.960023,14.681726],[120.960018,14.681706],[120.960045,14.681655],[120.960097,14.681609],[120.96013,14.68153],[120.960227,14.681416],[120.960273,14.681309],[120.960327,14.68128],[120.960404,14.681205],[120.960434,14.68113],[120.96046,14.68111],[120.960496,14.681032],[120.960545,14.680984],[120.960684,14.680727],[120.960758,14.680631],[120.960836,14.68056],[120.96085,14.680526],[120.960913,14.680495],[120.961004,14.680538],[120.96112,14.680543],[120.961156,14.680592],[120.961207,14.680625],[120.961289,14.680644],[120.961366,14.680689],[120.961491,14.680724],[120.961539,14.680755],[120.96159,14.680764],[120.961752,14.680837],[120.961847,14.680863],[120.961891,14.680892],[120.961971,14.680909],[120.962019,14.680938],[120.962039,14.680972],[120.962039,14.680991],[120.961956,14.681026],[120.961925,14.681057],[120.961903,14.681128],[120.961907,14.681233],[120.961921,14.681259],[120.961972,14.681294],[120.962134,14.681336],[120.962126,14.681427],[120.962017,14.68165],[120.961979,14.68177],[120.961927,14.681857],[120.961875,14.682031]]]]}},{"type":"Feature","properties":{"codes":["CEMETERY"],"name":"Cemetery","color":"#c89600"},"geometry":{"type":"MultiPolygon","coordinates":[[[[120.962178,14.681194],[120.962194,14.681203],[120.962168,14.681299],[120.962134,14.681336],[120.961972,14.681294],[120.961921,14.681259],[120.961907,14.681233],[120.961903,14.681128],[120.961925,14.681057],[120.961956,14.681026],[120.962039,14.680991],[120.962091,14.681039],[120.962161,14.681073],[120.962175,14.681119],[120.962178,14.681194]]]]}}]}
