{"type":"FeatureCollection","features":[{"type":"Feature","properties":{"codes":["R-2-BASIC","R-2-MAX"],"name":"R-2 Basic or R-2 Max","color":"#ffffb4"},"geometry":{"type":"MultiPolygon","coordinates":[[[[120.952647,14.671706],[120.953,14.6716],[120.953297,14.672223],[120.953769,14.673215],[120.953251,14.673212],[120.953129,14.67322],[120.953122,14.673235],[120.95303,14.673264],[120.952974,14.673301],[120.952949,14.673362],[120.952932,14.673466],[120.952916,14.673512],[120.952891,14.673546],[120.952859,14.673568],[120.952787,14.673594],[120.952765,14.673615],[120.952738,14.673698],[120.952723,14.673714],[120.952703,14.673722],[120.952657,14.67372],[120.952629,14.673704],[120.952558,14.673694],[120.95227,14.67369],[120.952213,14.673625],[120.952183,14.673603],[120.952161,14.673603],[120.95214,14.673617],[120.95209,14.673684],[120.952055,14.673707],[120.952009,14.673815],[120.951963,14.673851],[120.951953,14.673885],[120.951903,14.673941],[120.951872,14.673992],[120.95186,14.674054],[120.951869,14.674084],[120.95189,14.674113],[120.951937,14.674147],[120.952044,14.674204],[120.952036,14.674263],[120.951943,14.674436],[120.951866,14.674636],[120.951749,14.674825],[120.951644,14.675043],[120.951607,14.675074],[120.951535,14.675078],[120.951458,14.675045],[120.951425,14.675006],[120.951403,14.674991],[120.951337,14.674983],[120.951293,14.67499],[120.951254,14.675009],[120.95122,14.675039],[120.951192,14.675081],[120.951136,14.675201],[120.951117,14.675214],[120.951107,14.675238],[120.951023,14.675582],[120.95097,14.675699],[120.95096,14.675749],[120.950963,14.67577],[120.950992,14.675798],[120.951061,14.675825],[120.951105,14.675872],[120.951145,14.676041],[120.951167,14.676089],[120.95122,14.676159],[120.951245,14.676269],[120.951266,14.676302],[120.951299,14.67633],[120.951302,14.676378],[120.951344,14.676363],[120.951128,14.676449],[120.951,14.6765],[120.950457,14.677804],[120.950323,14.677772],[120.950246,14.677745],[120.950131,14.677675],[120.950033,14.677593],[120.949983,14.677562],[120.949969,14.677586],[120.949963,14.677624],[120.949942,14.677856],[120.949928,14.677912],[120.949915,14.677928],[120.949872,14.677943],[120.949813,14.677937],[120.949749,14.677905],[120.949659,14.677842],[120.949612,14.677823],[120.949589,14.677823],[120.94954,14.677849],[120.949492,14.677901],[120.949443,14.678027],[120.949427,14.678045],[120.949405,14.678054],[120.949356,14.678051],[120.949275,14.678013],[120.949245,14.67801],[120.94921,14.678031],[120.949145,14.678102],[120.949101,14.678123],[120.949079,14.678123],[120.949004,14.678087],[120.948776,14.677927],[120.948612,14.67783],[120.948576,14.677795],[120.948474,14.677759],[120.948436,14.677643],[120.948395,14.677601],[120.948322,14.677492],[120.948266,14.677476],[120.948213,14.677444],[120.948138,14.67744],[120.948164,14.677336],[120.948209,14.677231],[120.948327,14.67707],[120.948356,14.67701],[120.948376,14.676994],[120.948424,14.676929],[120.948595,14.676663],[120.948627,14.67664],[120.948671,14.676638],[120.94874,14.676666],[120.948785,14.676704],[120.94881,14.676715],[120.948832,14.676712],[120.948865,14.676688],[120.949055,14.676427],[120.949136,14.676336],[120.94931,14.676074],[120.949517,14.675814],[120.949575,14.675704],[120.949653,14.67558],[120.949785,14.675395],[120.949821,14.675367],[120.94984,14.675308],[120.949902,14.675216],[120.949924,14.675199],[120.949968,14.67519],[120.950007,14.675201],[120.950073,14.675247],[120.950115,14.675258],[120.950141,14.675251],[120.950204,14.675205],[120.950299,14.675114],[120.950347,14.675089],[120.950418,14.674964],[120.95056,14.674801],[120.950602,14.674711],[120.950637,14.674688],[120.950722,14.674583],[120.950871,14.674446],[120.9509,14.674382],[120.950986,14.674265],[120.951078,14.674121],[120.951273,14.673764],[120.951307,14.673724],[120.951315,14.673688],[120.951368,14.67362],[120.951413,14.6735],[120.951411,14.673473],[120.951399,14.673456],[120.95135,14.673435],[120.951234,14.673356],[120.951015,14.673159],[120.950809,14.673003],[120.950754,14.672945],[120.950735,14.672901],[120.950723,14.672841],[120.950719,14.672543],[120.95096,14.67242],[120.95161,14.672095],[120.952,14.6719],[120.95224,14.671828],[120.952647,14.671706]],[[120.950064,14.6768],[120.950141,14.676839],[120.950278,14.676885],[120.950312,14.676884],[120.950343,14.676868],[120.950489,14.676586],[120.950485,14.676536],[120.950444,14.676492],[120.950197,14.676381],[120.950153,14.676355],[120.950035,14.676259],[120.949909,14.676204],[120.949869,14.676177],[120.949869,14.676139],[120.949899,14.676072],[120.949891,14.676032],[120.949859,14.676013],[120.949763,14.675914],[120.949717,14.675882],[120.949672,14.675887],[120.949635,14.675907],[120.949593,14.675952],[120.949539,14.676038],[120.949529,14.676093],[120.949549,14.676121],[120.949581,14.676143],[120.949594,14.676184],[120.949566,14.676242],[120.949454,14.676419],[120.949444,14.676491],[120.949661,14.676589],[120.949748,14.676643],[120.949837,14.676665],[120.9499,14.676711],[120.949957,14.67673],[120.950064,14.6768]]]]}},{"type":"Feature","properties":{"codes":["CMP"],"name":"CMP","color":"#a8a800"},"geometry":{"type":"MultiPolygon","coordinates":[[[[120.952161,14.673603],[120.952183,14.673603],[120.952213,14.673625],[120.95227,14.67369],[120.952251,14.673988],[120.95223,14.67412],[120.952202,14.674184],[120.952152,14.674213],[120.952044,14.674204],[120.951937,14.674147],[120.95189,14.674113],[120.951869,14.674084],[120.95186,14.674054],[120.951872,14.673992],[120.951903,14.673941],[120.951953,14.673885],[120.951963,14.673851],[120.952009,14.673815],[120.952055,14.673707],[120.95209,14.673684],[120.95214,14.673617],[120.952161,14.673603]]]]}},{"type":"Feature","properties":{"codes":["INSTITUTIONAL"],"name":"Institutional","color":"#0000ff"},"geometry":{"type":"MultiPolygon","coordinates":[[[[120.950197,14.676381],[120.950444,14.676492],[120.950485,14.676536],[120.950489,14.676586],[120.950343,14.676868],[120.950312,14.676884],[120.950278,14.676885],[120.950141,14.676839],[120.950064,14.6768],[120.949957,14.67673],[120.9499,14.676711],[120.949837,14.676665],[120.949748,14.676643],[120.949661,14.676589],[120.949444,14.676491],[120.949454,14.676419],[120.949566,14.676242],[120.949594,14.676184],[120.949581,14.676143],[120.949549,14.676121],[120.949529,14.676093],[120.949539,14.676038],[120.949593,14.675952],[120.949635,14.675907],[120.949672,14.675887],[120.949717,14.675882],[120.949763,14.675914],[120.949859,14.676013],[120.949891,14.676032],[120.949899,14.676072],[120.949869,14.676139],[120.949869,14.676177],[120.949909,14.676204],[120.950035,14.676259],[120.950153,14.676355],[120.950197,14.676381]]]]}},{"type":"Feature","properties":{"codes":["FISHPOND"],"name":"Fishpond","color":"#006400"},"geometry":{"type":"MultiPolygon","coordinates":[[[[120.947707,14.674099],[120.948405,14.673506],[120.949,14.673],[120.949347,14.672965],[120.949616,14.672938],[120.949618,14.672938],[120.95,14.6729],[120.950269,14.672766],[120.95096,14.67242],[120.950719,14.672543],[120.950723,14.672841],[120.950735,14.672901],[120.950754,14.672945],[120.950809,14.673003],[120.951015,14.673159],[120.951234,14.673356],[120.95135,14.673435],[120.951399,14.673456],[120.951411,14.673473],[120.951413,14.6735],[120.951368,14.67362],[120.951315,14.673688],[120.951307,14.673724],[120.951273,14.673764],[120.951078,14.674121],[120.950986,14.674265],[120.9509,14.674382],[120.950871,14.674446],[120.950722,14.674583],[120.950637,14.674688],[120.950602,14.674711],[120.95056,14.674801],[120.950418,14.674964],[120.950347,14.675089],[120.950299,14.675114],[120.950204,14.675205],[120.950141,14.675251],[120.950115,14.675258],[120.950073,14.675247],[120.950007,14.675201],[120.949968,14.67519],[120.949924,14.675199],[120.949902,14.675216],[120.94984,14.675308],[120.949821,14.675367],[120.949785,14.675395],[120.949653,14.67558],[120.949575,14.675704],[120.949517,14.675814],[120.94931,14.676074],[120.949136,14.676336],[120.949055,14.676427],[120.948865,14.676688],[120.948832,14.676712],[120.94881,14.676715],[120.948785,14.676704],[120.94874,14.676666],[120.948671,14.676638],[120.948627,14.67664],[120.948595,14.676663],[120.948424,14.676929],[120.948376,14.676994],[120.948356,14.67701],[120.948327,14.67707],[120.948209,14.677231],[120.948164,14.677336],[120.948138,14.67744],[120.948055,14.677456],[120.948017,14.677454],[120.947997,14.677439],[120.947971,14.677344],[120.947953,14.677311],[120.947895,14.677252],[120.947829,14.677215],[120.947796,14.677208],[120.947734,14.677211],[120.947687,14.677232],[120.947657,14.67726],[120.947267,14.676987],[120.947,14.6768],[120.947,14.676054],[120.947,14.675478],[120.947,14.6747],[120.947707,14.674099]]],[[[120.949928,14.677912],[120.949942,14.677856],[120.949963,14.677624],[120.949969,14.677586],[120.949983,14.677562],[120.950033,14.677593],[120.950131,14.677675],[120.950246,14.677745],[120.950323,14.677772],[120.950457,14.677804],[120.950191,14.678441],[120.95,14.6789],[120.948962,14.678173],[120.94843,14.677801],[120.948474,14.677759],[120.948576,14.677795],[120.948612,14.67783],[120.948776,14.677927],[120.949004,14.678087],[120.949079,14.678123],[120.949101,14.678123],[120.949145,14.678102],[120.94921,14.678031],[120.949245,14.67801],[120.949275,14.678013],[120.949356,14.678051],[120.949405,14.678054],[120.949427,14.678045],[120.949443,14.678027],[120.949492,14.677901],[120.94954,14.677849],[120.949589,14.677823],[120.949612,14.677823],[120.949659,14.677842],[120.949749,14.677905],[120.949813,14.677937],[120.949872,14.677943],[120.949915,14.677928],[120.949928,14.677912]]],[[[120.953129,14.67322],[120.953251,14.673212],[120.953769,14.673215],[120.953908,14.673506],[120.954,14.6737],[120.953706,14.674258],[120.953322,14.674988],[120.953,14.6756],[120.952647,14.675777],[120.952,14.6761],[120.951344,14.676363],[120.951302,14.676378],[120.951299,14.67633],[120.951266,14.676302],[120.951245,14.676269],[120.95122,14.676159],[120.951167,14.676089],[120.951145,14.676041],[120.951105,14.675872],[120.951061,14.675825],[120.950992,14.675798],[120.950963,14.67577],[120.95096,14.675749],[120.95097,14.675699],[120.951023,14.675582],[120.951107,14.675238],[120.951117,14.675214],[120.951136,14.675201],[120.951192,14.675081],[120.95122,14.675039],[120.951254,14.675009],[120.951293,14.67499],[120.951337,14.674983],[120.951403,14.674991],[120.951425,14.675006],[120.951458,14.675045],[120.951535,14.675078],[120.951607,14.675074],[120.951644,14.675043],[120.951749,14.674825],[120.951866,14.674636],[120.951943,14.674436],[120.952036,14.674263],[120.952044,14.674204],[120.952152,14.674213],[120.952202,14.674184],[120.95223,14.67412],[120.952251,14.673988],[120.95227,14.67369],[120.952558,14.673694],[120.952629,14.673704],[120.952657,14.67372],[120.952703,14.673722],[120.952723,14.673714],[120.952738,14.673698],[120.952765,14.673615],[120.952787,14.673594],[120.952859,14.673568],[120.952891,14.673546],[120.952916,14.673512],[120.952932,14.673466],[120.952949,14.673362],[120.952974,14.673301],[120.95303,14.673264],[120.953122,14.673235],[120.953129,14.67322]]]]}},{"type":"Feature","properties":{"codes":["MANGROVE"],"name":"Mangrove","color":"#55ff00"},"geometry":{"type":"MultiPolygon","coordinates":[[[[120.948395,14.677601],[120.948436,14.677643],[120.948474,14.677759],[120.94843,14.677801],[120.947657,14.67726],[120.947687,14.677232],[120.947734,14.677211],[120.947796,14.677208],[120.947829,14.677215],[120.947895,14.677252],[120.947953,14.677311],[120.947971,14.677344],[120.947997,14.677439],[120.948017,14.677454],[120.948055,14.677456],[120.948138,14.67744],[120.948213,14.677444],[120.948266,14.677476],[120.948322,14.677492],[120.948395,14.677601]]]]}}]}
