{"type":"FeatureCollection","features":[{"type":"Feature","properties":{"codes":["R-2-BASIC","R-2-MAX"],"name":"R-2 Basic or R-2 Max","color":"#ffffb4"},"geometry":{"type":"MultiPolygon","coordinates":[[[[120.955,14.661823],[120.955,14.6598],[120.957,14.6603],[120.956,14.6632],[120.957167,14.665126],[120.95715,14.665098],[120.957195,14.665171],[120.956889,14.665264],[120.956889,14.665321],[120.957248,14.665258],[120.9573,14.665345],[120.957183,14.665391],[120.957163,14.665438],[120.95724,14.665583],[120.957328,14.665622],[120.957493,14.665834],[120.957696,14.66617],[120.957802,14.666381],[120.957802,14.666429],[120.957743,14.666438],[120.957671,14.666782],[120.957995,14.666775],[120.957965,14.666823],[120.957728,14.666935],[120.957689,14.666973],[120.957688,14.66705],[120.95756,14.667116],[120.957559,14.667173],[120.957733,14.667538],[120.957318,14.667745],[120.957318,14.667793],[120.957569,14.668187],[120.957577,14.668483],[120.957737,14.668453],[120.956,14.6688],[120.955,14.6702],[120.953,14.6706],[120.953,14.669677],[120.953066,14.669677],[120.953251,14.668856],[120.953262,14.668684],[120.953197,14.668292],[120.953345,14.668245],[120.953357,14.667949],[120.953301,14.667623],[120.953313,14.667451],[120.953322,14.667509],[120.95344,14.667519],[120.953469,14.667519],[120.953519,14.667453],[120.95349,14.667405],[120.953511,14.667204],[120.953374,14.667203],[120.953355,14.667079],[120.953387,14.666907],[120.953416,14.666878],[120.953407,14.666763],[120.953479,14.666515],[120.953542,14.666038],[120.953803,14.665447],[120.954004,14.664904],[120.954173,14.664685],[120.954194,14.664571],[120.954224,14.664561],[120.954235,14.664437],[120.954254,14.664466],[120.954352,14.664476],[120.954392,14.664419],[120.954433,14.664219],[120.954543,14.664],[120.954544,14.663923],[120.954515,14.663885],[120.954475,14.663885],[120.954486,14.663837],[120.954723,14.663638],[120.954795,14.663313],[120.955034,14.66299],[120.955035,14.662904],[120.954887,14.662884],[120.954858,14.662845],[120.954748,14.662853],[120.955,14.6623],[120.955,14.661823]],[[120.955205,14.667803],[120.955195,14.667841],[120.955234,14.667879],[120.955342,14.667909],[120.95548,14.66791],[120.955441,14.667833],[120.955205,14.667803]],[[120.954702,14.666966],[120.954652,14.667052],[120.954642,14.667138],[120.95525,14.667229],[120.955319,14.667211],[120.955291,14.667038],[120.954869,14.666968],[120.954702,14.666966]]]]}},{"type":"Feature","properties":{"codes":["C-1"],"name":"C-1","color":"#ff7f7f"},"geometry":{"type":"MultiPolygon","coordinates":[[[[120.957248,14.665258],[120.956889,14.665321],[120.956889,14.665264],[120.957195,14.665171],[120.957248,14.665258]]],[[[120.957328,14.665622],[120.95724,14.665583],[120.957163,14.665438],[120.957183,14.665391],[120.9573,14.665345],[120.957729,14.666053],[120.957504,14.665682],[120.958,14.6665],[120.959,14.6682],[120.958998,14.6682],[120.958133,14.666729],[120.957969,14.66645],[120.95789,14.666459],[120.957802,14.666429],[120.957802,14.666381],[120.957696,14.66617],[120.957493,14.665834],[120.957328,14.665622]]],[[[120.957689,14.666973],[120.957728,14.666935],[120.957965,14.666823],[120.957995,14.666775],[120.958133,14.666729],[120.958998,14.6682],[120.957737,14.668453],[120.957577,14.668483],[120.957569,14.668187],[120.957318,14.667793],[120.957318,14.667745],[120.957733,14.667538],[120.957559,14.667173],[120.95756,14.667116],[120.957688,14.66705],[120.957689,14.666973]]]]}},{"type":"Feature","properties":{"codes":["INSTITUTIONAL"],"name":"Institutional","color":"#0000ff"},"geometry":{"type":"MultiPolygon","coordinates":[[[[120.957969,14.66645],[120.958133,14.666729],[120.957995,14.666775],[120.957671,14.666782],[120.957743,14.666438],[120.957802,14.666429],[120.95789,14.666459],[120.957969,14.66645]]],[[[120.954702,14.666966],[120.954869,14.666968],[120.955291,14.667038],[120.955319,14.667211],[120.95525,14.667229],[120.954642,14.667138],[120.954652,14.667052],[120.954702,14.666966]]],[[[120.955195,14.667841],[120.955205,14.667803],[120.955441,14.667833],[120.95548,14.66791],[120.955342,14.667909],[120.955234,14.667879],[120.955195,14.667841]]]]}},{"type":"Feature","properties":{"codes":["PARKS"],"name":"Parks and Recreation","color":"#38a800"},"geometry":{"type":"MultiPolygon","coordinates":[[[[120.953335,14.667212],[120.953374,14.667203],[120.953511,14.667204],[120.95349,14.667405],[120.953519,14.667453],[120.953469,14.667519],[120.95344,14.667519],[120.953322,14.667509],[120.953313,14.667451],[120.953335,14.667212]]]]}}]}
