{"type":"FeatureCollection","features":[{"type":"Feature","properties":{"codes":["R-2-BASIC","R-2-MAX"],"name":"R-2 Basic or R-2 Max","color":"#ffffb4"},"geometry":{"type":"MultiPolygon","coordinates":[[[[120.947,14.682589],[120.947,14.6825],[120.947024,14.682449],[120.947588,14.681265],[120.947589,14.681264],[120.947686,14.681059],[120.94769,14.681052],[120.947784,14.680854],[120.947791,14.680839],[120.947882,14.680649],[120.947893,14.680625],[120.948,14.6804],[120.94802,14.680385],[120.948082,14.680339],[120.948219,14.680236],[120.948299,14.680175],[120.948466,14.680051],[120.948515,14.680014],[120.948636,14.679923],[120.94873,14.679853],[120.948903,14.679723],[120.948975,14.679668],[120.949084,14.679587],[120.949201,14.679499],[120.949328,14.679404],[120.949383,14.679363],[120.949495,14.679279],[120.949571,14.679222],[120.949665,14.679151],[120.949719,14.679111],[120.949774,14.67907],[120.94981,14.679042],[120.949849,14.679013],[120.949901,14.678974],[120.949968,14.678924],[120.949973,14.67892],[120.95,14.6789],[120.950482,14.677744],[120.951,14.6765],[120.951175,14.67643],[120.951263,14.676395],[120.951326,14.67637],[120.951457,14.676317],[120.951472,14.676311],[120.952,14.6761],[120.956235,14.679149],[120.956238,14.679151],[120.956413,14.679277],[120.95413,14.679264],[120.954117,14.679519],[120.95411,14.680089],[120.954084,14.680517],[120.954061,14.68062],[120.953987,14.680683],[120.95395,14.680698],[120.953944,14.680723],[120.953912,14.680749],[120.953882,14.680795],[120.953863,14.680982],[120.953828,14.68109],[120.953822,14.681167],[120.953789,14.681235],[120.953731,14.681461],[120.953701,14.681532],[120.95367,14.681558],[120.953584,14.6816],[120.953336,14.681853],[120.953275,14.681885],[120.953238,14.681918],[120.953201,14.681986],[120.953171,14.682009],[120.953161,14.682043],[120.953114,14.682089],[120.953088,14.682172],[120.953036,14.682193],[120.952863,14.68221],[120.952805,14.682225],[120.952783,14.68225],[120.952741,14.682271],[120.952668,14.682367],[120.952411,14.682497],[120.952281,14.682646],[120.952253,14.682698],[120.952191,14.682737],[120.952102,14.682815],[120.952104,14.68288],[120.952148,14.682941],[120.952216,14.682979],[120.952317,14.683082],[120.952457,14.683175],[120.952602,14.683307],[120.952667,14.68334],[120.9527,14.68338],[120.952711,14.683412],[120.952751,14.683429],[120.952804,14.683487],[120.952862,14.683514],[120.952895,14.683554],[120.952906,14.683586],[120.952939,14.683598],[120.95308,14.683741],[120.953138,14.683778],[120.953171,14.683829],[120.953222,14.683845],[120.953266,14.683888],[120.953417,14.683913],[120.95386,14.683927],[120.953944,14.683937],[120.95398,14.683952],[120.953928,14.68402],[120.953807,14.684131],[120.953767,14.684193],[120.953648,14.684302],[120.953604,14.684367],[120.953467,14.684494],[120.953447,14.684528],[120.953592,14.684547],[120.954095,14.684558],[120.954252,14.684571],[120.954267,14.68459],[120.954346,14.684634],[120.954402,14.684729],[120.954424,14.684746],[120.954555,14.684794],[120.954676,14.684897],[120.954736,14.68492],[120.954798,14.684992],[120.954922,14.685062],[120.954953,14.685096],[120.954982,14.685102],[120.955024,14.685148],[120.955121,14.685201],[120.955149,14.685232],[120.955182,14.685235],[120.955101,14.685329],[120.955078,14.685382],[120.955034,14.685425],[120.955022,14.685496],[120.955036,14.685539],[120.955099,14.685583],[120.955118,14.685609],[120.955152,14.685619],[120.955177,14.685648],[120.955216,14.685662],[120.955316,14.685746],[120.95535,14.685757],[120.955407,14.685818],[120.955498,14.685867],[120.955571,14.685929],[120.955588,14.685954],[120.955599,14.686008],[120.955577,14.686076],[120.95555,14.686091],[120.955531,14.686119],[120.955527,14.68617],[120.955541,14.68622],[120.955592,14.686276],[120.955639,14.686294],[120.955685,14.686342],[120.955868,14.686455],[120.955915,14.686513],[120.955935,14.68658],[120.955743,14.686576],[120.955636,14.686539],[120.955573,14.686551],[120.955496,14.68661],[120.955395,14.686724],[120.955375,14.686766],[120.955271,14.686861],[120.955236,14.686918],[120.955132,14.687019],[120.955105,14.687082],[120.955105,14.687116],[120.955112,14.687161],[120.955141,14.687198],[120.955143,14.687233],[120.955132,14.687264],[120.955095,14.687295],[120.955069,14.687342],[120.955019,14.687372],[120.954997,14.687421],[120.954886,14.687421],[120.954861,14.687436],[120.954835,14.687508],[120.954791,14.687532],[120.95478,14.687562],[120.954702,14.687633],[120.954635,14.687735],[120.954579,14.687791],[120.954553,14.687885],[120.954479,14.687919],[120.954424,14.68797],[120.954405,14.688016],[120.954359,14.688059],[120.954342,14.688108],[120.954335,14.68817],[120.95435,14.688246],[120.95426,14.688263],[120.954142,14.688316],[120.954096,14.688359],[120.954059,14.688424],[120.953997,14.688479],[120.953984,14.688514],[120.953947,14.688557],[120.953869,14.68862],[120.953836,14.688627],[120.953843,14.688649],[120.953942,14.688743],[120.953947,14.688775],[120.953916,14.688801],[120.953898,14.688848],[120.953861,14.688897],[120.953761,14.68899],[120.953741,14.689019],[120.953708,14.689116],[120.953619,14.6892],[120.953603,14.689239],[120.953525,14.68932],[120.953481,14.689383],[120.953472,14.689413],[120.953479,14.689468],[120.953515,14.689514],[120.953567,14.689553],[120.953588,14.689591],[120.953583,14.689628],[120.95351,14.68971],[120.953478,14.689796],[120.953436,14.689837],[120.953392,14.689848],[120.953365,14.689832],[120.953285,14.689817],[120.953218,14.689773],[120.953172,14.689769],[120.953133,14.689783],[120.953086,14.689847],[120.953045,14.68988],[120.953013,14.689951],[120.952918,14.690066],[120.952889,14.690143],[120.952863,14.690161],[120.952854,14.69034],[120.952804,14.690373],[120.952568,14.690411],[120.952364,14.69047],[120.95234,14.691115],[120.95231,14.693912],[120.952301,14.693911],[120.951375,14.693262],[120.95137,14.693259],[120.950605,14.692724],[120.950583,14.692708],[120.950235,14.692464],[120.950212,14.692449],[120.950052,14.692336],[120.950047,14.692333],[120.949921,14.692245],[120.949902,14.692231],[120.949849,14.692194],[120.949845,14.692192],[120.949717,14.692102],[120.949711,14.692098],[120.94958,14.692006],[120.949559,14.691991],[120.949385,14.691869],[120.949378,14.691865],[120.949124,14.691687],[120.949066,14.691646],[120.948923,14.691546],[120.948907,14.691535],[120.948798,14.691459],[120.948766,14.691436],[120.94872,14.691404],[120.948705,14.691393],[120.94859,14.691313],[120.948567,14.691297],[120.948451,14.691215],[120.948416,14.691191],[120.948261,14.691082],[120.948235,14.691065],[120.948042,14.690929],[120.947954,14.690868],[120.947709,14.690696],[120.947633,14.690643],[120.947592,14.690614],[120.947564,14.690595],[120.947463,14.690524],[120.947423,14.690496],[120.947322,14.690426],[120.947296,14.690407],[120.94726,14.690382],[120.947227,14.690359],[120.947115,14.690281],[120.947077,14.690254],[120.947,14.6902],[120.946945,14.690153],[120.946837,14.690061],[120.946725,14.689966],[120.94669,14.689936],[120.946589,14.68985],[120.946554,14.689821],[120.946452,14.689734],[120.946417,14.689705],[120.946315,14.689618],[120.946281,14.689589],[120.946179,14.689502],[120.946144,14.689473],[120.946042,14.689386],[120.946005,14.689354],[120.945893,14.689259],[120.945883,14.689251],[120.945775,14.689159],[120.945764,14.689149],[120.945638,14.689042],[120.945627,14.689033],[120.945502,14.688926],[120.945491,14.688917],[120.945365,14.68881],[120.945355,14.688801],[120.945228,14.688694],[120.945218,14.688685],[120.945091,14.688577],[120.945073,14.688562],[120.94502,14.688517],[120.945,14.6885],[120.945,14.687998],[120.945,14.687],[120.945,14.686489],[120.945,14.6861],[120.945016,14.686094],[120.945893,14.685773],[120.94591,14.685766],[120.946125,14.685688],[120.946147,14.685679],[120.94627,14.685635],[120.94632,14.685616],[120.946471,14.685561],[120.946581,14.68552],[120.946759,14.685455],[120.946813,14.685435],[120.946902,14.685402],[120.947039,14.685352],[120.947157,14.685309],[120.94724,14.685279],[120.947297,14.685258],[120.947474,14.685193],[120.947539,14.685169],[120.947646,14.68513],[120.947713,14.685105],[120.947934,14.685024],[120.947947,14.68502],[120.947971,14.685011],[120.948,14.685],[120.948,14.6842],[120.947304,14.683504],[120.947,14.6832],[120.947,14.682966],[120.947,14.682589]],[[120.954123,14.687613],[120.954153,14.68762],[120.954223,14.687671],[120.954252,14.687675],[120.954289,14.687657],[120.954337,14.687616],[120.954368,14.687579],[120.95438,14.687544],[120.954458,14.687473],[120.954528,14.687369],[120.954614,14.687285],[120.954632,14.687235],[120.954633,14.687181],[120.954597,14.687176],[120.954517,14.687097],[120.954438,14.687052],[120.954384,14.686998],[120.954345,14.686983],[120.954285,14.686925],[120.954202,14.686882],[120.954169,14.686843],[120.95413,14.686828],[120.954084,14.686783],[120.954028,14.686759],[120.953936,14.686744],[120.953874,14.686781],[120.953803,14.686904],[120.953757,14.686946],[120.953683,14.687068],[120.953637,14.687118],[120.953611,14.687229],[120.95368,14.687294],[120.95377,14.687342],[120.95383,14.6874],[120.953869,14.687414],[120.953902,14.687453],[120.954002,14.687509],[120.954045,14.687554],[120.954084,14.687569],[120.954123,14.687613]],[[120.951111,14.686076],[120.951196,14.685962],[120.951333,14.685834],[120.951363,14.685778],[120.951438,14.685698],[120.951449,14.685664],[120.951512,14.685607],[120.951575,14.685511],[120.951619,14.685483],[120.951681,14.685388],[120.95181,14.685249],[120.951833,14.685199],[120.951822,14.685167],[120.951719,14.685155],[120.951671,14.685187],[120.951582,14.685331],[120.951551,14.685357],[120.951519,14.685427],[120.951493,14.685434],[120.951478,14.685467],[120.95145,14.685473],[120.951409,14.685505],[120.951381,14.685574],[120.951301,14.685622],[120.951256,14.685695],[120.95121,14.685723],[120.951201,14.685752],[120.951107,14.685847],[120.951072,14.685925],[120.95102,14.685982],[120.951008,14.686097],[120.951063,14.686097],[120.951111,14.686076]]],[[[120.957558,14.681314],[120.957572,14.681149],[120.957588,14.680149],[120.9576,14.68015],[120.95766,14.680195],[120.957662,14.680196],[120.957992,14.680444],[120.958007,14.680455],[120.958063,14.680498],[120.958078,14.680508],[120.958143,14.680557],[120.958154,14.680566],[120.958222,14.680617],[120.958231,14.680623],[120.958301,14.680676],[120.958308,14.680681],[120.958381,14.680736],[120.958385,14.680739],[120.95846,14.680795],[120.958462,14.680796],[120.958687,14.680965],[120.958736,14.681002],[120.958719,14.681],[120.958705,14.682808],[120.958713,14.683248],[120.958734,14.683309],[120.958736,14.683356],[120.958676,14.683513],[120.958579,14.683698],[120.958531,14.683758],[120.958491,14.683866],[120.95846,14.683898],[120.958397,14.683905],[120.958316,14.683826],[120.958264,14.683803],[120.958211,14.683745],[120.958168,14.683727],[120.958129,14.683684],[120.95809,14.683669],[120.958061,14.683636],[120.95782,14.683613],[120.956828,14.683585],[120.956827,14.682448],[120.956844,14.682174],[120.956877,14.682146],[120.956904,14.682097],[120.956993,14.682017],[120.957026,14.681961],[120.957131,14.681866],[120.957149,14.681827],[120.957288,14.681697],[120.957309,14.681655],[120.957465,14.681508],[120.957483,14.681469],[120.957539,14.681408],[120.957558,14.681314]]],[[[120.955542,14.68484],[120.955594,14.684796],[120.955645,14.68477],[120.955704,14.68478],[120.955751,14.684827],[120.955787,14.684844],[120.955794,14.684898],[120.955783,14.684928],[120.955619,14.68513],[120.955545,14.685247],[120.955507,14.68528],[120.955433,14.685301],[120.955397,14.685332],[120.955313,14.685303],[120.95526,14.685254],[120.955309,14.685189],[120.955339,14.685107],[120.955401,14.685042],[120.955426,14.684989],[120.9555,14.684909],[120.955542,14.68484]]],[[[120.955858,14.685851],[120.955869,14.685818],[120.955943,14.685758],[120.956054,14.685808],[120.956086,14.685847],[120.956178,14.685855],[120.956207,14.685913],[120.956152,14.68598],[120.956114,14.686],[120.956001,14.685993],[120.955975,14.685999],[120.955927,14.686074],[120.955861,14.68614],[120.955782,14.686084],[120.955764,14.686031],[120.955771,14.685967],[120.955802,14.685912],[120.955858,14.685851]]],[[[120.957424,14.686603],[120.957445,14.686664],[120.957451,14.686731],[120.957495,14.686784],[120.957512,14.686886],[120.957535,14.686925],[120.956,14.688],[120.955933,14.688227],[120.955925,14.688256],[120.955894,14.688362],[120.955879,14.688411],[120.955864,14.688464],[120.955859,14.688479],[120.955827,14.688589],[120.955811,14.688644],[120.955763,14.688807],[120.955752,14.688845],[120.955702,14.689014],[120.955682,14.689081],[120.955599,14.689363],[120.95559,14.689395],[120.955538,14.689569],[120.955522,14.689627],[120.955436,14.689919],[120.955428,14.689944],[120.955372,14.690134],[120.955369,14.690146],[120.955322,14.690305],[120.955311,14.690324],[120.954862,14.689956],[120.95486,14.689893],[120.954826,14.689851],[120.954806,14.689764],[120.954775,14.689305],[120.954766,14.689229],[120.95474,14.689169],[120.954735,14.689125],[120.954728,14.688853],[120.954697,14.688733],[120.9547,14.688686],[120.954723,14.688626],[120.954804,14.688544],[120.954765,14.688526],[120.954714,14.688471],[120.9547,14.688427],[120.954709,14.688385],[120.954752,14.688368],[120.954844,14.688358],[120.954907,14.688322],[120.954986,14.688303],[120.95507,14.688189],[120.955135,14.688161],[120.955223,14.688154],[120.955259,14.688104],[120.955346,14.688029],[120.955381,14.68797],[120.955485,14.68786],[120.955511,14.687817],[120.955509,14.68779],[120.955475,14.687724],[120.955476,14.687647],[120.955489,14.687614],[120.955533,14.687596],[120.955635,14.687598],[120.955668,14.687575],[120.955696,14.68752],[120.955756,14.687475],[120.955808,14.68732],[120.955895,14.687229],[120.955954,14.687124],[120.955987,14.687109],[120.955995,14.687082],[120.956058,14.687025],[120.956128,14.68692],[120.956278,14.686776],[120.956298,14.686733],[120.956437,14.686565],[120.956452,14.686514],[120.956477,14.68648],[120.956529,14.686437],[120.956562,14.686427],[120.95662,14.686355],[120.956662,14.686338],[120.956711,14.686342],[120.956844,14.686397],[120.956874,14.686394],[120.956969,14.686351],[120.957055,14.686377],[120.957156,14.68638],[120.957237,14.686459],[120.957292,14.686483],[120.957365,14.686538],[120.957424,14.686603]]]]}},{"type":"Feature","properties":{"codes":["CMP"],"name":"CMP","color":"#a8a800"},"geometry":{"type":"MultiPolygon","coordinates":[[[[120.956413,14.679277],[120.956684,14.679472],[120.95669,14.679477],[120.95689,14.679621],[120.956901,14.679629],[120.957,14.6797],[120.957351,14.679963],[120.957366,14.679974],[120.957526,14.680094],[120.9576,14.68015],[120.957588,14.680149],[120.957572,14.681149],[120.957558,14.681314],[120.957539,14.681408],[120.957483,14.681469],[120.957465,14.681508],[120.957309,14.681655],[120.957288,14.681697],[120.957149,14.681827],[120.957131,14.681866],[120.957026,14.681961],[120.956993,14.682017],[120.956904,14.682097],[120.956877,14.682146],[120.956844,14.682174],[120.956827,14.682448],[120.956828,14.683585],[120.956827,14.683818],[120.956847,14.683929],[120.956862,14.684178],[120.956874,14.684483],[120.956837,14.684586],[120.956789,14.684646],[120.956775,14.684681],[120.956761,14.685007],[120.956744,14.685019],[120.956732,14.685069],[120.95668,14.685137],[120.956673,14.685165],[120.956642,14.685195],[120.956613,14.685301],[120.956598,14.685322],[120.956536,14.685364],[120.956526,14.685387],[120.956523,14.685508],[120.956479,14.685542],[120.956468,14.685581],[120.956353,14.685618],[120.95632,14.685644],[120.956293,14.685701],[120.956223,14.685785],[120.95621,14.685837],[120.956178,14.685855],[120.956086,14.685847],[120.956054,14.685808],[120.955943,14.685758],[120.955884,14.685689],[120.955719,14.685594],[120.95559,14.685488],[120.955481,14.685427],[120.955397,14.685332],[120.955433,14.685301],[120.955507,14.68528],[120.955545,14.685247],[120.955619,14.68513],[120.955783,14.684928],[120.955794,14.684898],[120.955787,14.684844],[120.955751,14.684827],[120.955704,14.68478],[120.955645,14.68477],[120.955594,14.684796],[120.955542,14.68484],[120.9555,14.684909],[120.955426,14.684989],[120.955401,14.685042],[120.955339,14.685107],[120.955309,14.685189],[120.95526,14.685254],[120.955182,14.685235],[120.955149,14.685232],[120.955121,14.685201],[120.955024,14.685148],[120.954982,14.685102],[120.954953,14.685096],[120.954922,14.685062],[120.954798,14.684992],[120.954736,14.68492],[120.954676,14.684897],[120.954555,14.684794],[120.954424,14.684746],[120.954402,14.684729],[120.954346,14.684634],[120.954267,14.68459],[120.954252,14.684571],[120.954095,14.684558],[120.953592,14.684547],[120.953447,14.684528],[120.953467,14.684494],[120.953604,14.684367],[120.953648,14.684302],[120.953767,14.684193],[120.953807,14.684131],[120.953928,14.68402],[120.95398,14.683952],[120.953944,14.683937],[120.95386,14.683927],[120.953417,14.683913],[120.953266,14.683888],[120.953222,14.683845],[120.953171,14.683829],[120.953138,14.683778],[120.95308,14.683741],[120.952939,14.683598],[120.952906,14.683586],[120.952895,14.683554],[120.952862,14.683514],[120.952804,14.683487],[120.952751,14.683429],[120.952711,14.683412],[120.9527,14.68338],[120.952667,14.68334],[120.952602,14.683307],[120.952457,14.683175],[120.952317,14.683082],[120.952216,14.682979],[120.952148,14.682941],[120.952104,14.68288],[120.952102,14.682815],[120.952191,14.682737],[120.952253,14.682698],[120.952281,14.682646],[120.952411,14.682497],[120.952668,14.682367],[120.952741,14.682271],[120.952783,14.68225],[120.952805,14.682225],[120.952863,14.68221],[120.953036,14.682193],[120.953088,14.682172],[120.953114,14.682089],[120.953161,14.682043],[120.953171,14.682009],[120.953201,14.681986],[120.953238,14.681918],[120.953275,14.681885],[120.953336,14.681853],[120.953584,14.6816],[120.95367,14.681558],[120.953701,14.681532],[120.953731,14.681461],[120.953789,14.681235],[120.953822,14.681167],[120.953828,14.68109],[120.953863,14.680982],[120.953882,14.680795],[120.953912,14.680749],[120.953944,14.680723],[120.95395,14.680698],[120.953987,14.680683],[120.954061,14.68062],[120.954084,14.680517],[120.95411,14.680089],[120.954117,14.679519],[120.95413,14.679264],[120.956413,14.679277]]],[[[120.951449,14.685664],[120.951438,14.685698],[120.951363,14.685778],[120.951333,14.685834],[120.951196,14.685962],[120.951111,14.686076],[120.951063,14.686097],[120.951008,14.686097],[120.95102,14.685982],[120.951072,14.685925],[120.951107,14.685847],[120.951201,14.685752],[120.95121,14.685723],[120.951256,14.685695],[120.951301,14.685622],[120.951381,14.685574],[120.951409,14.685505],[120.95145,14.685473],[120.951478,14.685467],[120.951493,14.685434],[120.951519,14.685427],[120.951551,14.685357],[120.951582,14.685331],[120.951671,14.685187],[120.951719,14.685155],[120.951822,14.685167],[120.951833,14.685199],[120.95181,14.685249],[120.951681,14.685388],[120.951619,14.685483],[120.951575,14.685511],[120.951512,14.685607],[120.951449,14.685664]]]]}},{"type":"Feature","properties":{"codes":["C-1"],"name":"C-1","color":"#ff7f7f"},"geometry":{"type":"MultiPolygon","coordinates":[[[[120.958736,14.681002],[120.958784,14.681038],[120.958801,14.681051],[120.958863,14.681098],[120.958878,14.681108],[120.958947,14.68116],[120.958961,14.681171],[120.959,14.6812],[120.959072,14.681243],[120.959107,14.681264],[120.959293,14.681376],[120.959409,14.681445],[120.959594,14.681557],[120.95964,14.681584],[120.959712,14.681627],[120.959797,14.681678],[120.959975,14.681785],[120.96,14.6818],[120.959871,14.682032],[120.959,14.6836],[120.958236,14.685893],[120.957998,14.685881],[120.957849,14.685832],[120.957609,14.685727],[120.957551,14.685725],[120.957524,14.685737],[120.957473,14.685786],[120.957427,14.68585],[120.957371,14.685956],[120.957352,14.68603],[120.957305,14.686076],[120.957257,14.686175],[120.957175,14.686273],[120.957156,14.686327],[120.957156,14.68638],[120.957055,14.686377],[120.956969,14.686351],[120.956874,14.686394],[120.956844,14.686397],[120.956711,14.686342],[120.956662,14.686338],[120.95662,14.686355],[120.956562,14.686427],[120.956529,14.686437],[120.956477,14.68648],[120.956452,14.686514],[120.956437,14.686565],[120.956298,14.686733],[120.956278,14.686776],[120.956128,14.68692],[120.956058,14.687025],[120.955995,14.687082],[120.955987,14.687109],[120.955954,14.687124],[120.955895,14.687229],[120.955808,14.68732],[120.955756,14.687475],[120.955696,14.68752],[120.955668,14.687575],[120.955635,14.687598],[120.955533,14.687596],[120.955489,14.687614],[120.955476,14.687647],[120.955475,14.687724],[120.955509,14.68779],[120.955511,14.687817],[120.955485,14.68786],[120.955381,14.68797],[120.955346,14.688029],[120.955259,14.688104],[120.955223,14.688154],[120.955135,14.688161],[120.95507,14.688189],[120.954986,14.688303],[120.954907,14.688322],[120.954844,14.688358],[120.954752,14.688368],[120.954709,14.688385],[120.9547,14.688427],[120.954714,14.688471],[120.954765,14.688526],[120.954804,14.688544],[120.954723,14.688626],[120.9547,14.688686],[120.954697,14.688733],[120.954728,14.688853],[120.954735,14.689125],[120.95474,14.689169],[120.954766,14.689229],[120.954775,14.689305],[120.954806,14.689764],[120.954826,14.689851],[120.95486,14.689893],[120.954862,14.689956],[120.954351,14.689959],[120.954329,14.689969],[120.954226,14.689977],[120.954145,14.690005],[120.954081,14.69001],[120.954049,14.690027],[120.953629,14.690112],[120.953467,14.690083],[120.953427,14.690063],[120.953409,14.690038],[120.953342,14.690028],[120.953216,14.690101],[120.953173,14.690198],[120.953061,14.690313],[120.952854,14.69034],[120.952863,14.690161],[120.952889,14.690143],[120.952918,14.690066],[120.953013,14.689951],[120.953045,14.68988],[120.953086,14.689847],[120.953133,14.689783],[120.953172,14.689769],[120.953218,14.689773],[120.953285,14.689817],[120.953365,14.689832],[120.953392,14.689848],[120.953436,14.689837],[120.953478,14.689796],[120.95351,14.68971],[120.953583,14.689628],[120.953588,14.689591],[120.953567,14.689553],[120.953515,14.689514],[120.953479,14.689468],[120.953472,14.689413],[120.953481,14.689383],[120.953525,14.68932],[120.953603,14.689239],[120.953619,14.6892],[120.953708,14.689116],[120.953741,14.689019],[120.953761,14.68899],[120.953861,14.688897],[120.953898,14.688848],[120.953916,14.688801],[120.953947,14.688775],[120.953942,14.688743],[120.953843,14.688649],[120.953836,14.688627],[120.953869,14.68862],[120.953947,14.688557],[120.953984,14.688514],[120.953997,14.688479],[120.954059,14.688424],[120.954096,14.688359],[120.954142,14.688316],[120.95426,14.688263],[120.95435,14.688246],[120.954335,14.68817],[120.954342,14.688108],[120.954359,14.688059],[120.954405,14.688016],[120.954424,14.68797],[120.954479,14.687919],[120.954553,14.687885],[120.954579,14.687791],[120.954635,14.687735],[120.954702,14.687633],[120.95478,14.687562],[120.954791,14.687532],[120.954835,14.687508],[120.954861,14.687436],[120.954886,14.687421],[120.954997,14.687421],[120.955019,14.687372],[120.955069,14.687342],[120.955095,14.687295],[120.955132,14.687264],[120.955143,14.687233],[120.955141,14.687198],[120.955112,14.687161],[120.955105,14.687116],[120.955105,14.687082],[120.955132,14.687019],[120.955236,14.686918],[120.955271,14.686861],[120.955375,14.686766],[120.955395,14.686724],[120.955496,14.68661],[120.955573,14.686551],[120.955636,14.686539],[120.955743,14.686576],[120.955935,14.68658],[120.956023,14.686653],[120.956062,14.686658],[120.956106,14.686637],[120.956172,14.686556],[120.956182,14.686523],[120.956178,14.686397],[120.956185,14.686379],[120.95598,14.686266],[120.955912,14.686199],[120.955864,14.686172],[120.955861,14.68614],[120.955927,14.686074],[120.955975,14.685999],[120.956001,14.685993],[120.956114,14.686],[120.956152,14.68598],[120.956207,14.685913],[120.956178,14.685855],[120.95621,14.685837],[120.956223,14.685785],[120.956293,14.685701],[120.95632,14.685644],[120.956353,14.685618],[120.956468,14.685581],[120.956479,14.685542],[120.956523,14.685508],[120.956526,14.685387],[120.956536,14.685364],[120.956598,14.685322],[120.956613,14.685301],[120.956642,14.685195],[120.956673,14.685165],[120.95668,14.685137],[120.956732,14.685069],[120.956744,14.685019],[120.956761,14.685007],[120.956775,14.684681],[120.956789,14.684646],[120.956837,14.684586],[120.956874,14.684483],[120.956862,14.684178],[120.957194,14.684181],[120.957345,14.68419],[120.957425,14.684205],[120.957473,14.684227],[120.95752,14.684295],[120.95759,14.684328],[120.957629,14.68437],[120.957756,14.684443],[120.957818,14.684501],[120.957859,14.684512],[120.957881,14.684502],[120.957918,14.684445],[120.957983,14.684389],[120.958023,14.684313],[120.958113,14.684225],[120.958122,14.684197],[120.958159,14.68418],[120.958285,14.684044],[120.958352,14.684013],[120.95836,14.683987],[120.958394,14.683953],[120.958397,14.683905],[120.95846,14.683898],[120.958491,14.683866],[120.958531,14.683758],[120.958579,14.683698],[120.958676,14.683513],[120.958736,14.683356],[120.958734,14.683309],[120.958713,14.683248],[120.958705,14.682808],[120.958719,14.681],[120.958736,14.681002]]]]}},{"type":"Feature","properties":{"codes":["C-2"],"name":"C-2","color":"#ff0000"},"geometry":{"type":"MultiPolygon","coordinates":[[[[120.957609,14.685727],[120.957849,14.685832],[120.957998,14.685881],[120.958236,14.685893],[120.958,14.6866],[120.957535,14.686925],[120.957512,14.686886],[120.957495,14.686784],[120.957451,14.686731],[120.957445,14.686664],[120.957424,14.686603],[120.957365,14.686538],[120.957292,14.686483],[120.957237,14.686459],[120.957156,14.68638],[120.957156,14.686327],[120.957175,14.686273],[120.957257,14.686175],[120.957305,14.686076],[120.957352,14.68603],[120.957371,14.685956],[120.957427,14.68585],[120.957473,14.685786],[120.957524,14.685737],[120.957551,14.685725],[120.957609,14.685727]]]]}},{"type":"Feature","properties":{"codes":["INSTITUTIONAL"],"name":"Institutional","color":"#0000ff"},"geometry":{"type":"MultiPolygon","coordinates":[[[[120.95782,14.683613],[120.958061,14.683636],[120.95809,14.683669],[120.958129,14.683684],[120.958168,14.683727],[120.958211,14.683745],[120.958264,14.683803],[120.958316,14.683826],[120.958397,14.683905],[120.958394,14.683953],[120.95836,14.683987],[120.958352,14.684013],[120.958285,14.684044],[120.958159,14.68418],[120.958122,14.684197],[120.958113,14.684225],[120.958023,14.684313],[120.957983,14.684389],[120.957918,14.684445],[120.957881,14.684502],[120.957859,14.684512],[120.957818,14.684501],[120.957756,14.684443],[120.957629,14.68437],[120.95759,14.684328],[120.95752,14.684295],[120.957473,14.684227],[120.957425,14.684205],[120.957345,14.68419],[120.957194,14.684181],[120.956862,14.684178],[120.956847,14.683929],[120.956827,14.683818],[120.956828,14.683585],[120.95782,14.683613]]],[[[120.955884,14.685689],[120.955943,14.685758],[120.955869,14.685818],[120.955858,14.685851],[120.955802,14.685912],[120.955771,14.685967],[120.955764,14.686031],[120.955782,14.686084],[120.955861,14.68614],[120.955864,14.686172],[120.955912,14.686199],[120.95598,14.686266],[120.956185,14.686379],[120.956178,14.686397],[120.956182,14.686523],[120.956172,14.686556],[120.956106,14.686637],[120.956062,14.686658],[120.956023,14.686653],[120.955935,14.68658],[120.955915,14.686513],[120.955868,14.686455],[120.955685,14.686342],[120.955639,14.686294],[120.955592,14.686276],[120.955541,14.68622],[120.955527,14.68617],[120.955531,14.686119],[120.95555,14.686091],[120.955577,14.686076],[120.955599,14.686008],[120.955588,14.685954],[120.955571,14.685929],[120.955498,14.685867],[120.955407,14.685818],[120.95535,14.685757],[120.955316,14.685746],[120.955216,14.685662],[120.955177,14.685648],[120.955152,14.685619],[120.955118,14.685609],[120.955099,14.685583],[120.955036,14.685539],[120.955022,14.685496],[120.955034,14.685425],[120.955078,14.685382],[120.955101,14.685329],[120.955182,14.685235],[120.95526,14.685254],[120.955313,14.685303],[120.955397,14.685332],[120.955481,14.685427],[120.95559,14.685488],[120.955719,14.685594],[120.955884,14.685689]]],[[[120.954169,14.686843],[120.954202,14.686882],[120.954285,14.686925],[120.954345,14.686983],[120.954384,14.686998],[120.954438,14.687052],[120.954517,14.687097],[120.954597,14.687176],[120.954633,14.687181],[120.954632,14.687235],[120.954614,14.687285],[120.954528,14.687369],[120.954458,14.687473],[120.95438,14.687544],[120.954368,14.687579],[120.954337,14.687616],[120.954289,14.687657],[120.954252,14.687675],[120.954223,14.687671],[120.954153,14.68762],[120.954123,14.687613],[120.954084,14.687569],[120.954045,14.687554],[120.954002,14.687509],[120.953902,14.687453],[120.953869,14.687414],[120.95383,14.6874],[120.95377,14.687342],[120.95368,14.687294],[120.953611,14.687229],[120.953637,14.687118],[120.953683,14.687068],[120.953757,14.686946],[120.953803,14.686904],[120.953874,14.686781],[120.953936,14.686744],[120.954028,14.686759],[120.954084,14.686783],[120.95413,14.686828],[120.954169,14.686843]]],[[[120.954862,14.689956],[120.955311,14.690324],[120.955322,14.690305],[120.95531,14.690347],[120.95528,14.690449],[120.955274,14.690469],[120.955217,14.690663],[120.955215,14.69067],[120.955053,14.691218],[120.955053,14.69122],[120.955,14.6914],[120.954957,14.691465],[120.95495,14.691475],[120.953,14.6944],[120.952319,14.693923],[120.952301,14.693911],[120.95231,14.693912],[120.95234,14.691115],[120.952364,14.69047],[120.952568,14.690411],[120.952804,14.690373],[120.952854,14.69034],[120.953061,14.690313],[120.953173,14.690198],[120.953216,14.690101],[120.953342,14.690028],[120.953409,14.690038],[120.953427,14.690063],[120.953467,14.690083],[120.953629,14.690112],[120.954049,14.690027],[120.954081,14.69001],[120.954145,14.690005],[120.954226,14.689977],[120.954329,14.689969],[120.954351,14.689959],[120.954862,14.689956]]]]}}]}
