{"type":"FeatureCollection","features":[{"type":"Feature","properties":{"codes":["R-1"],"name":"R-1","color":"#ffffdb"},"geometry":{"type":"MultiPolygon","coordinates":[[[[120.974805,14.661278],[120.974941,14.661224],[120.974969,14.661212],[120.975,14.6612],[120.975005,14.661203],[120.975027,14.661215],[120.975056,14.661231],[120.975263,14.661345],[120.975315,14.661373],[120.975596,14.661528],[120.975613,14.661537],[120.977,14.6623],[120.977581,14.661661],[120.977602,14.661638],[120.977792,14.661429],[120.977875,14.661337],[120.977994,14.661207],[120.978,14.6612],[120.97857,14.661229],[120.978646,14.661232],[120.978704,14.661254],[120.978698,14.661489],[120.978679,14.661551],[120.978646,14.661594],[120.978613,14.661804],[120.97861,14.662109],[120.978629,14.662234],[120.97861,14.662711],[120.978629,14.66281],[120.978634,14.663068],[120.978657,14.663144],[120.978645,14.663235],[120.978614,14.663283],[120.978652,14.663327],[120.978679,14.663399],[120.978688,14.663617],[120.978709,14.663684],[120.978712,14.663845],[120.978736,14.663964],[120.978741,14.664244],[120.978764,14.664332],[120.978758,14.664429],[120.978734,14.664439],[120.978693,14.664462],[120.978605,14.664467],[120.978398,14.664447],[120.978366,14.664728],[120.978355,14.664741],[120.978317,14.66473],[120.9783,14.66474],[120.978285,14.664799],[120.978232,14.664856],[120.978223,14.66493],[120.978195,14.664951],[120.978145,14.664956],[120.978139,14.664979],[120.978082,14.664953],[120.977613,14.664914],[120.977558,14.66489],[120.97747,14.664882],[120.977453,14.664864],[120.977324,14.664852],[120.977299,14.66483],[120.977233,14.664822],[120.977211,14.664801],[120.977144,14.664793],[120.977132,14.664775],[120.977029,14.664763],[120.977016,14.664745],[120.97685,14.664704],[120.976829,14.664683],[120.976762,14.664675],[120.97674,14.664653],[120.976681,14.664647],[120.97661,14.664602],[120.976445,14.664559],[120.976426,14.664539],[120.976323,14.664528],[120.976311,14.664509],[120.976244,14.664502],[120.976222,14.66448],[120.976156,14.664472],[120.976118,14.664447],[120.976022,14.664444],[120.976019,14.664396],[120.975975,14.664347],[120.975948,14.664081],[120.975696,14.664018],[120.975595,14.663958],[120.975245,14.663858],[120.975151,14.663805],[120.975123,14.663809],[120.975058,14.663864],[120.974964,14.663886],[120.974922,14.663915],[120.974739,14.663945],[120.974578,14.664025],[120.974482,14.664029],[120.974418,14.664023],[120.974377,14.663996],[120.974267,14.663966],[120.974251,14.663946],[120.974148,14.663935],[120.974131,14.663915],[120.974021,14.663885],[120.973977,14.663854],[120.973911,14.663847],[120.973889,14.663827],[120.973687,14.663793],[120.973557,14.663722],[120.973,14.663701],[120.973,14.662],[120.973775,14.66169],[120.973788,14.661685],[120.973898,14.661641],[120.973945,14.661622],[120.974109,14.661556],[120.974132,14.661547],[120.974242,14.661503],[120.974293,14.661483],[120.974394,14.661442],[120.974495,14.661402],[120.974595,14.661362],[120.974655,14.661338],[120.974726,14.66131],[120.974791,14.661284],[120.974805,14.661278]]],[[[120.987034,14.662217],[120.987065,14.662232],[120.987084,14.662242],[120.987124,14.662262],[120.987142,14.662271],[120.987182,14.662291],[120.9872,14.6623],[120.987241,14.662321],[120.987259,14.662329],[120.9873,14.66235],[120.987317,14.662358],[120.987359,14.662379],[120.987375,14.662388],[120.987418,14.662409],[120.987433,14.662417],[120.987476,14.662438],[120.987492,14.662446],[120.987535,14.662468],[120.98755,14.662475],[120.987611,14.662505],[120.987699,14.66255],[120.988,14.6627],[120.988053,14.662745],[120.98808,14.662768],[120.988225,14.662891],[120.988257,14.662918],[120.98843,14.663065],[120.988461,14.663092],[120.988635,14.66324],[120.988666,14.663266],[120.98884,14.663414],[120.98887,14.66344],[120.989045,14.663588],[120.989075,14.663613],[120.98925,14.663763],[120.989279,14.663787],[120.989477,14.663956],[120.98951,14.663983],[120.989788,14.66422],[120.989758,14.664384],[120.989724,14.664431],[120.989674,14.664457],[120.989664,14.664496],[120.989622,14.664534],[120.989625,14.66462],[120.989588,14.664652],[120.989607,14.664767],[120.989586,14.664845],[120.989613,14.664867],[120.989624,14.664916],[120.989633,14.665136],[120.989624,14.665524],[120.989599,14.665602],[120.989623,14.665647],[120.989631,14.665974],[120.989654,14.666029],[120.989648,14.666078],[120.989631,14.666085],[120.989646,14.666115],[120.989629,14.666162],[120.989621,14.666409],[120.989648,14.666714],[120.989617,14.66689],[120.989622,14.666935],[120.98964,14.666955],[120.989645,14.667052],[120.989638,14.667111],[120.989614,14.667145],[120.989448,14.667138],[120.98943,14.66712],[120.989327,14.667108],[120.989298,14.667086],[120.98921,14.667078],[120.98918,14.667056],[120.989092,14.667049],[120.989063,14.667027],[120.988974,14.667019],[120.988945,14.666997],[120.988857,14.666989],[120.988844,14.666971],[120.988778,14.666963],[120.988739,14.666938],[120.988506,14.6669],[120.988442,14.666858],[120.988414,14.666817],[120.98841,14.666675],[120.988434,14.665857],[120.988386,14.665685],[120.988335,14.665616],[120.988333,14.665498],[120.988416,14.665402],[120.988478,14.665295],[120.988501,14.665184],[120.988496,14.66513],[120.988447,14.665033],[120.988352,14.664957],[120.988227,14.664923],[120.988154,14.664923],[120.988039,14.664938],[120.987969,14.664975],[120.987913,14.665103],[120.987906,14.665259],[120.987956,14.665373],[120.988033,14.665445],[120.988038,14.665495],[120.987938,14.665588],[120.987869,14.665612],[120.987813,14.665655],[120.987458,14.66568],[120.987439,14.66596],[120.987416,14.665994],[120.987408,14.666058],[120.987388,14.666076],[120.987349,14.666252],[120.987323,14.666264],[120.987163,14.666246],[120.98705,14.666181],[120.986954,14.666158],[120.98685,14.666093],[120.986798,14.666082],[120.986784,14.66606],[120.98674,14.666053],[120.986725,14.666031],[120.986681,14.666023],[120.986672,14.666005],[120.986602,14.665996],[120.986507,14.665939],[120.986409,14.665913],[120.986353,14.665865],[120.986255,14.665849],[120.986149,14.665793],[120.986033,14.665767],[120.985967,14.665716],[120.985785,14.665662],[120.985609,14.665566],[120.985444,14.665559],[120.985448,14.665279],[120.985469,14.665181],[120.985458,14.66477],[120.98547,14.664641],[120.98541,14.664567],[120.985394,14.664518],[120.985443,14.664465],[120.98546,14.664334],[120.985477,14.664324],[120.985456,14.664189],[120.985463,14.664028],[120.98548,14.663976],[120.985474,14.663465],[120.985504,14.663406],[120.985548,14.66337],[120.985564,14.663315],[120.985612,14.663265],[120.985618,14.66324],[120.985707,14.663183],[120.985759,14.663083],[120.98588,14.662932],[120.985898,14.662798],[120.985883,14.662636],[120.985933,14.662588],[120.98611,14.662557],[120.986597,14.662558],[120.98677,14.662572],[120.986865,14.662458],[120.986911,14.662251],[120.987007,14.662216],[120.987034,14.662217]],[[120.985952,14.664572],[120.985926,14.664615],[120.985923,14.664731],[120.985947,14.664735],[120.985955,14.664778],[120.986,14.664793],[120.986025,14.664836],[120.986099,14.664847],[120.986246,14.664838],[120.986339,14.664785],[120.986391,14.664719],[120.986426,14.664506],[120.986306,14.66448],[120.986262,14.664454],[120.986013,14.664484],[120.985958,14.664518],[120.985952,14.664572]]],[[[120.983918,14.668555],[120.983821,14.668554],[120.983757,14.668503],[120.983707,14.668499],[120.983711,14.668404],[120.983764,14.668347],[120.983771,14.668306],[120.983805,14.668263],[120.983857,14.66824],[120.983975,14.668223],[120.98403,14.66824],[120.984063,14.668273],[120.98405,14.668412],[120.984006,14.668453],[120.983998,14.668494],[120.983964,14.668537],[120.983918,14.668555]]]]}},{"type":"Feature","properties":{"codes":["R-2-BASIC"],"name":"R-2 Basic","color":"#ffffb4"},"geometry":{"type":"MultiPolygon","coordinates":[[[[120.985423,14.661427],[120.985457,14.661429],[120.985477,14.661438],[120.985511,14.661455],[120.985535,14.661468],[120.985569,14.661484],[120.985594,14.661497],[120.985627,14.661514],[120.985653,14.661527],[120.985685,14.661543],[120.985712,14.661556],[120.985744,14.661572],[120.985771,14.661585],[120.985802,14.661601],[120.98583,14.661615],[120.98586,14.66163],[120.985888,14.661644],[120.985919,14.661659],[120.985947,14.661674],[120.985977,14.661688],[120.986006,14.661703],[120.986035,14.661718],[120.986065,14.661732],[120.986093,14.661747],[120.986124,14.661762],[120.986152,14.661776],[120.986182,14.661791],[120.98621,14.661805],[120.986241,14.661821],[120.986268,14.661834],[120.9863,14.66185],[120.986326,14.661863],[120.986359,14.661879],[120.986385,14.661892],[120.986418,14.661909],[120.986443,14.661921],[120.986477,14.661938],[120.986501,14.661951],[120.986535,14.661968],[120.986559,14.66198],[120.986594,14.661997],[120.986618,14.662009],[120.986653,14.662027],[120.986676,14.662038],[120.986712,14.662056],[120.986734,14.662067],[120.986771,14.662085],[120.986824,14.662112],[120.986951,14.662176],[120.987034,14.662217],[120.987007,14.662216],[120.986911,14.662251],[120.986865,14.662458],[120.98677,14.662572],[120.986597,14.662558],[120.98611,14.662557],[120.985933,14.662588],[120.985883,14.662636],[120.985867,14.66262],[120.985789,14.662608],[120.9855,14.662604],[120.985427,14.662521],[120.985381,14.662329],[120.985361,14.662311],[120.985354,14.662246],[120.985334,14.662221],[120.985354,14.662113],[120.985382,14.662072],[120.985388,14.661943],[120.985384,14.661872],[120.985337,14.661756],[120.985332,14.661627],[120.98535,14.661534],[120.985423,14.661427]]],[[[120.986025,14.664836],[120.986,14.664793],[120.985955,14.664778],[120.985947,14.664735],[120.985923,14.664731],[120.985926,14.664615],[120.985952,14.664572],[120.985958,14.664518],[120.986013,14.664484],[120.986262,14.664454],[120.986306,14.66448],[120.986426,14.664506],[120.986391,14.664719],[120.986339,14.664785],[120.986246,14.664838],[120.986099,14.664847],[120.986025,14.664836]]],[[[120.986,14.6688],[120.985271,14.669493],[120.98503,14.669722],[120.984674,14.67006],[120.984,14.6707],[120.983735,14.6707],[120.983333,14.6707],[120.983332,14.670167],[120.983311,14.670104],[120.983304,14.669996],[120.983286,14.669964],[120.983278,14.669638],[120.983255,14.669571],[120.98328,14.66944],[120.983288,14.669145],[120.983288,14.668612],[120.983266,14.668526],[120.983271,14.668436],[120.983432,14.668335],[120.983523,14.668245],[120.983576,14.668152],[120.983641,14.668079],[120.983769,14.667967],[120.983819,14.66795],[120.983855,14.667862],[120.984193,14.667512],[120.984285,14.667378],[120.984396,14.667282],[120.984474,14.667256],[120.984552,14.667199],[120.984589,14.667128],[120.984797,14.666932],[120.984829,14.666866],[120.984896,14.666809],[120.984905,14.66677],[120.984957,14.666749],[120.984967,14.66671],[120.985034,14.666653],[120.985067,14.666581],[120.985134,14.666525],[120.985174,14.666442],[120.985235,14.666395],[120.985288,14.66639],[120.985555,14.666467],[120.985634,14.666511],[120.985672,14.666551],[120.985863,14.666604],[120.985898,14.66665],[120.985977,14.666659],[120.986103,14.666741],[120.986224,14.66678],[120.986259,14.666818],[120.986355,14.666835],[120.986429,14.666911],[120.986542,14.666922],[120.986584,14.66695],[120.986716,14.666979],[120.986731,14.666999],[120.986775,14.667007],[120.986789,14.667029],[120.986841,14.66704],[120.986947,14.667105],[120.987078,14.667133],[120.987109,14.667169],[120.987188,14.667186],[120.987305,14.667252],[120.987524,14.667286],[120.987619,14.667351],[120.987683,14.667361],[120.987795,14.667423],[120.987975,14.667476],[120.988102,14.667551],[120.988183,14.667566],[120.98826,14.66761],[120.988503,14.667617],[120.988527,14.6676],[120.988641,14.667584],[120.988715,14.667542],[120.988771,14.667539],[120.988813,14.667561],[120.988852,14.667647],[120.988897,14.667662],[120.988957,14.667727],[120.989001,14.667751],[120.989409,14.667817],[120.989491,14.667884],[120.989775,14.667926],[120.989791,14.667944],[120.989879,14.667952],[120.989934,14.667978],[120.990078,14.667981],[120.990354,14.668015],[120.990394,14.668044],[120.99049,14.66807],[120.990568,14.668141],[120.990675,14.668162],[120.990728,14.668207],[120.990855,14.668251],[120.991069,14.668414],[120.991245,14.668471],[120.991292,14.668561],[120.991333,14.668569],[120.991395,14.668612],[120.991498,14.668628],[120.991588,14.668679],[120.991647,14.668686],[120.991676,14.668731],[120.991836,14.668771],[120.991984,14.668845],[120.992694,14.668943],[120.993138,14.668922],[120.993183,14.668908],[120.993195,14.668807],[120.993184,14.668752],[120.993137,14.668696],[120.993248,14.6686],[120.99331,14.668694],[120.993431,14.668745],[120.993946,14.668791],[120.993991,14.668802],[120.99399,14.668818],[120.993907,14.668839],[120.993889,14.668822],[120.993734,14.668814],[120.993641,14.668788],[120.993409,14.668795],[120.993364,14.66882],[120.993345,14.66887],[120.993341,14.668949],[120.993357,14.669008],[120.993498,14.669113],[120.993619,14.66913],[120.993818,14.669127],[120.993879,14.669106],[120.994034,14.6691],[120.994075,14.669073],[120.994195,14.669049],[120.994294,14.669079],[120.994367,14.669149],[120.994415,14.669166],[120.994498,14.669145],[120.994594,14.66906],[120.994696,14.669054],[120.994843,14.669216],[120.994957,14.669275],[120.99508,14.669285],[120.995136,14.669258],[120.995194,14.669316],[120.995188,14.669438],[120.99512,14.66954],[120.995103,14.669609],[120.995103,14.669652],[120.995135,14.669712],[120.995268,14.669751],[120.995345,14.669802],[120.995567,14.669899],[120.995669,14.669977],[120.995708,14.669982],[120.995722,14.670004],[120.995774,14.670015],[120.995904,14.670092],[120.995968,14.670101],[120.996021,14.670152],[120.99606,14.670157],[120.996074,14.670179],[120.996118,14.670187],[120.996133,14.670208],[120.996177,14.670216],[120.996192,14.670238],[120.996236,14.670245],[120.99625,14.670267],[120.996294,14.670274],[120.996309,14.670296],[120.996353,14.670303],[120.996368,14.670325],[120.996412,14.670333],[120.996426,14.670354],[120.996478,14.670366],[120.996608,14.670442],[120.996674,14.670452],[120.996758,14.670497],[120.996818,14.67048],[120.99684,14.670424],[120.996862,14.67041],[120.99687,14.670367],[120.996892,14.670353],[120.9969,14.67031],[120.996922,14.670296],[120.996941,14.670231],[120.996981,14.670178],[120.997018,14.670157],[120.997136,14.670136],[120.997281,14.670141],[120.997364,14.670163],[120.997397,14.670196],[120.997319,14.670384],[120.997245,14.670473],[120.997207,14.670566],[120.997161,14.670608],[120.997039,14.670864],[120.997009,14.670892],[120.997001,14.670933],[120.996934,14.671017],[120.996917,14.671078],[120.996927,14.671144],[120.996982,14.671189],[120.997129,14.671257],[120.99757,14.671354],[120.99768,14.671393],[120.997938,14.671388],[120.9981,14.671407],[120.998159,14.671433],[120.998236,14.671503],[120.998268,14.671595],[120.998251,14.671647],[120.998188,14.671707],[120.997985,14.671754],[120.997905,14.671804],[120.997864,14.671809],[120.997844,14.671832],[120.997709,14.671883],[120.997651,14.671988],[120.997641,14.67212],[120.997607,14.672185],[120.99755,14.672202],[120.997413,14.672201],[120.997301,14.67215],[120.997246,14.672146],[120.997203,14.672215],[120.997169,14.672518],[120.996666,14.672539],[120.99652,14.672564],[120.996164,14.672574],[120.996067,14.672609],[120.995999,14.672736],[120.995981,14.67313],[120.995961,14.673236],[120.995933,14.673255],[120.99589,14.67336],[120.99587,14.673373],[120.995847,14.673459],[120.99578,14.673523],[120.995757,14.673612],[120.99569,14.673714],[120.995678,14.673764],[120.995656,14.673778],[120.995648,14.673821],[120.995626,14.673835],[120.99562,14.673873],[120.99557,14.673926],[120.995484,14.674194],[120.995398,14.674346],[120.995351,14.674708],[120.995016,14.674557],[120.994975,14.674539],[120.994,14.6741],[120.992429,14.673157],[120.992397,14.673138],[120.992278,14.673067],[120.992252,14.673051],[120.99208,14.672948],[120.992005,14.672903],[120.992,14.6729],[120.991741,14.672511],[120.991732,14.672498],[120.99168,14.672419],[120.991671,14.672406],[120.99162,14.67233],[120.991614,14.672321],[120.991562,14.672242],[120.991557,14.672235],[120.991503,14.672155],[120.991499,14.672149],[120.991445,14.672067],[120.991442,14.672063],[120.991386,14.671979],[120.991385,14.671977],[120.991324,14.671886],[120.991313,14.67187],[120.991252,14.671778],[120.991228,14.671741],[120.991196,14.671694],[120.99117,14.671656],[120.991138,14.671607],[120.991113,14.67157],[120.991079,14.671519],[120.991056,14.671484],[120.991,14.6714],[120.990998,14.671399],[120.990929,14.671347],[120.990889,14.671317],[120.990814,14.67126],[120.99077,14.671227],[120.990699,14.671174],[120.990651,14.671138],[120.990583,14.671088],[120.990532,14.671049],[120.990468,14.671001],[120.990413,14.670959],[120.990353,14.670915],[120.990293,14.67087],[120.990238,14.670829],[120.990174,14.670781],[120.990123,14.670742],[120.990055,14.670691],[120.990008,14.670656],[120.989936,14.670602],[120.989893,14.670569],[120.989817,14.670513],[120.989777,14.670483],[120.989698,14.670423],[120.989662,14.670397],[120.989579,14.670334],[120.989547,14.67031],[120.98946,14.670245],[120.989432,14.670224],[120.989341,14.670156],[120.989317,14.670138],[120.989222,14.670066],[120.989201,14.670051],[120.989,14.6699],[120.988821,14.669801],[120.988791,14.669785],[120.988501,14.669625],[120.988495,14.669622],[120.988258,14.669492],[120.988252,14.669489],[120.987993,14.669346],[120.98798,14.669339],[120.987,14.6688],[120.986,14.6688]],[[120.994011,14.671226],[120.994049,14.671202],[120.994138,14.671195],[120.994151,14.671179],[120.994223,14.671201],[120.994349,14.671283],[120.994487,14.671284],[120.994509,14.671263],[120.994576,14.671246],[120.994654,14.671184],[120.994677,14.671114],[120.994677,14.671033],[120.99463,14.671002],[120.994614,14.670903],[120.994549,14.670788],[120.994517,14.670661],[120.99444,14.670606],[120.994374,14.670598],[120.994335,14.670573],[120.994262,14.670572],[120.994195,14.670608],[120.994018,14.670656],[120.993992,14.670679],[120.993837,14.670714],[120.993816,14.670733],[120.993676,14.670748],[120.993624,14.670784],[120.99353,14.670804],[120.993498,14.670842],[120.993371,14.670902],[120.993216,14.670916],[120.993148,14.671022],[120.993143,14.671163],[120.993218,14.671234],[120.993281,14.671254],[120.993317,14.671297],[120.993369,14.671312],[120.993416,14.671363],[120.993458,14.671372],[120.993524,14.671437],[120.993634,14.671454],[120.99369,14.671444],[120.993724,14.67138],[120.993824,14.671291],[120.993872,14.671281],[120.993952,14.671231],[120.994011,14.671226]],[[120.989828,14.669381],[120.989864,14.669252],[120.989888,14.669225],[120.989896,14.669161],[120.989914,14.669148],[120.989926,14.669057],[120.989954,14.669009],[120.990043,14.668961],[120.990239,14.668936],[120.990272,14.668882],[120.990282,14.668793],[120.990306,14.668786],[120.990303,14.668712],[120.990271,14.668664],[120.990144,14.668625],[120.990065,14.668556],[120.990023,14.668324],[120.989992,14.668319],[120.989901,14.668252],[120.989678,14.668203],[120.98963,14.668179],[120.989553,14.668177],[120.989492,14.668198],[120.989441,14.668294],[120.989373,14.668355],[120.989361,14.668396],[120.989293,14.668424],[120.989174,14.668346],[120.988858,14.6682],[120.988794,14.668151],[120.988607,14.668122],[120.988537,14.668145],[120.988477,14.668198],[120.988419,14.66831],[120.988334,14.668568],[120.988359,14.668574],[120.988407,14.668649],[120.988465,14.668659],[120.988513,14.668704],[120.988629,14.668741],[120.988672,14.668802],[120.988744,14.668848],[120.988873,14.66886],[120.988972,14.668839],[120.989006,14.668796],[120.989014,14.668757],[120.989071,14.66873],[120.98912,14.668645],[120.989205,14.668565],[120.989311,14.668512],[120.989388,14.668513],[120.989471,14.668664],[120.989483,14.669229],[120.989506,14.669321],[120.989544,14.669353],[120.989699,14.669387],[120.989733,14.66941],[120.989785,14.669413],[120.989828,14.669381]],[[120.983771,14.668306],[120.983764,14.668347],[120.983711,14.668404],[120.983707,14.668499],[120.983757,14.668503],[120.983821,14.668554],[120.983918,14.668555],[120.983964,14.668537],[120.983998,14.668494],[120.984006,14.668453],[120.98405,14.668412],[120.984063,14.668273],[120.98403,14.66824],[120.983975,14.668223],[120.983857,14.66824],[120.983805,14.668263],[120.983771,14.668306]]],[[[120.997199,14.66882],[120.998,14.6691],[120.998038,14.669106],[120.99804,14.669106],[120.998622,14.669193],[120.998659,14.669199],[120.998845,14.669227],[120.998936,14.66924],[120.999451,14.669318],[120.999495,14.669324],[120.999628,14.669344],[120.999745,14.669362],[120.99988,14.669382],[121.0,14.6694],[121.0,14.669597],[121.0,14.6705],[120.999991,14.670516],[120.999975,14.670546],[120.999952,14.670586],[120.999906,14.670544],[120.999847,14.670524],[120.999775,14.670392],[120.999727,14.670351],[120.999713,14.6703],[120.999669,14.670264],[120.999659,14.670225],[120.999549,14.670168],[120.999135,14.670121],[120.999091,14.670098],[120.999024,14.67009],[120.99901,14.670072],[120.998557,14.670007],[120.998386,14.669955],[120.997547,14.6699],[120.997538,14.669887],[120.997427,14.669879],[120.997383,14.669853],[120.997328,14.669849],[120.997295,14.669824],[120.997229,14.669816],[120.997207,14.669794],[120.997141,14.669787],[120.997135,14.669763],[120.99714,14.669645],[120.997192,14.669583],[120.997196,14.669556],[120.997101,14.669456],[120.99708,14.669376],[120.997105,14.66932],[120.997123,14.669134],[120.997168,14.66903],[120.997179,14.668833],[120.997199,14.66882]]]]}},{"type":"Feature","properties":{"codes":["C-2"],"name":"C-2","color":"#ff0000"},"geometry":{"type":"MultiPolygon","coordinates":[[[[120.989946,14.667728],[120.990073,14.667773],[120.990098,14.667807],[120.990109,14.667863],[120.990102,14.667949],[120.990078,14.667981],[120.989934,14.667978],[120.989879,14.667952],[120.989791,14.667944],[120.989775,14.667926],[120.989491,14.667884],[120.989409,14.667817],[120.989001,14.667751],[120.988957,14.667727],[120.988897,14.667662],[120.988852,14.667647],[120.988813,14.667561],[120.988771,14.667539],[120.988715,14.667542],[120.988641,14.667584],[120.988527,14.6676],[120.988503,14.667617],[120.98826,14.66761],[120.988183,14.667566],[120.988102,14.667551],[120.987975,14.667476],[120.987795,14.667423],[120.987683,14.667361],[120.987619,14.667351],[120.987524,14.667286],[120.987305,14.667252],[120.987188,14.667186],[120.987109,14.667169],[120.987078,14.667133],[120.986947,14.667105],[120.986841,14.66704],[120.986789,14.667029],[120.986775,14.667007],[120.986731,14.666999],[120.986716,14.666979],[120.986584,14.66695],[120.986542,14.666922],[120.986429,14.666911],[120.986355,14.666835],[120.986259,14.666818],[120.986224,14.66678],[120.986103,14.666741],[120.985977,14.666659],[120.985898,14.66665],[120.985863,14.666604],[120.985672,14.666551],[120.985634,14.666511],[120.985555,14.666467],[120.985288,14.66639],[120.985296,14.666219],[120.985369,14.666039],[120.98536,14.665859],[120.98538,14.665818],[120.985389,14.665711],[120.985417,14.665675],[120.985444,14.665559],[120.985609,14.665566],[120.985785,14.665662],[120.985967,14.665716],[120.986033,14.665767],[120.986149,14.665793],[120.986255,14.665849],[120.986353,14.665865],[120.986409,14.665913],[120.986507,14.665939],[120.986602,14.665996],[120.986672,14.666005],[120.986681,14.666023],[120.986725,14.666031],[120.98674,14.666053],[120.986784,14.66606],[120.986798,14.666082],[120.98685,14.666093],[120.986954,14.666158],[120.98705,14.666181],[120.987163,14.666246],[120.987323,14.666264],[120.987383,14.66634],[120.987548,14.666438],[120.987574,14.666481],[120.987596,14.666645],[120.987618,14.66667],[120.987651,14.666676],[120.987732,14.666646],[120.98782,14.666571],[120.987877,14.666556],[120.98796,14.666562],[120.988081,14.666633],[120.988169,14.66665],[120.988184,14.666668],[120.988294,14.666676],[120.988327,14.666696],[120.98841,14.666675],[120.988414,14.666817],[120.988442,14.666858],[120.988506,14.6669],[120.988739,14.666938],[120.988778,14.666963],[120.988844,14.666971],[120.988857,14.666989],[120.988945,14.666997],[120.988974,14.667019],[120.989063,14.667027],[120.989092,14.667049],[120.98918,14.667056],[120.98921,14.667078],[120.989298,14.667086],[120.989327,14.667108],[120.98943,14.66712],[120.989448,14.667138],[120.989614,14.667145],[120.989613,14.667448],[120.98964,14.667554],[120.989662,14.667572],[120.989756,14.667587],[120.989785,14.667623],[120.989842,14.667641],[120.989946,14.667728]]],[[[120.992035,14.668518],[120.992057,14.668538],[120.992169,14.668547],[120.992244,14.668598],[120.992391,14.66863],[120.993137,14.668696],[120.993184,14.668752],[120.993195,14.668807],[120.993183,14.668908],[120.993138,14.668922],[120.992694,14.668943],[120.991984,14.668845],[120.991836,14.668771],[120.991676,14.668731],[120.991647,14.668686],[120.991588,14.668679],[120.991498,14.668628],[120.991395,14.668612],[120.991333,14.668569],[120.991292,14.668561],[120.991245,14.668471],[120.991069,14.668414],[120.990855,14.668251],[120.990728,14.668207],[120.990675,14.668162],[120.990568,14.668141],[120.99049,14.66807],[120.990494,14.667973],[120.990543,14.667909],[120.990587,14.667899],[120.990615,14.667921],[120.99067,14.667901],[120.990782,14.667904],[120.990815,14.667922],[120.990832,14.667955],[120.990889,14.667963],[120.990933,14.668006],[120.991006,14.668021],[120.991057,14.668066],[120.991228,14.668113],[120.991448,14.668301],[120.991569,14.668341],[120.991581,14.668361],[120.991629,14.668371],[120.991708,14.668422],[120.991789,14.668437],[120.991844,14.668475],[120.992035,14.668518]]],[[[120.994014,14.668822],[120.994027,14.668863],[120.994119,14.668857],[120.994174,14.668884],[120.994192,14.668929],[120.994195,14.669049],[120.994075,14.669073],[120.994034,14.6691],[120.993879,14.669106],[120.993818,14.669127],[120.993619,14.66913],[120.993498,14.669113],[120.993357,14.669008],[120.993341,14.668949],[120.993345,14.66887],[120.993364,14.66882],[120.993409,14.668795],[120.993641,14.668788],[120.993734,14.668814],[120.993889,14.668822],[120.993907,14.668839],[120.99399,14.668818],[120.994014,14.668822]]],[[[120.994785,14.66895],[120.994951,14.668977],[120.995055,14.669012],[120.995123,14.669054],[120.995159,14.669108],[120.995164,14.669205],[120.995136,14.669258],[120.99508,14.669285],[120.994957,14.669275],[120.994843,14.669216],[120.994696,14.669054],[120.994702,14.669005],[120.994785,14.66895]]],[[[120.999727,14.670351],[120.999775,14.670392],[120.999847,14.670524],[120.999906,14.670544],[120.999952,14.670586],[120.999871,14.670733],[120.999868,14.670734],[120.999598,14.670656],[120.999407,14.670558],[120.999289,14.670524],[120.999271,14.670505],[120.999157,14.670493],[120.999064,14.670424],[120.999012,14.670405],[120.998784,14.670359],[120.998685,14.670315],[120.998485,14.670284],[120.997752,14.670226],[120.997653,14.6702],[120.997498,14.670191],[120.997452,14.670168],[120.997402,14.670173],[120.997397,14.670196],[120.997364,14.670163],[120.997281,14.670141],[120.997136,14.670136],[120.997018,14.670157],[120.996981,14.670178],[120.996941,14.670231],[120.996922,14.670296],[120.9969,14.67031],[120.996892,14.670353],[120.99687,14.670367],[120.996862,14.67041],[120.99684,14.670424],[120.996818,14.67048],[120.996758,14.670497],[120.996674,14.670452],[120.996608,14.670442],[120.996478,14.670366],[120.996426,14.670354],[120.996412,14.670333],[120.996368,14.670325],[120.996353,14.670303],[120.996309,14.670296],[120.996294,14.670274],[120.99625,14.670267],[120.996236,14.670245],[120.996192,14.670238],[120.996177,14.670216],[120.996133,14.670208],[120.996118,14.670187],[120.996074,14.670179],[120.99606,14.670157],[120.996021,14.670152],[120.995968,14.670101],[120.995904,14.670092],[120.995774,14.670015],[120.995722,14.670004],[120.995708,14.669982],[120.995669,14.669977],[120.995567,14.669899],[120.995345,14.669802],[120.995268,14.669751],[120.995135,14.669712],[120.995103,14.669652],[120.995103,14.669609],[120.99512,14.66954],[120.995188,14.669438],[120.995194,14.669316],[120.995261,14.669252],[120.995339,14.66921],[120.995479,14.669209],[120.995501,14.669231],[120.995545,14.669238],[120.99556,14.66926],[120.995604,14.669268],[120.995618,14.669289],[120.995662,14.669297],[120.995677,14.669319],[120.995721,14.669326],[120.995736,14.669348],[120.99578,14.669355],[120.995794,14.669377],[120.99586,14.669395],[120.995943,14.66945],[120.996048,14.669478],[120.996091,14.669521],[120.996165,14.669536],[120.996214,14.669585],[120.99631,14.669622],[120.99635,14.669667],[120.996388,14.669673],[120.996403,14.669694],[120.996454,14.669705],[120.996584,14.669782],[120.996664,14.669799],[120.996693,14.669835],[120.996768,14.669852],[120.996869,14.669928],[120.99695,14.669934],[120.997038,14.669913],[120.997077,14.66986],[120.99711,14.66977],[120.997135,14.669763],[120.997141,14.669787],[120.997207,14.669794],[120.997229,14.669816],[120.997295,14.669824],[120.997328,14.669849],[120.997383,14.669853],[120.997427,14.669879],[120.997538,14.669887],[120.997547,14.6699],[120.998386,14.669955],[120.998557,14.670007],[120.99901,14.670072],[120.999024,14.67009],[120.999091,14.670098],[120.999135,14.670121],[120.999549,14.670168],[120.999659,14.670225],[120.999669,14.670264],[120.999713,14.6703],[120.999727,14.670351]]]]}},{"type":"Feature","properties":{"codes":["C-3"],"name":"C-3","color":"#a80000"},"geometry":{"type":"MultiPolygon","coordinates":[[[[120.9829,14.66056],[120.983,14.6605],[120.98302,14.660507],[120.983073,14.660526],[120.983229,14.66058],[120.983301,14.660605],[120.983335,14.660617],[120.983517,14.660681],[120.983748,14.660762],[120.984031,14.660861],[120.984231,14.660931],[120.984564,14.661047],[120.984706,14.661097],[120.984962,14.661187],[120.985,14.6612],[120.985001,14.6612],[120.985052,14.661226],[120.985072,14.661236],[120.98511,14.661255],[120.985131,14.661266],[120.985168,14.661284],[120.98519,14.661295],[120.985227,14.661313],[120.985249,14.661324],[120.985298,14.661349],[120.98535,14.661375],[120.985457,14.661429],[120.985423,14.661427],[120.98535,14.661534],[120.985332,14.661627],[120.985337,14.661756],[120.985384,14.661872],[120.985388,14.661943],[120.985382,14.662072],[120.985354,14.662113],[120.985334,14.662221],[120.985354,14.662246],[120.985361,14.662311],[120.985381,14.662329],[120.985427,14.662521],[120.9855,14.662604],[120.98545,14.662652],[120.985429,14.662704],[120.98542,14.662872],[120.985437,14.663091],[120.985469,14.66321],[120.985535,14.663259],[120.985612,14.663265],[120.985564,14.663315],[120.985548,14.66337],[120.985504,14.663406],[120.985474,14.663465],[120.98548,14.663976],[120.985463,14.664028],[120.985456,14.664189],[120.985477,14.664324],[120.98546,14.664334],[120.985443,14.664465],[120.985394,14.664518],[120.98541,14.664567],[120.98547,14.664641],[120.985458,14.66477],[120.985469,14.665181],[120.985448,14.665279],[120.985444,14.665559],[120.985417,14.665675],[120.985389,14.665711],[120.98538,14.665818],[120.98536,14.665859],[120.985369,14.666039],[120.985296,14.666219],[120.985288,14.66639],[120.985235,14.666395],[120.985174,14.666442],[120.985134,14.666525],[120.985067,14.666581],[120.985034,14.666653],[120.984967,14.66671],[120.984957,14.666749],[120.984905,14.66677],[120.984896,14.666809],[120.984829,14.666866],[120.984797,14.666932],[120.984589,14.667128],[120.984552,14.667199],[120.984474,14.667256],[120.984396,14.667282],[120.984285,14.667378],[120.984193,14.667512],[120.983855,14.667862],[120.983819,14.66795],[120.983769,14.667967],[120.983641,14.668079],[120.983576,14.668152],[120.983523,14.668245],[120.983432,14.668335],[120.983271,14.668436],[120.983266,14.668526],[120.983288,14.668612],[120.983288,14.669145],[120.98328,14.66944],[120.983255,14.669571],[120.983278,14.669638],[120.983286,14.669964],[120.983304,14.669996],[120.983311,14.670104],[120.983332,14.670167],[120.983333,14.6707],[120.982,14.6707],[120.981179,14.670905],[120.98118,14.670613],[120.981161,14.670539],[120.981176,14.670489],[120.981159,14.670469],[120.98115,14.670243],[120.981127,14.670173],[120.981156,14.669998],[120.981159,14.669709],[120.98114,14.669601],[120.98116,14.669574],[120.981157,14.669488],[120.981137,14.669474],[120.981116,14.669409],[120.981063,14.669362],[120.980907,14.66931],[120.980764,14.669211],[120.980566,14.669146],[120.98048,14.669083],[120.980416,14.668949],[120.980376,14.668904],[120.980344,14.668812],[120.980327,14.668656],[120.980335,14.668527],[120.980401,14.668399],[120.980424,14.668284],[120.980492,14.668175],[120.9805,14.668114],[120.980522,14.668093],[120.98053,14.668029],[120.980552,14.668004],[120.980564,14.667878],[120.980598,14.667837],[120.980641,14.66773],[120.980704,14.66768],[120.980815,14.667459],[120.980884,14.66737],[120.980968,14.667295],[120.980981,14.667251],[120.981029,14.66721],[120.981097,14.667088],[120.981264,14.666927],[120.981298,14.66685],[120.981383,14.666804],[120.981395,14.666707],[120.981446,14.666606],[120.981617,14.666435],[120.981778,14.666334],[120.981817,14.666252],[120.981895,14.666181],[120.981905,14.666141],[120.981966,14.666115],[120.982128,14.665971],[120.982211,14.665881],[120.982262,14.66579],[120.98234,14.665711],[120.982407,14.665658],[120.982457,14.665642],[120.982498,14.665578],[120.982607,14.665552],[120.982665,14.665461],[120.982865,14.665255],[120.982955,14.665093],[120.982977,14.664983],[120.983021,14.664934],[120.983045,14.664817],[120.983082,14.664764],[120.983091,14.664624],[120.983072,14.664592],[120.983039,14.66458],[120.983018,14.664526],[120.982927,14.664425],[120.982662,14.664195],[120.982657,14.664143],[120.982679,14.664086],[120.982776,14.663986],[120.982925,14.663848],[120.983004,14.663811],[120.983042,14.663747],[120.983143,14.663683],[120.983341,14.663475],[120.98344,14.663481],[120.983495,14.66353],[120.983629,14.663547],[120.983904,14.66353],[120.984022,14.663488],[120.984104,14.663417],[120.984149,14.663317],[120.984159,14.662994],[120.984143,14.662973],[120.984136,14.662886],[120.984118,14.66287],[120.984113,14.662789],[120.984079,14.662762],[120.983904,14.662734],[120.983583,14.662726],[120.983536,14.662713],[120.983374,14.662835],[120.983328,14.662851],[120.98331,14.662951],[120.983283,14.662974],[120.983256,14.663044],[120.983206,14.663092],[120.983136,14.663114],[120.982448,14.663155],[120.982341,14.663179],[120.982332,14.663152],[120.98225,14.663114],[120.982224,14.663056],[120.982211,14.662956],[120.982242,14.662346],[120.982328,14.662213],[120.982376,14.662195],[120.982514,14.662065],[120.982632,14.662009],[120.98274,14.661901],[120.982786,14.661888],[120.982823,14.661846],[120.982918,14.661803],[120.982957,14.661757],[120.982974,14.661696],[120.982958,14.661599],[120.982887,14.661504],[120.982849,14.661407],[120.982804,14.661367],[120.982797,14.661325],[120.982746,14.661248],[120.982732,14.661174],[120.982693,14.661143],[120.982657,14.66105],[120.982606,14.660992],[120.98257,14.660771],[120.982582,14.660751],[120.982648,14.660711],[120.982651,14.66071],[120.982786,14.660628],[120.982813,14.660612],[120.982895,14.660563],[120.9829,14.66056]]]]}},{"type":"Feature","properties":{"codes":["I-2"],"name":"I-2","color":"#a900e6"},"geometry":{"type":"MultiPolygon","coordinates":[[[[120.981314,14.661512],[120.981536,14.661379],[120.98156,14.661364],[120.981768,14.661239],[120.981802,14.661219],[120.981985,14.661109],[120.982012,14.661093],[120.982086,14.661049],[120.982101,14.66104],[120.982524,14.660785],[120.982582,14.660751],[120.98257,14.660771],[120.982606,14.660992],[120.982657,14.66105],[120.982693,14.661143],[120.982732,14.661174],[120.982746,14.661248],[120.982797,14.661325],[120.982804,14.661367],[120.982849,14.661407],[120.982887,14.661504],[120.982958,14.661599],[120.982974,14.661696],[120.982957,14.661757],[120.982918,14.661803],[120.982823,14.661846],[120.982786,14.661888],[120.98274,14.661901],[120.982632,14.662009],[120.982514,14.662065],[120.982376,14.662195],[120.982328,14.662213],[120.982242,14.662346],[120.982211,14.662956],[120.982224,14.663056],[120.98225,14.663114],[120.982332,14.663152],[120.982341,14.663179],[120.982346,14.663251],[120.982396,14.663284],[120.982414,14.663318],[120.982444,14.663582],[120.982496,14.663769],[120.982541,14.663841],[120.982649,14.663942],[120.982726,14.663986],[120.982776,14.663986],[120.982679,14.664086],[120.982657,14.664143],[120.982662,14.664195],[120.982927,14.664425],[120.983018,14.664526],[120.983039,14.66458],[120.983072,14.664592],[120.983091,14.664624],[120.983082,14.664764],[120.983045,14.664817],[120.983021,14.664934],[120.982977,14.664983],[120.982955,14.665093],[120.982865,14.665255],[120.982665,14.665461],[120.982607,14.665552],[120.982498,14.665578],[120.982457,14.665642],[120.982407,14.665658],[120.98234,14.665711],[120.982262,14.66579],[120.982211,14.665881],[120.982128,14.665971],[120.981966,14.666115],[120.981905,14.666141],[120.981895,14.666181],[120.981817,14.666252],[120.981778,14.666334],[120.981617,14.666435],[120.981446,14.666606],[120.981395,14.666707],[120.981383,14.666804],[120.981298,14.66685],[120.981264,14.666927],[120.981097,14.667088],[120.981029,14.66721],[120.980981,14.667251],[120.980968,14.667295],[120.980884,14.66737],[120.980815,14.667459],[120.980704,14.66768],[120.980641,14.66773],[120.980598,14.667837],[120.980564,14.667878],[120.980552,14.668004],[120.98053,14.668029],[120.980522,14.668093],[120.9805,14.668114],[120.980492,14.668175],[120.980424,14.668284],[120.980401,14.668399],[120.980335,14.668527],[120.980327,14.668656],[120.980344,14.668812],[120.980376,14.668904],[120.980416,14.668949],[120.98048,14.669083],[120.980566,14.669146],[120.980764,14.669211],[120.980907,14.66931],[120.981063,14.669362],[120.981116,14.669409],[120.981137,14.669474],[120.981157,14.669488],[120.98116,14.669574],[120.98114,14.669601],[120.981159,14.669709],[120.981156,14.669998],[120.981127,14.670173],[120.98115,14.670243],[120.981159,14.670469],[120.981176,14.670489],[120.981161,14.670539],[120.98118,14.670613],[120.981179,14.670905],[120.98,14.6712],[120.979081,14.672394],[120.979078,14.672399],[120.979,14.6725],[120.979,14.674046],[120.979,14.6743],[120.978942,14.674329],[120.978799,14.674401],[120.978798,14.674401],[120.978,14.6748],[120.976857,14.674838],[120.97604,14.674865],[120.975,14.6749],[120.974266,14.67556],[120.974077,14.675731],[120.974,14.6758],[120.97317,14.677791],[120.973,14.6782],[120.97297,14.678191],[120.972036,14.677911],[120.972,14.6779],[120.972008,14.677838],[120.973,14.6705],[120.973,14.6673],[120.973,14.664476],[120.973351,14.664489],[120.973413,14.664533],[120.973508,14.664559],[120.973776,14.664548],[120.973851,14.664562],[120.973873,14.664589],[120.97399,14.664626],[120.974065,14.664687],[120.974142,14.664713],[120.974201,14.664769],[120.974239,14.664775],[120.974254,14.664796],[120.974298,14.664804],[120.974313,14.664826],[120.974357,14.664833],[120.974393,14.664866],[120.974705,14.665008],[120.974837,14.665108],[120.975002,14.665156],[120.975017,14.665176],[120.975061,14.665184],[120.975076,14.665205],[120.97512,14.665213],[120.975134,14.665234],[120.975178,14.665242],[120.975193,14.665264],[120.975244,14.665275],[120.975351,14.66534],[120.975439,14.665357],[120.975476,14.665352],[120.975539,14.665313],[120.975549,14.665249],[120.975569,14.665236],[120.975601,14.665149],[120.975659,14.665092],[120.975666,14.665051],[120.975717,14.664978],[120.975819,14.664692],[120.975928,14.664619],[120.975956,14.664576],[120.975974,14.664496],[120.976022,14.664444],[120.976118,14.664447],[120.976156,14.664472],[120.976222,14.66448],[120.976244,14.664502],[120.976311,14.664509],[120.976323,14.664528],[120.976426,14.664539],[120.976445,14.664559],[120.97661,14.664602],[120.976681,14.664647],[120.97674,14.664653],[120.976762,14.664675],[120.976829,14.664683],[120.97685,14.664704],[120.977016,14.664745],[120.977029,14.664763],[120.977132,14.664775],[120.977144,14.664793],[120.977211,14.664801],[120.977233,14.664822],[120.977299,14.66483],[120.977324,14.664852],[120.977453,14.664864],[120.97747,14.664882],[120.977558,14.66489],[120.977613,14.664914],[120.978082,14.664953],[120.978139,14.664979],[120.978189,14.664983],[120.978227,14.665026],[120.97831,14.665043],[120.978325,14.665061],[120.978435,14.665069],[120.978485,14.665091],[120.978683,14.665099],[120.978838,14.665078],[120.978872,14.665025],[120.978875,14.66495],[120.978853,14.664919],[120.978846,14.664811],[120.978825,14.664773],[120.978815,14.664623],[120.978793,14.664596],[120.978786,14.664531],[120.978759,14.664509],[120.978734,14.664439],[120.978758,14.664429],[120.978764,14.664332],[120.978741,14.664244],[120.978736,14.663964],[120.978712,14.663845],[120.978709,14.663684],[120.978688,14.663617],[120.978679,14.663399],[120.978652,14.663327],[120.978614,14.663283],[120.978645,14.663235],[120.978657,14.663144],[120.978634,14.663068],[120.978629,14.66281],[120.97861,14.662711],[120.978629,14.662234],[120.97861,14.662109],[120.978613,14.661804],[120.978646,14.661594],[120.978679,14.661551],[120.978698,14.661489],[120.978704,14.661254],[120.978646,14.661232],[120.98,14.6613],[120.980079,14.661332],[120.980112,14.661345],[120.980263,14.661405],[120.980362,14.661445],[120.980421,14.661469],[120.980475,14.66149],[120.980501,14.6615],[120.981,14.6617],[120.981291,14.661525],[120.981314,14.661512]],[[120.978312,14.666627],[120.978262,14.666669],[120.978223,14.666678],[120.978211,14.666759],[120.97829,14.666847],[120.978396,14.667081],[120.978469,14.667177],[120.978481,14.667233],[120.978527,14.667249],[120.97861,14.667244],[120.978647,14.667212],[120.978767,14.667165],[120.978763,14.667088],[120.978629,14.666837],[120.978621,14.666705],[120.978588,14.66664],[120.978467,14.666617],[120.978312,14.666627]]],[[[120.989788,14.66422],[120.989797,14.664227],[120.989908,14.664322],[120.99,14.6644],[120.990038,14.664411],[120.990178,14.664453],[120.990443,14.664533],[120.990472,14.664542],[120.990529,14.664559],[120.990576,14.664573],[120.99061,14.664583],[120.99066,14.664598],[120.990751,14.664625],[120.990797,14.664639],[120.990947,14.664684],[120.99096,14.664688],[120.991032,14.664709],[120.991064,14.664719],[120.991111,14.664733],[120.99115,14.664745],[120.991261,14.664778],[120.991276,14.664783],[120.991534,14.66486],[120.991553,14.664866],[120.991613,14.664884],[120.991643,14.664893],[120.991744,14.664923],[120.991824,14.664947],[120.991898,14.664969],[120.992,14.665],[120.993435,14.666579],[120.99344,14.666584],[120.993639,14.666803],[120.99367,14.666837],[120.993898,14.667088],[120.993992,14.667192],[120.994,14.6672],[120.994085,14.667251],[120.994104,14.667263],[120.994234,14.66734],[120.994271,14.667363],[120.994414,14.667448],[120.994424,14.667454],[120.996,14.6684],[120.997199,14.66882],[120.997179,14.668833],[120.997168,14.66903],[120.997123,14.669134],[120.997105,14.66932],[120.99708,14.669376],[120.997101,14.669456],[120.997196,14.669556],[120.997192,14.669583],[120.99714,14.669645],[120.997135,14.669763],[120.99711,14.66977],[120.997077,14.66986],[120.997038,14.669913],[120.99695,14.669934],[120.996869,14.669928],[120.996768,14.669852],[120.996693,14.669835],[120.996664,14.669799],[120.996584,14.669782],[120.996454,14.669705],[120.996403,14.669694],[120.996388,14.669673],[120.99635,14.669667],[120.99631,14.669622],[120.996214,14.669585],[120.996165,14.669536],[120.996091,14.669521],[120.996048,14.669478],[120.995943,14.66945],[120.99586,14.669395],[120.995794,14.669377],[120.99578,14.669355],[120.995736,14.669348],[120.995721,14.669326],[120.995677,14.669319],[120.995662,14.669297],[120.995618,14.669289],[120.995604,14.669268],[120.99556,14.66926],[120.995545,14.669238],[120.995501,14.669231],[120.995479,14.669209],[120.995339,14.66921],[120.995261,14.669252],[120.995194,14.669316],[120.995136,14.669258],[120.995164,14.669205],[120.995159,14.669108],[120.995123,14.669054],[120.995055,14.669012],[120.994951,14.668977],[120.994785,14.66895],[120.994702,14.669005],[120.994696,14.669054],[120.994594,14.66906],[120.994498,14.669145],[120.994415,14.669166],[120.994367,14.669149],[120.994294,14.669079],[120.994195,14.669049],[120.994192,14.668929],[120.994174,14.668884],[120.994119,14.668857],[120.994027,14.668863],[120.994014,14.668822],[120.99399,14.668818],[120.993991,14.668802],[120.993946,14.668791],[120.993431,14.668745],[120.99331,14.668694],[120.993248,14.6686],[120.993137,14.668696],[120.992391,14.66863],[120.992244,14.668598],[120.992169,14.668547],[120.992057,14.668538],[120.992035,14.668518],[120.991844,14.668475],[120.991789,14.668437],[120.991708,14.668422],[120.991629,14.668371],[120.991581,14.668361],[120.991569,14.668341],[120.991448,14.668301],[120.991228,14.668113],[120.991057,14.668066],[120.991006,14.668021],[120.990933,14.668006],[120.990889,14.667963],[120.990832,14.667955],[120.990815,14.667922],[120.990782,14.667904],[120.99067,14.667901],[120.990615,14.667921],[120.990587,14.667899],[120.990543,14.667909],[120.990494,14.667973],[120.99049,14.66807],[120.990394,14.668044],[120.990354,14.668015],[120.990078,14.667981],[120.990102,14.667949],[120.990109,14.667863],[120.990098,14.667807],[120.990073,14.667773],[120.989946,14.667728],[120.989842,14.667641],[120.989785,14.667623],[120.989756,14.667587],[120.989662,14.667572],[120.98964,14.667554],[120.989613,14.667448],[120.989614,14.667145],[120.989638,14.667111],[120.989645,14.667052],[120.98964,14.666955],[120.989622,14.666935],[120.989617,14.66689],[120.989648,14.666714],[120.989621,14.666409],[120.989629,14.666162],[120.989646,14.666115],[120.989631,14.666085],[120.989648,14.666078],[120.989654,14.666029],[120.989631,14.665974],[120.989623,14.665647],[120.989599,14.665602],[120.989624,14.665524],[120.989633,14.665136],[120.989624,14.664916],[120.989613,14.664867],[120.989586,14.664845],[120.989607,14.664767],[120.989588,14.664652],[120.989625,14.66462],[120.989622,14.664534],[120.989664,14.664496],[120.989674,14.664457],[120.989724,14.664431],[120.989758,14.664384],[120.989788,14.66422]]],[[[120.997169,14.672518],[120.997826,14.672764],[120.99784,14.672829],[120.997794,14.67285],[120.997813,14.672894],[120.997346,14.673127],[120.997343,14.673128],[120.997,14.6733],[120.997,14.674486],[120.997,14.675],[120.996658,14.675],[120.996289,14.675],[120.996,14.675],[120.995879,14.674946],[120.995834,14.674925],[120.995612,14.674826],[120.995555,14.6748],[120.995372,14.674718],[120.995351,14.674708],[120.995398,14.674346],[120.995484,14.674194],[120.99557,14.673926],[120.99562,14.673873],[120.995626,14.673835],[120.995648,14.673821],[120.995656,14.673778],[120.995678,14.673764],[120.99569,14.673714],[120.995757,14.673612],[120.99578,14.673523],[120.995847,14.673459],[120.99587,14.673373],[120.99589,14.67336],[120.995933,14.673255],[120.995961,14.673236],[120.995981,14.67313],[120.995999,14.672736],[120.996067,14.672609],[120.996164,14.672574],[120.99652,14.672564],[120.996666,14.672539],[120.997169,14.672518]]]]}},{"type":"Feature","properties":{"codes":["INSTITUTIONAL"],"name":"Institutional","color":"#0000ff"},"geometry":{"type":"MultiPolygon","coordinates":[[[[120.985789,14.662608],[120.985867,14.66262],[120.985883,14.662636],[120.985898,14.662798],[120.98588,14.662932],[120.985759,14.663083],[120.985707,14.663183],[120.985618,14.66324],[120.985612,14.663265],[120.985535,14.663259],[120.985469,14.66321],[120.985437,14.663091],[120.98542,14.662872],[120.985429,14.662704],[120.98545,14.662652],[120.9855,14.662604],[120.985789,14.662608]]],[[[120.984104,14.663417],[120.984022,14.663488],[120.983904,14.66353],[120.983629,14.663547],[120.983495,14.66353],[120.98344,14.663481],[120.983341,14.663475],[120.983336,14.663353],[120.98326,14.663212],[120.983256,14.663044],[120.983283,14.662974],[120.98331,14.662951],[120.983328,14.662851],[120.983374,14.662835],[120.983536,14.662713],[120.983583,14.662726],[120.983904,14.662734],[120.984079,14.662762],[120.984113,14.662789],[120.984118,14.66287],[120.984136,14.662886],[120.984143,14.662973],[120.984159,14.662994],[120.984149,14.663317],[120.984104,14.663417]]],[[[120.975058,14.663864],[120.975123,14.663809],[120.975151,14.663805],[120.975245,14.663858],[120.975595,14.663958],[120.975696,14.664018],[120.975948,14.664081],[120.975975,14.664347],[120.976019,14.664396],[120.976022,14.664444],[120.975974,14.664496],[120.975956,14.664576],[120.975928,14.664619],[120.975819,14.664692],[120.975717,14.664978],[120.975666,14.665051],[120.975659,14.665092],[120.975601,14.665149],[120.975569,14.665236],[120.975549,14.665249],[120.975539,14.665313],[120.975476,14.665352],[120.975439,14.665357],[120.975351,14.66534],[120.975244,14.665275],[120.975193,14.665264],[120.975178,14.665242],[120.975134,14.665234],[120.97512,14.665213],[120.975076,14.665205],[120.975061,14.665184],[120.975017,14.665176],[120.975002,14.665156],[120.974837,14.665108],[120.974705,14.665008],[120.974393,14.664866],[120.974357,14.664833],[120.974313,14.664826],[120.974298,14.664804],[120.974254,14.664796],[120.974239,14.664775],[120.974201,14.664769],[120.974142,14.664713],[120.974065,14.664687],[120.97399,14.664626],[120.973873,14.664589],[120.973851,14.664562],[120.973776,14.664548],[120.973508,14.664559],[120.973413,14.664533],[120.973351,14.664489],[120.973,14.664476],[120.973,14.663701],[120.973557,14.663722],[120.973687,14.663793],[120.973889,14.663827],[120.973911,14.663847],[120.973977,14.663854],[120.974021,14.663885],[120.974131,14.663915],[120.974148,14.663935],[120.974251,14.663946],[120.974267,14.663966],[120.974377,14.663996],[120.974418,14.664023],[120.974482,14.664029],[120.974578,14.664025],[120.974739,14.663945],[120.974922,14.663915],[120.974964,14.663886],[120.975058,14.663864]]],[[[120.978232,14.664856],[120.978285,14.664799],[120.9783,14.66474],[120.978317,14.66473],[120.978355,14.664741],[120.978366,14.664728],[120.978398,14.664447],[120.978605,14.664467],[120.978693,14.664462],[120.978734,14.664439],[120.978759,14.664509],[120.978786,14.664531],[120.978793,14.664596],[120.978815,14.664623],[120.978825,14.664773],[120.978846,14.664811],[120.978853,14.664919],[120.978875,14.66495],[120.978872,14.665025],[120.978838,14.665078],[120.978683,14.665099],[120.978485,14.665091],[120.978435,14.665069],[120.978325,14.665061],[120.97831,14.665043],[120.978227,14.665026],[120.978189,14.664983],[120.978139,14.664979],[120.978145,14.664956],[120.978195,14.664951],[120.978223,14.66493],[120.978232,14.664856]]],[[[120.988038,14.665495],[120.98811,14.665498],[120.988137,14.66552],[120.988192,14.665525],[120.988297,14.665521],[120.988333,14.665498],[120.988335,14.665616],[120.988386,14.665685],[120.988434,14.665857],[120.98841,14.666675],[120.988327,14.666696],[120.988294,14.666676],[120.988184,14.666668],[120.988169,14.66665],[120.988081,14.666633],[120.98796,14.666562],[120.987877,14.666556],[120.98782,14.666571],[120.987732,14.666646],[120.987651,14.666676],[120.987618,14.66667],[120.987596,14.666645],[120.987574,14.666481],[120.987548,14.666438],[120.987383,14.66634],[120.987323,14.666264],[120.987349,14.666252],[120.987388,14.666076],[120.987408,14.666058],[120.987416,14.665994],[120.987439,14.66596],[120.987458,14.66568],[120.987813,14.665655],[120.987869,14.665612],[120.987938,14.665588],[120.988038,14.665495]]],[[[120.978211,14.666759],[120.978223,14.666678],[120.978262,14.666669],[120.978312,14.666627],[120.978467,14.666617],[120.978588,14.66664],[120.978621,14.666705],[120.978629,14.666837],[120.978763,14.667088],[120.978767,14.667165],[120.978647,14.667212],[120.97861,14.667244],[120.978527,14.667249],[120.978481,14.667233],[120.978469,14.667177],[120.978396,14.667081],[120.97829,14.666847],[120.978211,14.666759]]],[[[120.999289,14.670524],[120.999407,14.670558],[120.999598,14.670656],[120.999868,14.670734],[120.999871,14.670733],[120.999857,14.670757],[120.99901,14.672282],[120.999,14.6723],[120.998839,14.672381],[120.997813,14.672894],[120.997794,14.67285],[120.99784,14.672829],[120.997826,14.672764],[120.997169,14.672518],[120.997203,14.672215],[120.997246,14.672146],[120.997301,14.67215],[120.997413,14.672201],[120.99755,14.672202],[120.997607,14.672185],[120.997641,14.67212],[120.997651,14.671988],[120.997709,14.671883],[120.997844,14.671832],[120.997864,14.671809],[120.997905,14.671804],[120.997985,14.671754],[120.998188,14.671707],[120.998251,14.671647],[120.998268,14.671595],[120.998236,14.671503],[120.998159,14.671433],[120.9981,14.671407],[120.997938,14.671388],[120.99768,14.671393],[120.99757,14.671354],[120.997129,14.671257],[120.996982,14.671189],[120.996927,14.671144],[120.996917,14.671078],[120.996934,14.671017],[120.997001,14.670933],[120.997009,14.670892],[120.997039,14.670864],[120.997161,14.670608],[120.997207,14.670566],[120.997245,14.670473],[120.997319,14.670384],[120.997397,14.670196],[120.997402,14.670173],[120.997452,14.670168],[120.997498,14.670191],[120.997653,14.6702],[120.997752,14.670226],[120.998485,14.670284],[120.998685,14.670315],[120.998784,14.670359],[120.999012,14.670405],[120.999064,14.670424],[120.999157,14.670493],[120.999271,14.670505],[120.999289,14.670524]]]]}},{"type":"Feature","properties":{"codes":["PARKS"],"name":"Parks and Recreation","color":"#38a800"},"geometry":{"type":"MultiPolygon","coordinates":[[[[120.983341,14.663475],[120.983143,14.663683],[120.983042,14.663747],[120.983004,14.663811],[120.982925,14.663848],[120.982776,14.663986],[120.982726,14.663986],[120.982649,14.663942],[120.982541,14.663841],[120.982496,14.663769],[120.982444,14.663582],[120.982414,14.663318],[120.982396,14.663284],[120.982346,14.663251],[120.982341,14.663179],[120.982448,14.663155],[120.983136,14.663114],[120.983206,14.663092],[120.983256,14.663044],[120.98326,14.663212],[120.983336,14.663353],[120.983341,14.663475]]],[[[120.988447,14.665033],[120.988496,14.66513],[120.988501,14.665184],[120.988478,14.665295],[120.988416,14.665402],[120.988333,14.665498],[120.988297,14.665521],[120.988192,14.665525],[120.988137,14.66552],[120.98811,14.665498],[120.988038,14.665495],[120.988033,14.665445],[120.987956,14.665373],[120.987906,14.665259],[120.987913,14.665103],[120.987969,14.664975],[120.988039,14.664938],[120.988154,14.664923],[120.988227,14.664923],[120.988352,14.664957],[120.988447,14.665033]]],[[[120.990023,14.668324],[120.990065,14.668556],[120.990144,14.668625],[120.990271,14.668664],[120.990303,14.668712],[120.990306,14.668786],[120.990282,14.668793],[120.990272,14.668882],[120.990239,14.668936],[120.990043,14.668961],[120.989954,14.669009],[120.989926,14.669057],[120.989914,14.669148],[120.989896,14.669161],[120.989888,14.669225],[120.989864,14.669252],[120.989828,14.669381],[120.989785,14.669413],[120.989733,14.66941],[120.989699,14.669387],[120.989544,14.669353],[120.989506,14.669321],[120.989483,14.669229],[120.989471,14.668664],[120.989388,14.668513],[120.989311,14.668512],[120.989205,14.668565],[120.98912,14.668645],[120.989071,14.66873],[120.989014,14.668757],[120.989006,14.668796],[120.988972,14.668839],[120.988873,14.66886],[120.988744,14.668848],[120.988672,14.668802],[120.988629,14.668741],[120.988513,14.668704],[120.988465,14.668659],[120.988407,14.668649],[120.988359,14.668574],[120.988334,14.668568],[120.988419,14.66831],[120.988477,14.668198],[120.988537,14.668145],[120.988607,14.668122],[120.988794,14.668151],[120.988858,14.6682],[120.989174,14.668346],[120.989293,14.668424],[120.989361,14.668396],[120.989373,14.668355],[120.989441,14.668294],[120.989492,14.668198],[120.989553,14.668177],[120.98963,14.668179],[120.989678,14.668203],[120.989901,14.668252],[120.989992,14.668319],[120.990023,14.668324]]],[[[120.99444,14.670606],[120.994517,14.670661],[120.994549,14.670788],[120.994614,14.670903],[120.99463,14.671002],[120.994677,14.671033],[120.994677,14.671114],[120.994654,14.671184],[120.994576,14.671246],[120.994509,14.671263],[120.994487,14.671284],[120.994349,14.671283],[120.994223,14.671201],[120.994151,14.671179],[120.994138,14.671195],[120.994049,14.671202],[120.994011,14.671226],[120.993952,14.671231],[120.993872,14.671281],[120.993824,14.671291],[120.993724,14.67138],[120.99369,14.671444],[120.993634,14.671454],[120.993524,14.671437],[120.993458,14.671372],[120.993416,14.671363],[120.993369,14.671312],[120.993317,14.671297],[120.993281,14.671254],[120.993218,14.671234],[120.993143,14.671163],[120.993148,14.671022],[120.993216,14.670916],[120.993371,14.670902],[120.993498,14.670842],[120.99353,14.670804],[120.993624,14.670784],[120.993676,14.670748],[120.993816,14.670733],[120.993837,14.670714],[120.993992,14.670679],[120.994018,14.670656],[120.994195,14.670608],[120.994262,14.670572],[120.994335,14.670573],[120.994374,14.670598],[120.99444,14.670606]]]]}}]}
