{"type":"FeatureCollection","features":[{"type":"Feature","properties":{"codes":["R-2-BASIC","R-2-MAX"],"name":"R-2 Basic or R-2 Max","color":"#ffffb4"},"geometry":{"type":"MultiPolygon","coordinates":[[[[120.95188,14.663106],[120.9518,14.663201],[120.9518,14.663249],[120.951996,14.663299],[120.950805,14.663001],[120.950487,14.662922],[120.950518,14.662683],[120.950793,14.662695],[120.950843,14.662667],[120.950824,14.662523],[120.95053,14.662482],[120.950563,14.662119],[120.950592,14.662091],[120.950584,14.661976],[120.950644,14.661852],[120.950722,14.661872],[120.950753,14.661767],[120.950892,14.661587],[120.950941,14.661539],[120.951,14.661549],[120.95109,14.661426],[120.95109,14.661397],[120.951032,14.661358],[120.951032,14.661291],[120.951112,14.661206],[120.951102,14.661168],[120.951141,14.661168],[120.951221,14.661045],[120.951173,14.660987],[120.951174,14.660882],[120.951262,14.660882],[120.951342,14.660768],[120.951801,14.66103],[120.95186,14.660993],[120.95194,14.66085],[120.951981,14.660717],[120.951716,14.660628],[120.951589,14.66055],[120.951512,14.660454],[120.951581,14.660407],[120.951611,14.660331],[120.951797,14.66039],[120.951887,14.660218],[120.951799,14.660132],[120.95181,14.660065],[120.951919,14.659951],[120.952134,14.660029],[120.952274,14.65983],[120.952255,14.659772],[120.952118,14.659704],[120.952129,14.659609],[120.952099,14.65958],[120.95209,14.659484],[120.952169,14.659485],[120.952199,14.659456],[120.952269,14.659275],[120.952358,14.65919],[120.952359,14.659104],[120.952409,14.659037],[120.952458,14.659038],[120.952605,14.659115],[120.952643,14.659173],[120.9528,14.659213],[120.952829,14.65927],[120.952878,14.659271],[120.952898,14.659242],[120.953075,14.659234],[120.95329,14.659341],[120.953339,14.659342],[120.95339,14.659199],[120.953459,14.659171],[120.953468,14.659238],[120.953358,14.659495],[120.953367,14.659591],[120.953416,14.659601],[120.953445,14.659572],[120.953526,14.659344],[120.953575,14.659334],[120.953819,14.659556],[120.953887,14.659576],[120.953946,14.659653],[120.954083,14.659712],[120.954201,14.659684],[120.954269,14.659761],[120.954357,14.659762],[120.954407,14.659696],[120.954466,14.659677],[120.95464,14.659946],[120.954846,14.660015],[120.955,14.660016],[120.955,14.660169],[120.954727,14.660167],[120.954413,14.660116],[120.954363,14.660135],[120.954295,14.660106],[120.954236,14.660134],[120.954158,14.660076],[120.954069,14.660085],[120.954021,14.660036],[120.953903,14.660055],[120.953873,14.660006],[120.953824,14.660006],[120.953814,14.660035],[120.953726,14.660015],[120.953706,14.66011],[120.953833,14.66013],[120.953832,14.660245],[120.953968,14.660409],[120.953918,14.660514],[120.953859,14.660523],[120.953858,14.660561],[120.953799,14.66058],[120.953809,14.660647],[120.953769,14.660656],[120.953788,14.660761],[120.953758,14.660761],[120.953758,14.660818],[120.953787,14.660866],[120.953757,14.660876],[120.953757,14.660933],[120.953786,14.660991],[120.953756,14.661],[120.953756,14.661048],[120.953785,14.661105],[120.953755,14.661105],[120.953755,14.661162],[120.953784,14.66122],[120.953754,14.661229],[120.953754,14.661277],[120.953782,14.661335],[120.953753,14.661344],[120.953752,14.661392],[120.953781,14.66145],[120.953752,14.661459],[120.953771,14.661555],[120.953731,14.661564],[120.953731,14.661621],[120.953848,14.661632],[120.953907,14.661671],[120.954005,14.661662],[120.954074,14.66171],[120.954152,14.661692],[120.954201,14.661731],[120.95426,14.661731],[120.954271,14.661674],[120.954329,14.661694],[120.955,14.661699],[120.955,14.6619],[120.95421,14.661893],[120.953376,14.661704],[120.953223,14.662334],[120.953135,14.662324],[120.953067,14.662256],[120.952909,14.662274],[120.952753,14.662158],[120.952637,14.661975],[120.95252,14.661878],[120.952422,14.661858],[120.952334,14.661781],[120.952275,14.6618],[120.952067,14.662037],[120.951857,14.662398],[120.951788,14.662446],[120.951717,14.662598],[120.951539,14.662807],[120.951538,14.662845],[120.951597,14.662893],[120.951695,14.662923],[120.95189,14.663049],[120.95188,14.663106]]]]}},{"type":"Feature","properties":{"codes":["CMP"],"name":"CMP","color":"#a8a800"},"geometry":{"type":"MultiPolygon","coordinates":[[[[120.954727,14.660167],[120.955,14.660169],[120.955,14.661699],[120.954329,14.661694],[120.954271,14.661674],[120.95426,14.661731],[120.954201,14.661731],[120.954152,14.661692],[120.954074,14.66171],[120.954005,14.661662],[120.953907,14.661671],[120.953848,14.661632],[120.953731,14.661621],[120.953731,14.661564],[120.953771,14.661555],[120.953752,14.661459],[120.953781,14.66145],[120.953752,14.661392],[120.953753,14.661344],[120.953782,14.661335],[120.953754,14.661277],[120.953754,14.661229],[120.953784,14.66122],[120.953755,14.661162],[120.953755,14.661105],[120.953785,14.661105],[120.953756,14.661048],[120.953756,14.661],[120.953786,14.660991],[120.953757,14.660933],[120.953757,14.660876],[120.953787,14.660866],[120.953758,14.660818],[120.953758,14.660761],[120.953788,14.660761],[120.953769,14.660656],[120.953809,14.660647],[120.953799,14.66058],[120.953858,14.660561],[120.953859,14.660523],[120.953918,14.660514],[120.953968,14.660409],[120.953832,14.660245],[120.953833,14.66013],[120.953706,14.66011],[120.953726,14.660015],[120.953814,14.660035],[120.953824,14.660006],[120.953873,14.660006],[120.953903,14.660055],[120.954021,14.660036],[120.954069,14.660085],[120.954158,14.660076],[120.954236,14.660134],[120.954295,14.660106],[120.954363,14.660135],[120.954413,14.660116],[120.954727,14.660167]]]]}},{"type":"Feature","properties":{"codes":["C-1"],"name":"C-1","color":"#ff7f7f"},"geometry":{"type":"MultiPolygon","coordinates":[[[[120.949,14.658301],[120.949,14.6583],[120.949976,14.65869],[120.95,14.6587],[120.950105,14.658616],[120.950251,14.658712],[120.950476,14.658791],[120.95071,14.658955],[120.950867,14.659014],[120.951052,14.65913],[120.951433,14.659373],[120.951727,14.659509],[120.951873,14.659625],[120.952292,14.658969],[120.952409,14.659037],[120.952359,14.659104],[120.952358,14.65919],[120.952269,14.659275],[120.952199,14.659456],[120.952169,14.659485],[120.95209,14.659484],[120.952099,14.65958],[120.952129,14.659609],[120.952118,14.659704],[120.952255,14.659772],[120.952274,14.65983],[120.952134,14.660029],[120.951919,14.659951],[120.95181,14.660065],[120.951799,14.660132],[120.951887,14.660218],[120.951797,14.66039],[120.951611,14.660331],[120.951581,14.660407],[120.951512,14.660454],[120.951404,14.660425],[120.951265,14.660605],[120.951254,14.660701],[120.951342,14.660768],[120.951262,14.660882],[120.951174,14.660882],[120.951173,14.660987],[120.951221,14.661045],[120.951141,14.661168],[120.951102,14.661168],[120.951112,14.661206],[120.951032,14.661291],[120.951032,14.661358],[120.95109,14.661397],[120.95109,14.661426],[120.951,14.661549],[120.950941,14.661539],[120.950892,14.661587],[120.950753,14.661767],[120.950722,14.661872],[120.950644,14.661852],[120.950584,14.661976],[120.950592,14.662091],[120.950563,14.662119],[120.95053,14.662482],[120.950518,14.662683],[120.950487,14.662922],[120.95,14.6628],[120.949,14.6618],[120.949,14.658301]],[[120.950336,14.662242],[120.950463,14.662252],[120.950533,14.6621],[120.950308,14.662012],[120.950258,14.662088],[120.950238,14.662193],[120.950336,14.662242]],[[120.949709,14.662035],[120.949758,14.662036],[120.949788,14.661998],[120.949778,14.661959],[120.949671,14.66193],[120.949691,14.661834],[120.949524,14.661804],[120.949514,14.661881],[120.949651,14.66192],[120.949641,14.661987],[120.949709,14.662035]]]]}},{"type":"Feature","properties":{"codes":["C-2"],"name":"C-2","color":"#ff0000"},"geometry":{"type":"MultiPolygon","coordinates":[[[[120.952464,14.658416],[120.952702,14.658496],[120.953,14.6586],[120.955,14.6598],[120.955,14.660016],[120.954846,14.660015],[120.95464,14.659946],[120.954466,14.659677],[120.954407,14.659696],[120.954357,14.659762],[120.954269,14.659761],[120.954201,14.659684],[120.954083,14.659712],[120.953946,14.659653],[120.953887,14.659576],[120.953819,14.659556],[120.953575,14.659334],[120.953526,14.659344],[120.953445,14.659572],[120.953416,14.659601],[120.953367,14.659591],[120.953358,14.659495],[120.953468,14.659238],[120.953459,14.659171],[120.95339,14.659199],[120.953339,14.659342],[120.95329,14.659341],[120.953075,14.659234],[120.952898,14.659242],[120.952878,14.659271],[120.952829,14.65927],[120.9528,14.659213],[120.952643,14.659173],[120.952605,14.659115],[120.952458,14.659038],[120.952409,14.659037],[120.952292,14.658969],[120.952391,14.658808],[120.952392,14.658721],[120.952442,14.658684],[120.952464,14.658416]]]]}},{"type":"Feature","properties":{"codes":["I-1"],"name":"I-1","color":"#c500ff"},"geometry":{"type":"MultiPolygon","coordinates":[[[[120.953376,14.661704],[120.95421,14.661893],[120.955,14.6619],[120.955,14.6623],[120.954,14.6645],[120.953854,14.664456],[120.952,14.6639],[120.952,14.6633],[120.951996,14.663299],[120.9518,14.663249],[120.9518,14.663201],[120.95188,14.663106],[120.95189,14.663049],[120.951695,14.662923],[120.951597,14.662893],[120.951538,14.662845],[120.951539,14.662807],[120.951717,14.662598],[120.951788,14.662446],[120.951857,14.662398],[120.952067,14.662037],[120.952275,14.6618],[120.952334,14.661781],[120.952422,14.661858],[120.95244,14.66205],[120.95232,14.66225],[120.952642,14.662444],[120.952681,14.662492],[120.952975,14.662628],[120.953043,14.662696],[120.953102,14.662696],[120.953181,14.662582],[120.953223,14.662334],[120.953376,14.661704]]]]}},{"type":"Feature","properties":{"codes":["INSTITUTIONAL"],"name":"Institutional","color":"#0000ff"},"geometry":{"type":"MultiPolygon","coordinates":[[[[120.95096,14.657932],[120.951,14.6579],[120.951865,14.658203],[120.952702,14.658496],[120.952464,14.658416],[120.952442,14.658684],[120.952392,14.658721],[120.952391,14.658808],[120.952292,14.658969],[120.951873,14.659625],[120.951727,14.659509],[120.951433,14.659373],[120.951052,14.65913],[120.951411,14.658569],[120.951452,14.658445],[120.950846,14.658105],[120.950806,14.658124],[120.950656,14.65841],[120.950587,14.658438],[120.950607,14.65839],[120.950578,14.658409],[120.950558,14.658371],[120.950588,14.658352],[120.950569,14.658323],[120.950598,14.658221],[120.95096,14.657932]]],[[[120.95194,14.66085],[120.95186,14.660993],[120.951801,14.66103],[120.951342,14.660768],[120.951254,14.660701],[120.951265,14.660605],[120.951404,14.660425],[120.951512,14.660454],[120.951589,14.66055],[120.951716,14.660628],[120.951981,14.660717],[120.95194,14.66085]]],[[[120.949641,14.661987],[120.949651,14.66192],[120.949514,14.661881],[120.949524,14.661804],[120.949691,14.661834],[120.949671,14.66193],[120.949778,14.661959],[120.949788,14.661998],[120.949758,14.662036],[120.949709,14.662035],[120.949641,14.661987]]],[[[120.950533,14.6621],[120.950463,14.662252],[120.950336,14.662242],[120.950238,14.662193],[120.950258,14.662088],[120.950308,14.662012],[120.950533,14.6621]]],[[[120.952422,14.661858],[120.95252,14.661878],[120.952637,14.661975],[120.952753,14.662158],[120.952909,14.662274],[120.953067,14.662256],[120.953135,14.662324],[120.953223,14.662334],[120.953181,14.662582],[120.953102,14.662696],[120.953043,14.662696],[120.952975,14.662628],[120.952681,14.662492],[120.952642,14.662444],[120.95232,14.66225],[120.95244,14.66205],[120.952422,14.661858]]],[[[120.950793,14.662695],[120.950518,14.662683],[120.95053,14.662482],[120.950824,14.662523],[120.950843,14.662667],[120.950793,14.662695]]]]}},{"type":"Feature","properties":{"codes":["CEMETERY"],"name":"Cemetery","color":"#c89600"},"geometry":{"type":"MultiPolygon","coordinates":[[[[120.951411,14.658569],[120.951052,14.65913],[120.950867,14.659014],[120.95071,14.658955],[120.950476,14.658791],[120.950251,14.658712],[120.950105,14.658616],[120.950598,14.658221],[120.950569,14.658323],[120.950588,14.658352],[120.950558,14.658371],[120.950578,14.658409],[120.950607,14.65839],[120.950587,14.658438],[120.950656,14.65841],[120.950806,14.658124],[120.950846,14.658105],[120.951452,14.658445],[120.951411,14.658569]]]]}}]}
