{"type":"FeatureCollection","features":[{"type":"Feature","properties":{"codes":["R-2-BASIC"],"name":"R-2 Basic","color":"#ffffb4"},"geometry":{"type":"MultiPolygon","coordinates":[[[[120.956268,14.689427],[120.956166,14.689438],[120.956018,14.689511],[120.955838,14.68952],[120.955818,14.689538],[120.955752,14.689544],[120.955697,14.689568],[120.955539,14.689569],[120.956,14.688],[120.956292,14.687796],[120.956305,14.687791],[120.956375,14.687847],[120.956391,14.687902],[120.956374,14.687997],[120.956308,14.688106],[120.956308,14.688237],[120.956344,14.688284],[120.956442,14.688332],[120.956525,14.688409],[120.956589,14.688526],[120.956578,14.688611],[120.956522,14.688673],[120.956468,14.688802],[120.956445,14.688821],[120.956413,14.688929],[120.956365,14.688997],[120.956368,14.689265],[120.956345,14.689364],[120.956268,14.689427]]],[[[120.959229,14.687712],[120.959316,14.687773],[120.959497,14.687853],[120.959535,14.687894],[120.959622,14.687916],[120.959658,14.687953],[120.959857,14.688012],[120.959973,14.688105],[120.960133,14.688135],[120.960005,14.688389],[120.96,14.6884],[120.959,14.6904],[120.958387,14.691258],[120.958372,14.691279],[120.958257,14.69144],[120.958253,14.691446],[120.958202,14.691517],[120.958127,14.691623],[120.958104,14.691654],[120.958,14.6918],[120.958,14.692803],[120.958,14.693],[120.957983,14.693014],[120.957902,14.693079],[120.957866,14.693107],[120.957761,14.693191],[120.957671,14.693263],[120.957581,14.693335],[120.957492,14.693406],[120.957419,14.693465],[120.957341,14.693527],[120.957287,14.693571],[120.957144,14.693685],[120.957103,14.693718],[120.957011,14.693791],[120.957,14.6938],[120.956356,14.695217],[120.956,14.696],[120.954548,14.695225],[120.954553,14.69513],[120.954586,14.695077],[120.954719,14.695023],[120.95495,14.694871],[120.954949,14.694783],[120.954865,14.69474],[120.954841,14.69467],[120.954797,14.694631],[120.954787,14.69459],[120.954798,14.694516],[120.954843,14.694451],[120.954858,14.694373],[120.954898,14.694333],[120.954955,14.694314],[120.955003,14.694185],[120.955045,14.69415],[120.955107,14.694035],[120.955182,14.693953],[120.955186,14.693739],[120.955228,14.693693],[120.955237,14.693649],[120.955315,14.693524],[120.955323,14.693464],[120.955343,14.693443],[120.955335,14.693368],[120.955377,14.693353],[120.955384,14.693316],[120.955436,14.69327],[120.955443,14.693229],[120.955488,14.693166],[120.955505,14.693007],[120.955526,14.692984],[120.955556,14.692835],[120.955582,14.69279],[120.955572,14.692646],[120.955611,14.692636],[120.9557,14.692651],[120.955724,14.692632],[120.9558,14.69262],[120.955831,14.692595],[120.955915,14.692362],[120.956074,14.692088],[120.956106,14.691794],[120.956132,14.691745],[120.95617,14.691717],[120.95626,14.6917],[120.956298,14.691668],[120.956282,14.691604],[120.956228,14.691535],[120.956213,14.691466],[120.956219,14.69137],[120.956247,14.691338],[120.956271,14.691268],[120.956364,14.691216],[120.95641,14.691152],[120.956551,14.690729],[120.956831,14.690696],[120.956875,14.690661],[120.956901,14.690608],[120.956939,14.690405],[120.956864,14.690328],[120.956843,14.690239],[120.956861,14.690218],[120.95691,14.689999],[120.956968,14.689907],[120.95699,14.689794],[120.957057,14.689678],[120.957074,14.689561],[120.957032,14.689455],[120.956889,14.689351],[120.956873,14.689301],[120.956885,14.689211],[120.956933,14.689167],[120.957042,14.689157],[120.957118,14.689131],[120.957207,14.689028],[120.957248,14.688922],[120.957276,14.688779],[120.957247,14.688651],[120.957203,14.688606],[120.957206,14.688535],[120.957237,14.688513],[120.957421,14.688498],[120.957445,14.688451],[120.957489,14.688416],[120.957496,14.688375],[120.957548,14.688289],[120.957558,14.688179],[120.95758,14.68816],[120.957586,14.688125],[120.957637,14.688098],[120.957645,14.688042],[120.957697,14.687956],[120.957707,14.687867],[120.957727,14.687851],[120.957759,14.687742],[120.957809,14.687663],[120.957832,14.687493],[120.957876,14.687419],[120.957917,14.687217],[120.957937,14.687203],[120.957972,14.687117],[120.958014,14.687087],[120.95808,14.687077],[120.958092,14.687093],[120.958158,14.687101],[120.958217,14.687137],[120.958392,14.687188],[120.958415,14.687209],[120.958569,14.687237],[120.958669,14.687313],[120.958706,14.687384],[120.958746,14.687391],[120.95879,14.687423],[120.958837,14.687587],[120.958875,14.687651],[120.959229,14.687712]]]]}},{"type":"Feature","properties":{"codes":["C-1"],"name":"C-1","color":"#ff7f7f"},"geometry":{"type":"MultiPolygon","coordinates":[[[[120.959,14.6836],[120.959033,14.683612],[120.959108,14.683638],[120.959189,14.683666],[120.959316,14.68371],[120.9594,14.68374],[120.959416,14.683745],[120.95948,14.683768],[120.959512,14.683779],[120.959738,14.683858],[120.959999,14.68395],[120.960217,14.684026],[120.960342,14.68407],[120.960356,14.684088],[120.960326,14.68416],[120.960238,14.684246],[120.960206,14.684322],[120.960054,14.684404],[120.959965,14.684421],[120.959721,14.684418],[120.959562,14.684367],[120.959469,14.684363],[120.959378,14.684389],[120.959301,14.68445],[120.959249,14.684536],[120.959226,14.684644],[120.959222,14.684715],[120.95924,14.684743],[120.959261,14.684871],[120.959253,14.684942],[120.959183,14.684966],[120.959145,14.685008],[120.959077,14.685032],[120.959,14.685106],[120.958972,14.68517],[120.958896,14.685195],[120.958884,14.685259],[120.95886,14.685278],[120.958766,14.685481],[120.958718,14.685528],[120.958634,14.68573],[120.958529,14.685899],[120.958482,14.686066],[120.958425,14.686177],[120.958374,14.686485],[120.958325,14.686524],[120.958381,14.686582],[120.9585,14.686622],[120.958559,14.686766],[120.958635,14.68682],[120.958731,14.686851],[120.958774,14.686945],[120.95884,14.686921],[120.958867,14.68696],[120.958948,14.686972],[120.959051,14.687036],[120.959146,14.687073],[120.95932,14.687079],[120.959395,14.687061],[120.959446,14.687091],[120.959642,14.687142],[120.959799,14.68725],[120.95984,14.687371],[120.959867,14.687405],[120.960106,14.68746],[120.960131,14.687483],[120.960168,14.687489],[120.960195,14.687539],[120.96026,14.687548],[120.960274,14.687566],[120.960411,14.687572],[120.96041,14.687581],[120.960328,14.687744],[120.960327,14.687746],[120.960297,14.687807],[120.960293,14.687813],[120.960266,14.687869],[120.960264,14.687872],[120.960133,14.688135],[120.959973,14.688105],[120.959857,14.688012],[120.959658,14.687953],[120.959622,14.687916],[120.959535,14.687894],[120.959497,14.687853],[120.959316,14.687773],[120.959229,14.687712],[120.958875,14.687651],[120.958837,14.687587],[120.95879,14.687423],[120.958746,14.687391],[120.958706,14.687384],[120.958669,14.687313],[120.958569,14.687237],[120.958415,14.687209],[120.958392,14.687188],[120.958217,14.687137],[120.958158,14.687101],[120.958092,14.687093],[120.95808,14.687077],[120.958014,14.687087],[120.957972,14.687117],[120.957937,14.687203],[120.957917,14.687217],[120.957876,14.687419],[120.957832,14.687493],[120.957809,14.687663],[120.957759,14.687742],[120.957727,14.687851],[120.957707,14.687867],[120.957697,14.687956],[120.957645,14.688042],[120.957637,14.688098],[120.957586,14.688125],[120.95758,14.68816],[120.957558,14.688179],[120.957548,14.688289],[120.957496,14.688375],[120.957489,14.688416],[120.957445,14.688451],[120.957421,14.688498],[120.957237,14.688513],[120.957206,14.688535],[120.957203,14.688606],[120.957247,14.688651],[120.957276,14.688779],[120.957248,14.688922],[120.957207,14.689028],[120.957118,14.689131],[120.957042,14.689157],[120.956933,14.689167],[120.956885,14.689211],[120.956873,14.689301],[120.956889,14.689351],[120.957032,14.689455],[120.957074,14.689561],[120.957057,14.689678],[120.95699,14.689794],[120.956968,14.689907],[120.95691,14.689999],[120.956861,14.690218],[120.956843,14.690239],[120.956864,14.690328],[120.956939,14.690405],[120.956901,14.690608],[120.956875,14.690661],[120.956831,14.690696],[120.956551,14.690729],[120.95641,14.691152],[120.956364,14.691216],[120.956271,14.691268],[120.956247,14.691338],[120.956219,14.69137],[120.956213,14.691466],[120.956228,14.691535],[120.956282,14.691604],[120.956298,14.691668],[120.95626,14.6917],[120.95617,14.691717],[120.956132,14.691745],[120.956106,14.691794],[120.956074,14.692088],[120.955915,14.692362],[120.955831,14.692595],[120.9558,14.69262],[120.955724,14.692632],[120.9557,14.692651],[120.955611,14.692636],[120.955572,14.692646],[120.955582,14.69279],[120.955556,14.692835],[120.955526,14.692984],[120.955505,14.693007],[120.955488,14.693166],[120.955443,14.693229],[120.955436,14.69327],[120.955384,14.693316],[120.955377,14.693353],[120.955335,14.693368],[120.955343,14.693443],[120.955323,14.693464],[120.955315,14.693524],[120.955237,14.693649],[120.955228,14.693693],[120.955186,14.693739],[120.955182,14.693953],[120.955107,14.694035],[120.955045,14.69415],[120.955003,14.694185],[120.954955,14.694314],[120.954898,14.694333],[120.954858,14.694373],[120.954843,14.694451],[120.954798,14.694516],[120.954787,14.69459],[120.954797,14.694631],[120.954841,14.69467],[120.954865,14.69474],[120.954949,14.694783],[120.95495,14.694871],[120.954719,14.695023],[120.954586,14.695077],[120.954553,14.69513],[120.954548,14.695225],[120.954546,14.695225],[120.954184,14.695032],[120.954143,14.694995],[120.954147,14.694972],[120.954179,14.694967],[120.954198,14.694941],[120.954208,14.694835],[120.954241,14.694784],[120.954299,14.694604],[120.95434,14.694547],[120.954357,14.694438],[120.954377,14.694424],[120.954426,14.694309],[120.954481,14.694241],[120.954484,14.694101],[120.954526,14.694071],[120.954547,14.693965],[120.954602,14.693882],[120.954677,14.693663],[120.954731,14.693579],[120.954806,14.693335],[120.954846,14.693279],[120.954874,14.693173],[120.954935,14.693076],[120.955042,14.692748],[120.955092,14.692668],[120.955098,14.692612],[120.95512,14.692591],[120.955128,14.692527],[120.955146,14.692508],[120.955112,14.692458],[120.955152,14.692444],[120.955162,14.692404],[120.955239,14.692303],[120.955281,14.69215],[120.955301,14.692136],[120.955333,14.692026],[120.955386,14.691942],[120.955461,14.691698],[120.955502,14.691642],[120.955519,14.691557],[120.955539,14.691543],[120.955569,14.691437],[120.955598,14.691402],[120.955629,14.691296],[120.955654,14.691262],[120.955635,14.691177],[120.955579,14.691129],[120.955571,14.691023],[120.955482,14.690875],[120.955351,14.690842],[120.955171,14.69084],[120.955163,14.690845],[120.955179,14.690793],[120.955539,14.689569],[120.955697,14.689568],[120.955752,14.689544],[120.955818,14.689538],[120.955838,14.68952],[120.956018,14.689511],[120.956166,14.689438],[120.956268,14.689427],[120.956345,14.689364],[120.956368,14.689265],[120.956365,14.688997],[120.956413,14.688929],[120.956445,14.688821],[120.956468,14.688802],[120.956522,14.688673],[120.956578,14.688611],[120.956589,14.688526],[120.956525,14.688409],[120.956442,14.688332],[120.956344,14.688284],[120.956308,14.688237],[120.956308,14.688106],[120.956374,14.687997],[120.956391,14.687902],[120.956375,14.687847],[120.956305,14.687791],[120.956292,14.687796],[120.956325,14.687773],[120.958,14.6866],[120.958829,14.684113],[120.959,14.6836]]]]}},{"type":"Feature","properties":{"codes":["I-1"],"name":"I-1","color":"#c500ff"},"geometry":{"type":"MultiPolygon","coordinates":[[[[120.960206,14.684322],[120.960238,14.684246],[120.960326,14.68416],[120.960356,14.684088],[120.960342,14.68407],[120.960397,14.684089],[120.960445,14.684106],[120.960492,14.684122],[120.960641,14.684175],[120.960726,14.684204],[120.960753,14.684214],[120.960806,14.684232],[120.960853,14.684248],[120.961005,14.684302],[120.961291,14.684402],[120.96139,14.684436],[120.961422,14.684448],[120.961469,14.684464],[120.961523,14.684483],[120.961654,14.684529],[120.961965,14.684638],[120.962053,14.684668],[120.962091,14.684682],[120.962132,14.684696],[120.962193,14.684718],[120.962304,14.684756],[120.962645,14.684876],[120.962792,14.684927],[120.962991,14.684997],[120.963,14.685],[120.962998,14.685001],[120.961668,14.685932],[120.961638,14.685953],[120.961356,14.686151],[120.961306,14.686186],[120.961133,14.686307],[120.961127,14.686311],[120.961,14.6864],[120.960888,14.686623],[120.960886,14.686627],[120.960861,14.686678],[120.960854,14.686692],[120.960801,14.686797],[120.960773,14.686854],[120.960596,14.687208],[120.960593,14.687214],[120.960533,14.687334],[120.960511,14.687379],[120.96042,14.687559],[120.96041,14.687581],[120.960411,14.687572],[120.960274,14.687566],[120.96026,14.687548],[120.960195,14.687539],[120.960168,14.687489],[120.960131,14.687483],[120.960106,14.68746],[120.959867,14.687405],[120.95984,14.687371],[120.959799,14.68725],[120.959642,14.687142],[120.959446,14.687091],[120.959395,14.687061],[120.95932,14.687079],[120.959146,14.687073],[120.959051,14.687036],[120.958948,14.686972],[120.958867,14.68696],[120.95884,14.686921],[120.958774,14.686945],[120.958731,14.686851],[120.958635,14.68682],[120.958559,14.686766],[120.9585,14.686622],[120.958381,14.686582],[120.958325,14.686524],[120.958374,14.686485],[120.958425,14.686177],[120.958482,14.686066],[120.958529,14.685899],[120.958634,14.68573],[120.958718,14.685528],[120.958766,14.685481],[120.95886,14.685278],[120.958884,14.685259],[120.958896,14.685195],[120.958972,14.68517],[120.959,14.685106],[120.959077,14.685032],[120.959145,14.685008],[120.959183,14.684966],[120.959253,14.684942],[120.959261,14.684871],[120.95924,14.684743],[120.959222,14.684715],[120.959226,14.684644],[120.959249,14.684536],[120.959301,14.68445],[120.959378,14.684389],[120.959469,14.684363],[120.959562,14.684367],[120.959721,14.684418],[120.959965,14.684421],[120.960054,14.684404],[120.960206,14.684322]]],[[[120.954377,14.694424],[120.954357,14.694438],[120.95434,14.694547],[120.954299,14.694604],[120.954241,14.694784],[120.954208,14.694835],[120.954198,14.694941],[120.954179,14.694967],[120.954147,14.694972],[120.954143,14.694995],[120.954184,14.695032],[120.953997,14.694932],[120.953722,14.694785],[120.953687,14.694766],[120.953633,14.694738],[120.953582,14.694711],[120.95321,14.694512],[120.953203,14.694508],[120.953155,14.694483],[120.953152,14.694481],[120.953039,14.694421],[120.953,14.6944],[120.953011,14.694384],[120.953275,14.693988],[120.953275,14.693987],[120.95389,14.693065],[120.953892,14.693062],[120.955,14.6914],[120.955163,14.690845],[120.955171,14.69084],[120.955351,14.690842],[120.955482,14.690875],[120.955571,14.691023],[120.955579,14.691129],[120.955635,14.691177],[120.955654,14.691262],[120.955629,14.691296],[120.955598,14.691402],[120.955569,14.691437],[120.955539,14.691543],[120.955519,14.691557],[120.955502,14.691642],[120.955461,14.691698],[120.955386,14.691942],[120.955333,14.692026],[120.955301,14.692136],[120.955281,14.69215],[120.955239,14.692303],[120.955162,14.692404],[120.955152,14.692444],[120.955112,14.692458],[120.955146,14.692508],[120.955128,14.692527],[120.95512,14.692591],[120.955098,14.692612],[120.955092,14.692668],[120.955042,14.692748],[120.954935,14.693076],[120.954874,14.693173],[120.954846,14.693279],[120.954806,14.693335],[120.954731,14.693579],[120.954677,14.693663],[120.954602,14.693882],[120.954547,14.693965],[120.954526,14.694071],[120.954484,14.694101],[120.954481,14.694241],[120.954426,14.694309],[120.954377,14.694424]]]]}}]}
