{"type":"FeatureCollection","features":[{"type":"Feature","properties":{"codes":["R-2-BASIC","R-2-MAX"],"name":"R-2 Basic or R-2 Max","color":"#ffffb4"},"geometry":{"type":"MultiPolygon","coordinates":[[[[120.955683,14.65493],[120.956,14.654934],[120.956,14.656583],[120.956,14.6574],[120.955831,14.657805],[120.955551,14.658478],[120.955032,14.658475],[120.95484,14.658483],[120.954781,14.658489],[120.954646,14.658528],[120.954424,14.658629],[120.954345,14.658659],[120.95433,14.658659],[120.954145,14.658569],[120.953435,14.658197],[120.953198,14.658089],[120.953183,14.658065],[120.953185,14.658022],[120.953193,14.657994],[120.953183,14.657967],[120.953157,14.657941],[120.953113,14.657918],[120.953006,14.657876],[120.952975,14.657859],[120.95296,14.657845],[120.952956,14.657825],[120.952938,14.657825],[120.952923,14.657832],[120.952892,14.657827],[120.952846,14.657808],[120.952645,14.657701],[120.952577,14.657671],[120.952553,14.657669],[120.952509,14.657639],[120.952342,14.657565],[120.952254,14.65752],[120.952236,14.657503],[120.952241,14.657477],[120.952305,14.657376],[120.952471,14.657004],[120.952556,14.656856],[120.952667,14.656703],[120.952766,14.656512],[120.952794,14.656486],[120.952805,14.656467],[120.952809,14.656446],[120.952805,14.656365],[120.952813,14.656338],[120.952874,14.656241],[120.952887,14.656188],[120.953046,14.65597],[120.953074,14.65597],[120.953105,14.65596],[120.953153,14.655918],[120.953198,14.655828],[120.953309,14.6557],[120.953329,14.655663],[120.953342,14.655625],[120.953347,14.655584],[120.953344,14.655552],[120.953331,14.655529],[120.953311,14.655515],[120.953255,14.655502],[120.953212,14.655478],[120.953195,14.655461],[120.953173,14.655415],[120.953107,14.655205],[120.953027,14.654908],[120.953188,14.654732],[120.9533,14.654597],[120.953322,14.654559],[120.95335,14.654481],[120.953391,14.654416],[120.953421,14.654352],[120.953436,14.654242],[120.953983,14.654257],[120.954129,14.654269],[120.954146,14.654276],[120.954164,14.654296],[120.954159,14.654323],[120.954168,14.654344],[120.954247,14.654379],[120.954353,14.654448],[120.95439,14.654458],[120.954417,14.654472],[120.954605,14.654619],[120.954646,14.654644],[120.954681,14.654659],[120.954708,14.654661],[120.954874,14.654709],[120.955331,14.654859],[120.955516,14.654912],[120.955683,14.65493]],[[120.952818,14.657659],[120.952827,14.657683],[120.952848,14.657705],[120.952891,14.657729],[120.95299,14.657767],[120.953002,14.657719],[120.952996,14.657693],[120.952976,14.657674],[120.95287,14.657623],[120.952853,14.657608],[120.952849,14.657595],[120.952868,14.657559],[120.952862,14.657535],[120.95285,14.657523],[120.952803,14.657495],[120.95274,14.657473],[120.952717,14.657473],[120.952696,14.657484],[120.952668,14.657516],[120.952756,14.657559],[120.952795,14.657585],[120.952813,14.657608],[120.952821,14.657633],[120.952818,14.657659]],[[120.95305,14.657653],[120.953187,14.657674],[120.953212,14.65767],[120.95323,14.657658],[120.953247,14.657626],[120.953164,14.657588],[120.953124,14.657576],[120.9531,14.65758],[120.953078,14.657599],[120.95305,14.657653]],[[120.953023,14.657393],[120.953119,14.657432],[120.953145,14.65743],[120.953171,14.657411],[120.95321,14.657358],[120.95321,14.657336],[120.95319,14.657317],[120.953148,14.657293],[120.953003,14.657222],[120.952935,14.657201],[120.952884,14.657198],[120.952843,14.657222],[120.952798,14.657297],[120.952885,14.657349],[120.952899,14.657366],[120.952911,14.657414],[120.952923,14.657416],[120.952967,14.657396],[120.952994,14.657391],[120.953023,14.657393]]]]}},{"type":"Feature","properties":{"codes":["C-2"],"name":"C-2","color":"#ff0000"},"geometry":{"type":"MultiPolygon","coordinates":[[[[120.952366,14.652154],[120.952632,14.652047],[120.953,14.6519],[120.954056,14.652674],[120.954966,14.653341],[120.956,14.6541],[120.956,14.6544],[120.956,14.65445],[120.956,14.654934],[120.955683,14.65493],[120.955516,14.654912],[120.955331,14.654859],[120.954874,14.654709],[120.954708,14.654661],[120.954681,14.654659],[120.954646,14.654644],[120.954605,14.654619],[120.954417,14.654472],[120.95439,14.654458],[120.954353,14.654448],[120.954247,14.654379],[120.954168,14.654344],[120.954159,14.654323],[120.954164,14.654296],[120.954146,14.654276],[120.954129,14.654269],[120.953983,14.654257],[120.953436,14.654242],[120.953299,14.654098],[120.953301,14.653909],[120.953297,14.653813],[120.953288,14.653744],[120.953239,14.653573],[120.953216,14.653441],[120.953209,14.653367],[120.953161,14.653316],[120.95307,14.653289],[120.952937,14.653285],[120.952763,14.653305],[120.952612,14.653309],[120.952486,14.653296],[120.952384,14.653266],[120.952306,14.65322],[120.952205,14.653185],[120.952083,14.653163],[120.951896,14.653152],[120.951525,14.653154],[120.951801,14.652658],[120.952,14.6523],[120.952366,14.652154]]],[[[120.950167,14.655562],[120.949946,14.65556],[120.94997,14.655487],[120.94998,14.655457],[120.95,14.6554],[120.950075,14.655303],[120.950412,14.654865],[120.950523,14.654723],[120.950711,14.65473],[120.950903,14.654793],[120.951161,14.654912],[120.951506,14.65509],[120.952745,14.65577],[120.952988,14.655915],[120.953024,14.655943],[120.953046,14.65597],[120.952887,14.656188],[120.952617,14.656046],[120.952421,14.655949],[120.952375,14.655932],[120.952312,14.655917],[120.952259,14.655886],[120.952178,14.655872],[120.95217,14.655863],[120.952142,14.655881],[120.952132,14.655893],[120.9521,14.655995],[120.952047,14.656089],[120.952043,14.656121],[120.952088,14.656155],[120.952178,14.656208],[120.952766,14.656512],[120.952667,14.656703],[120.952556,14.656856],[120.952471,14.657004],[120.952305,14.657376],[120.952241,14.657477],[120.952236,14.657503],[120.952254,14.65752],[120.952342,14.657565],[120.952509,14.657639],[120.952553,14.657669],[120.952577,14.657671],[120.952645,14.657701],[120.952846,14.657808],[120.952892,14.657827],[120.952923,14.657832],[120.952938,14.657825],[120.952956,14.657825],[120.95296,14.657845],[120.952975,14.657859],[120.953006,14.657876],[120.953113,14.657918],[120.953157,14.657941],[120.953183,14.657967],[120.953193,14.657994],[120.953185,14.658022],[120.953183,14.658065],[120.953198,14.658089],[120.953435,14.658197],[120.954145,14.658569],[120.95433,14.658659],[120.954345,14.658659],[120.954424,14.658629],[120.954646,14.658528],[120.954781,14.658489],[120.95484,14.658483],[120.955032,14.658475],[120.955551,14.658478],[120.95524,14.659224],[120.955,14.6598],[120.954264,14.659358],[120.953,14.6586],[120.952269,14.658344],[120.951409,14.658043],[120.951,14.6579],[120.950979,14.657917],[120.950965,14.657921],[120.950987,14.657889],[120.951004,14.657876],[120.951022,14.657872],[120.951097,14.657877],[120.951142,14.657863],[120.951177,14.657833],[120.951192,14.657795],[120.951185,14.657733],[120.951162,14.657673],[120.951161,14.657605],[120.951155,14.657575],[120.95114,14.657539],[120.951086,14.657449],[120.951067,14.657402],[120.95106,14.657357],[120.95107,14.657302],[120.951109,14.657205],[120.951244,14.656907],[120.95146,14.656331],[120.951484,14.656281],[120.951509,14.656244],[120.951514,14.656212],[120.951498,14.656181],[120.951429,14.656122],[120.951359,14.656083],[120.950747,14.655786],[120.950445,14.655625],[120.950367,14.655594],[120.950283,14.655573],[120.950167,14.655562]],[[120.952944,14.658493],[120.953126,14.658554],[120.953211,14.658574],[120.95326,14.658572],[120.953293,14.658555],[120.953311,14.658524],[120.953335,14.658471],[120.953348,14.658401],[120.953177,14.658325],[120.953095,14.658305],[120.953044,14.658316],[120.953,14.658365],[120.952944,14.658493]],[[120.951648,14.657466],[120.951735,14.6575],[120.951981,14.65763],[120.952037,14.657652],[120.952074,14.657659],[120.952091,14.657649],[120.952129,14.657612],[120.952207,14.657502],[120.95219,14.657475],[120.952062,14.657397],[120.951666,14.657195],[120.951582,14.657158],[120.951533,14.657143],[120.951504,14.657171],[120.951481,14.657206],[120.951421,14.657316],[120.95138,14.657402],[120.951372,14.657429],[120.951372,14.657456],[120.951495,14.657527],[120.951544,14.657544],[120.951562,14.657544],[120.951589,14.657532],[120.951615,14.657489],[120.951648,14.657466]]]]}},{"type":"Feature","properties":{"codes":["C-3"],"name":"C-3","color":"#a80000"},"geometry":{"type":"MultiPolygon","coordinates":[[[[120.94986,14.655807],[120.94997,14.655487],[120.949946,14.65556],[120.950167,14.655562],[120.950283,14.655573],[120.950367,14.655594],[120.950445,14.655625],[120.950747,14.655786],[120.951359,14.656083],[120.951429,14.656122],[120.951498,14.656181],[120.951514,14.656212],[120.951509,14.656244],[120.951484,14.656281],[120.95146,14.656331],[120.951244,14.656907],[120.951109,14.657205],[120.951021,14.657199],[120.950928,14.657176],[120.950633,14.657073],[120.95042,14.656993],[120.950222,14.656932],[120.950039,14.656891],[120.949834,14.656869],[120.949494,14.656866],[120.94986,14.655807]]]]}},{"type":"Feature","properties":{"codes":["I-1"],"name":"I-1","color":"#c500ff"},"geometry":{"type":"MultiPolygon","coordinates":[[[[120.950711,14.65473],[120.950523,14.654723],[120.950412,14.654865],[120.950792,14.65437],[120.951,14.6541],[120.951313,14.653537],[120.951517,14.653735],[120.951664,14.653847],[120.951817,14.653951],[120.95182,14.654134],[120.95184,14.654237],[120.951875,14.654331],[120.951893,14.65437],[120.951931,14.654429],[120.952043,14.654523],[120.952253,14.654674],[120.952454,14.654803],[120.952538,14.654849],[120.952676,14.65491],[120.952777,14.654942],[120.952851,14.654948],[120.952938,14.654934],[120.953027,14.654908],[120.953107,14.655205],[120.953173,14.655415],[120.953195,14.655461],[120.953212,14.655478],[120.953255,14.655502],[120.953311,14.655515],[120.953331,14.655529],[120.953344,14.655552],[120.953347,14.655584],[120.953342,14.655625],[120.953329,14.655663],[120.953309,14.6557],[120.953198,14.655828],[120.953153,14.655918],[120.953105,14.65596],[120.953074,14.65597],[120.953046,14.65597],[120.953024,14.655943],[120.952988,14.655915],[120.952745,14.65577],[120.951506,14.65509],[120.951161,14.654912],[120.950903,14.654793],[120.950711,14.65473]]]]}},{"type":"Feature","properties":{"codes":["INSTITUTIONAL"],"name":"Institutional","color":"#0000ff"},"geometry":{"type":"MultiPolygon","coordinates":[[[[120.952937,14.653285],[120.95307,14.653289],[120.953161,14.653316],[120.953209,14.653367],[120.953216,14.653441],[120.953239,14.653573],[120.953288,14.653744],[120.953297,14.653813],[120.953301,14.653909],[120.953299,14.654098],[120.953145,14.654096],[120.95305,14.654081],[120.952963,14.654052],[120.952867,14.654008],[120.952677,14.653906],[120.952571,14.653862],[120.952509,14.653867],[120.952282,14.653919],[120.952104,14.653947],[120.952,14.653952],[120.951817,14.653951],[120.951664,14.653847],[120.951517,14.653735],[120.951313,14.653537],[120.951525,14.653154],[120.951896,14.653152],[120.952083,14.653163],[120.952205,14.653185],[120.952306,14.65322],[120.952384,14.653266],[120.952486,14.653296],[120.952612,14.653309],[120.952763,14.653305],[120.952937,14.653285]]],[[[120.952421,14.655949],[120.952617,14.656046],[120.952887,14.656188],[120.952874,14.656241],[120.952813,14.656338],[120.952805,14.656365],[120.952809,14.656446],[120.952805,14.656467],[120.952794,14.656486],[120.952766,14.656512],[120.952178,14.656208],[120.952088,14.656155],[120.952043,14.656121],[120.952047,14.656089],[120.9521,14.655995],[120.952132,14.655893],[120.952142,14.655881],[120.95217,14.655863],[120.952178,14.655872],[120.952259,14.655886],[120.952312,14.655917],[120.952375,14.655932],[120.952421,14.655949]]],[[[120.952885,14.657349],[120.952798,14.657297],[120.952843,14.657222],[120.952884,14.657198],[120.952935,14.657201],[120.953003,14.657222],[120.953148,14.657293],[120.95319,14.657317],[120.95321,14.657336],[120.95321,14.657358],[120.953171,14.657411],[120.953145,14.65743],[120.953119,14.657432],[120.953023,14.657393],[120.952994,14.657391],[120.952967,14.657396],[120.952923,14.657416],[120.952911,14.657414],[120.952899,14.657366],[120.952885,14.657349]]],[[[120.951372,14.657429],[120.95138,14.657402],[120.951421,14.657316],[120.951481,14.657206],[120.951504,14.657171],[120.951533,14.657143],[120.951582,14.657158],[120.951666,14.657195],[120.952062,14.657397],[120.95219,14.657475],[120.952207,14.657502],[120.952129,14.657612],[120.952091,14.657649],[120.952074,14.657659],[120.952037,14.657652],[120.951981,14.65763],[120.951735,14.6575],[120.951648,14.657466],[120.951615,14.657489],[120.951589,14.657532],[120.951562,14.657544],[120.951544,14.657544],[120.951495,14.657527],[120.951372,14.657456],[120.951372,14.657429]]],[[[120.949796,14.65756],[120.949259,14.657552],[120.949214,14.65768],[120.949323,14.657364],[120.949494,14.656866],[120.949834,14.656869],[120.950039,14.656891],[120.950222,14.656932],[120.95042,14.656993],[120.950633,14.657073],[120.950928,14.657176],[120.951021,14.657199],[120.951109,14.657205],[120.95107,14.657302],[120.95106,14.657357],[120.951067,14.657402],[120.951086,14.657449],[120.95114,14.657539],[120.951155,14.657575],[120.951161,14.657605],[120.951162,14.657673],[120.951185,14.657733],[120.951192,14.657795],[120.951177,14.657833],[120.951142,14.657863],[120.951097,14.657877],[120.951022,14.657872],[120.951004,14.657876],[120.950987,14.657889],[120.950965,14.657921],[120.950979,14.657917],[120.950671,14.658163],[120.950609,14.658213],[120.950616,14.657996],[120.950606,14.657903],[120.950597,14.657867],[120.950559,14.657831],[120.950493,14.657796],[120.950399,14.657761],[120.950183,14.657696],[120.950118,14.657671],[120.950082,14.657649],[120.950075,14.657633],[120.95006,14.657617],[120.950036,14.657602],[120.949966,14.657577],[120.949796,14.65756]]],[[[120.95285,14.657523],[120.952862,14.657535],[120.952868,14.657559],[120.952849,14.657595],[120.952853,14.657608],[120.95287,14.657623],[120.952976,14.657674],[120.952996,14.657693],[120.953002,14.657719],[120.95299,14.657767],[120.952891,14.657729],[120.952848,14.657705],[120.952827,14.657683],[120.952818,14.657659],[120.952821,14.657633],[120.952813,14.657608],[120.952795,14.657585],[120.952756,14.657559],[120.952668,14.657516],[120.952696,14.657484],[120.952717,14.657473],[120.95274,14.657473],[120.952803,14.657495],[120.95285,14.657523]]],[[[120.953247,14.657626],[120.95323,14.657658],[120.953212,14.65767],[120.953187,14.657674],[120.95305,14.657653],[120.953078,14.657599],[120.9531,14.65758],[120.953124,14.657576],[120.953164,14.657588],[120.953247,14.657626]]],[[[120.953311,14.658524],[120.953293,14.658555],[120.95326,14.658572],[120.953211,14.658574],[120.953126,14.658554],[120.952944,14.658493],[120.953,14.658365],[120.953044,14.658316],[120.953095,14.658305],[120.953177,14.658325],[120.953348,14.658401],[120.953335,14.658471],[120.953311,14.658524]]]]}},{"type":"Feature","properties":{"codes":["PARKS"],"name":"Parks and Recreation","color":"#38a800"},"geometry":{"type":"MultiPolygon","coordinates":[[[[120.953421,14.654352],[120.953391,14.654416],[120.95335,14.654481],[120.953322,14.654559],[120.9533,14.654597],[120.953188,14.654732],[120.953027,14.654908],[120.952938,14.654934],[120.952851,14.654948],[120.952777,14.654942],[120.952676,14.65491],[120.952538,14.654849],[120.952454,14.654803],[120.952253,14.654674],[120.952043,14.654523],[120.951931,14.654429],[120.951893,14.65437],[120.951875,14.654331],[120.95184,14.654237],[120.95182,14.654134],[120.951817,14.653951],[120.952,14.653952],[120.952104,14.653947],[120.952282,14.653919],[120.952509,14.653867],[120.952571,14.653862],[120.952677,14.653906],[120.952867,14.654008],[120.952963,14.654052],[120.95305,14.654081],[120.953145,14.654096],[120.953299,14.654098],[120.953436,14.654242],[120.953421,14.654352]]],[[[120.950399,14.657761],[120.950493,14.657796],[120.950559,14.657831],[120.950597,14.657867],[120.950606,14.657903],[120.950616,14.657996],[120.950609,14.658213],[120.95025,14.6585],[120.95,14.6587],[120.949664,14.658566],[120.949008,14.658303],[120.949,14.6583],[120.949012,14.658266],[120.949214,14.65768],[120.949259,14.657552],[120.949796,14.65756],[120.949966,14.657577],[120.950036,14.657602],[120.95006,14.657617],[120.950075,14.657633],[120.950082,14.657649],[120.950118,14.657671],[120.950183,14.657696],[120.950399,14.657761]]]]}}]}
