{"type":"FeatureCollection","features":[{"type":"Feature","properties":{"codes":["R-2-BASIC","R-2-MAX"],"name":"R-2 Basic or R-2 Max","color":"#ffffb4"},"geometry":{"type":"MultiPolygon","coordinates":[[[[120.971765,14.671344],[120.971914,14.671408],[120.972021,14.671424],[120.97217,14.671472],[120.972193,14.671518],[120.972198,14.671623],[120.972192,14.671682],[120.972174,14.671726],[120.972171,14.671974],[120.972143,14.67206],[120.972159,14.672088],[120.972164,14.672121],[120.972157,14.672223],[120.972148,14.672283],[120.972111,14.672368],[120.972095,14.672635],[120.972078,14.672674],[120.972093,14.672737],[120.972089,14.672877],[120.972075,14.672956],[120.972049,14.673001],[120.972073,14.673062],[120.972081,14.673162],[120.97207,14.673284],[120.97206,14.67332],[120.972042,14.673347],[120.972062,14.673409],[120.972063,14.673456],[120.972026,14.673574],[120.972042,14.673678],[120.972036,14.673789],[120.972026,14.673835],[120.972011,14.673865],[120.971991,14.67388],[120.971965,14.67388],[120.971914,14.673866],[120.971817,14.673811],[120.971778,14.673807],[120.971724,14.673854],[120.971595,14.67403],[120.971458,14.674153],[120.971227,14.674305],[120.971115,14.674357],[120.971023,14.674385],[120.970945,14.674396],[120.97088,14.674387],[120.970772,14.67433],[120.970653,14.6743],[120.970119,14.674103],[120.969965,14.674057],[120.969459,14.673938],[120.969408,14.673917],[120.969375,14.673889],[120.969364,14.673889],[120.969343,14.673931],[120.969326,14.673944],[120.969273,14.67396],[120.968962,14.673986],[120.968811,14.674015],[120.968768,14.674038],[120.968717,14.674088],[120.968682,14.674102],[120.96864,14.674109],[120.968556,14.674106],[120.96852,14.674097],[120.968515,14.674081],[120.968502,14.674079],[120.968389,14.674113],[120.968318,14.67412],[120.968228,14.674096],[120.968143,14.67409],[120.968096,14.674098],[120.968054,14.67413],[120.968011,14.674129],[120.967958,14.674105],[120.967942,14.674054],[120.967928,14.673965],[120.967895,14.673538],[120.967879,14.673448],[120.96786,14.673397],[120.967838,14.673386],[120.967741,14.673394],[120.967574,14.67344],[120.967436,14.67349],[120.967308,14.673561],[120.967195,14.673582],[120.967156,14.673602],[120.967139,14.673626],[120.967119,14.673637],[120.966871,14.673708],[120.966787,14.673741],[120.966768,14.673755],[120.966718,14.673765],[120.966525,14.673769],[120.966166,14.673747],[120.965995,14.673708],[120.96571,14.673669],[120.965664,14.673654],[120.965595,14.673618],[120.965579,14.6736],[120.965574,14.673582],[120.965601,14.673537],[120.965775,14.67336],[120.96585,14.673257],[120.965926,14.673195],[120.965933,14.673164],[120.965973,14.673135],[120.965971,14.673115],[120.966007,14.673102],[120.966014,14.673072],[120.96608,14.673003],[120.966082,14.672961],[120.966041,14.672899],[120.966033,14.672849],[120.966088,14.672777],[120.966129,14.672669],[120.966187,14.672577],[120.966195,14.67253],[120.966227,14.672451],[120.966229,14.6723],[120.966242,14.672242],[120.966272,14.672187],[120.966319,14.672134],[120.966433,14.672047],[120.966499,14.67201],[120.966551,14.672029],[120.966599,14.672074],[120.966634,14.672122],[120.966675,14.672233],[120.966779,14.67242],[120.966815,14.672511],[120.966836,14.672533],[120.966867,14.672645],[120.966915,14.672731],[120.966952,14.672839],[120.966972,14.672861],[120.966991,14.672859],[120.966999,14.672843],[120.967016,14.672834],[120.967082,14.672828],[120.967088,14.672815],[120.967103,14.672808],[120.967332,14.672766],[120.967427,14.672719],[120.967528,14.672694],[120.967555,14.672676],[120.968136,14.672631],[120.968136,14.672623],[120.968157,14.672613],[120.968197,14.672599],[120.968444,14.672529],[120.968511,14.672492],[120.968665,14.672441],[120.968713,14.672403],[120.968769,14.672411],[120.96891,14.672365],[120.968965,14.67236],[120.968986,14.672336],[120.96908,14.67229],[120.969125,14.672238],[120.969168,14.672146],[120.969175,14.672099],[120.969201,14.672064],[120.969267,14.672068],[120.969496,14.672137],[120.969504,14.672161],[120.969517,14.672172],[120.969679,14.672195],[120.969891,14.672271],[120.969939,14.672282],[120.969985,14.672259],[120.97003,14.6722],[120.970073,14.672106],[120.970151,14.671879],[120.970205,14.671774],[120.970247,14.671763],[120.970257,14.671779],[120.970326,14.671777],[120.970367,14.671798],[120.9704,14.671801],[120.970448,14.671779],[120.970481,14.671748],[120.970494,14.671686],[120.970541,14.671579],[120.970654,14.671229],[120.970742,14.671257],[120.970815,14.671307],[120.970967,14.671337],[120.970988,14.671358],[120.97101,14.671367],[120.971123,14.6714],[120.971199,14.671441],[120.971253,14.671449],[120.97129,14.67145],[120.971322,14.671438],[120.97135,14.671415],[120.971439,14.671247],[120.971478,14.671236],[120.971516,14.671239],[120.971611,14.671276],[120.971698,14.671335],[120.971765,14.671344]]]]}},{"type":"Feature","properties":{"codes":["C-1"],"name":"C-1","color":"#ff7f7f"},"geometry":{"type":"MultiPolygon","coordinates":[[[[120.969606,14.671592],[120.969609,14.671669],[120.969582,14.671815],[120.969496,14.672137],[120.969267,14.672068],[120.969201,14.672064],[120.969175,14.672099],[120.969168,14.672146],[120.969125,14.672238],[120.96908,14.67229],[120.968986,14.672336],[120.968965,14.67236],[120.96891,14.672365],[120.968769,14.672411],[120.968713,14.672403],[120.968705,14.672362],[120.968711,14.672322],[120.968754,14.672252],[120.968851,14.671991],[120.968877,14.671949],[120.968903,14.671925],[120.968964,14.671913],[120.968977,14.671899],[120.968989,14.671808],[120.969062,14.671648],[120.969121,14.671479],[120.96914,14.67139],[120.969128,14.671315],[120.96916,14.671246],[120.969222,14.671049],[120.969282,14.670927],[120.969293,14.670874],[120.969315,14.670849],[120.969323,14.670802],[120.969336,14.670792],[120.969026,14.67065],[120.968788,14.670559],[120.968442,14.670451],[120.968388,14.670425],[120.968227,14.670394],[120.968143,14.670348],[120.967728,14.670197],[120.967641,14.670152],[120.96756,14.670136],[120.967368,14.670058],[120.967144,14.669993],[120.967138,14.669911],[120.967217,14.669711],[120.96724,14.669611],[120.967264,14.669585],[120.967303,14.669494],[120.967336,14.669443],[120.967353,14.66943],[120.9674,14.669431],[120.967686,14.669534],[120.968086,14.669652],[120.968243,14.669718],[120.968296,14.669753],[120.968452,14.669801],[120.968577,14.669866],[120.968736,14.669908],[120.969211,14.670088],[120.969715,14.670247],[120.969762,14.67027],[120.969814,14.670321],[120.970001,14.670347],[120.970183,14.670419],[120.970455,14.670496],[120.970473,14.67052],[120.970557,14.670539],[120.97063,14.670577],[120.970793,14.670613],[120.970904,14.670664],[120.970961,14.670708],[120.971021,14.670735],[120.971203,14.670782],[120.971752,14.670984],[120.97215,14.671112],[120.97223,14.671153],[120.972246,14.671185],[120.972237,14.671306],[120.972219,14.6714],[120.97217,14.671472],[120.972021,14.671424],[120.971914,14.671408],[120.971765,14.671344],[120.971698,14.671335],[120.971611,14.671276],[120.971516,14.671239],[120.971478,14.671236],[120.971439,14.671247],[120.97135,14.671415],[120.971322,14.671438],[120.97129,14.67145],[120.971253,14.671449],[120.971199,14.671441],[120.971123,14.6714],[120.97101,14.671367],[120.970988,14.671358],[120.970967,14.671337],[120.970815,14.671307],[120.970742,14.671257],[120.970654,14.671229],[120.970484,14.671157],[120.970401,14.671139],[120.970387,14.671118],[120.970342,14.671118],[120.970188,14.671055],[120.970138,14.671043],[120.970116,14.671046],[120.970064,14.671],[120.970019,14.670996],[120.969799,14.670908],[120.969668,14.670873],[120.969633,14.670879],[120.9696,14.670941],[120.969594,14.670992],[120.969565,14.671037],[120.969475,14.671302],[120.969452,14.671354],[120.9694,14.671422],[120.96939,14.671449],[120.969412,14.671482],[120.969445,14.671503],[120.969583,14.671548],[120.969606,14.671592]]]]}},{"type":"Feature","properties":{"codes":["C-2"],"name":"C-2","color":"#ff0000"},"geometry":{"type":"MultiPolygon","coordinates":[[[[120.964978,14.667937],[120.965,14.6679],[120.965189,14.667938],[120.965762,14.668052],[120.966,14.6681],[120.966741,14.668354],[120.969892,14.669434],[120.971025,14.669823],[120.970683,14.669709],[120.970682,14.669838],[120.970659,14.669969],[120.970548,14.670225],[120.970455,14.670496],[120.970183,14.670419],[120.970001,14.670347],[120.969814,14.670321],[120.969762,14.67027],[120.969715,14.670247],[120.969211,14.670088],[120.968736,14.669908],[120.968577,14.669866],[120.968452,14.669801],[120.968296,14.669753],[120.968243,14.669718],[120.968086,14.669652],[120.967686,14.669534],[120.9674,14.669431],[120.967353,14.66943],[120.967336,14.669443],[120.967303,14.669494],[120.967264,14.669585],[120.96724,14.669611],[120.967217,14.669711],[120.967138,14.669911],[120.967144,14.669993],[120.967081,14.67002],[120.967029,14.670079],[120.966997,14.670092],[120.966953,14.670084],[120.96692,14.670067],[120.966751,14.669966],[120.966687,14.669951],[120.966603,14.669949],[120.966026,14.669949],[120.965834,14.669957],[120.965698,14.669972],[120.965617,14.669994],[120.965565,14.670044],[120.965518,14.670065],[120.965476,14.67006],[120.965411,14.670006],[120.965359,14.669992],[120.965309,14.670008],[120.965283,14.670028],[120.965264,14.670056],[120.965173,14.670041],[120.965137,14.670049],[120.965126,14.67006],[120.965085,14.670117],[120.965079,14.670181],[120.965095,14.670237],[120.96516,14.670354],[120.965165,14.670394],[120.965157,14.670424],[120.965109,14.670498],[120.965073,14.670588],[120.965044,14.670696],[120.965025,14.670816],[120.964999,14.670894],[120.96498,14.670912],[120.964938,14.670915],[120.964856,14.670879],[120.96482,14.670876],[120.964769,14.670938],[120.964631,14.671216],[120.9646,14.671229],[120.96454,14.671227],[120.964524,14.671254],[120.964486,14.671282],[120.964439,14.671447],[120.964396,14.671559],[120.964315,14.671921],[120.964276,14.671948],[120.964196,14.671964],[120.96415,14.671993],[120.964132,14.672014],[120.964105,14.672079],[120.964083,14.67221],[120.964066,14.672237],[120.964043,14.672252],[120.96398,14.672255],[120.963801,14.672224],[120.96377,14.672243],[120.96375,14.672244],[120.96373,14.672268],[120.963696,14.672367],[120.963655,14.672407],[120.963621,14.672502],[120.963591,14.672542],[120.963562,14.672626],[120.963518,14.672649],[120.963435,14.672665],[120.963398,14.672698],[120.963376,14.672783],[120.963353,14.672829],[120.963377,14.672909],[120.96336,14.673014],[120.963326,14.673089],[120.963287,14.673115],[120.963236,14.67313],[120.963205,14.673165],[120.963174,14.673401],[120.96318,14.673466],[120.963199,14.673509],[120.963233,14.673531],[120.963363,14.673526],[120.963427,14.673514],[120.96345,14.673528],[120.963466,14.673562],[120.963476,14.673636],[120.963483,14.673803],[120.963275,14.673845],[120.962834,14.673929],[120.962841,14.673687],[120.962853,14.673633],[120.962911,14.673505],[120.962926,14.673444],[120.962965,14.673166],[120.963009,14.673072],[120.963057,14.672937],[120.963108,14.672858],[120.96314,14.672765],[120.963202,14.672676],[120.963286,14.672592],[120.963298,14.672563],[120.963327,14.672525],[120.963659,14.672171],[120.963769,14.672026],[120.963833,14.671897],[120.963895,14.671812],[120.963903,14.671778],[120.963944,14.671732],[120.963961,14.671683],[120.96401,14.671632],[120.964053,14.671547],[120.964074,14.671528],[120.964094,14.671469],[120.964136,14.671408],[120.964144,14.671365],[120.964202,14.671307],[120.964242,14.671229],[120.964292,14.671175],[120.96431,14.671086],[120.964388,14.670977],[120.9644,14.670907],[120.964439,14.67088],[120.964496,14.670804],[120.964508,14.670755],[120.964506,14.670707],[120.964525,14.670696],[120.964557,14.670629],[120.964623,14.670539],[120.964657,14.670454],[120.964687,14.670417],[120.964685,14.670389],[120.964705,14.670384],[120.964727,14.670352],[120.964731,14.670305],[120.96477,14.670275],[120.964796,14.670238],[120.964808,14.670145],[120.964774,14.669961],[120.964768,14.669871],[120.964699,14.669701],[120.964668,14.669553],[120.964645,14.669528],[120.964634,14.669503],[120.964569,14.669318],[120.964558,14.669303],[120.964478,14.669285],[120.964189,14.669279],[120.964844,14.668166],[120.964892,14.668084],[120.964978,14.667937]]],[[[120.971036,14.669827],[120.97222,14.670233],[120.973,14.6705],[120.97296,14.670796],[120.972905,14.671206],[120.972246,14.671185],[120.97223,14.671153],[120.97215,14.671112],[120.971752,14.670984],[120.971203,14.670782],[120.971021,14.670735],[120.970961,14.670708],[120.970904,14.670664],[120.970793,14.670613],[120.970817,14.670597],[120.970836,14.670508],[120.970995,14.670087],[120.971035,14.669923],[120.971036,14.669827]]]]}},{"type":"Feature","properties":{"codes":["CBD"],"name":"CBD","color":"#e60000"},"geometry":{"type":"MultiPolygon","coordinates":[[[[120.964,14.669832],[120.964,14.6696],[120.96407,14.669481],[120.964189,14.669279],[120.964478,14.669285],[120.964558,14.669303],[120.964569,14.669318],[120.964634,14.669503],[120.964645,14.669528],[120.964668,14.669553],[120.964699,14.669701],[120.964768,14.669871],[120.964774,14.669961],[120.964808,14.670145],[120.964796,14.670238],[120.96477,14.670275],[120.964731,14.670305],[120.964727,14.670352],[120.964705,14.670384],[120.964685,14.670389],[120.964687,14.670417],[120.964657,14.670454],[120.964623,14.670539],[120.964557,14.670629],[120.964525,14.670696],[120.964506,14.670707],[120.964508,14.670755],[120.964496,14.670804],[120.964439,14.67088],[120.9644,14.670907],[120.964388,14.670977],[120.96431,14.671086],[120.964292,14.671175],[120.964242,14.671229],[120.964202,14.671307],[120.964144,14.671365],[120.964136,14.671408],[120.964094,14.671469],[120.964074,14.671528],[120.964053,14.671547],[120.96401,14.671632],[120.963961,14.671683],[120.963944,14.671732],[120.963903,14.671778],[120.963895,14.671812],[120.963833,14.671897],[120.963769,14.672026],[120.963659,14.672171],[120.963327,14.672525],[120.963298,14.672563],[120.963286,14.672592],[120.963202,14.672676],[120.96314,14.672765],[120.963108,14.672858],[120.963057,14.672937],[120.963009,14.673072],[120.962965,14.673166],[120.962926,14.673444],[120.962911,14.673505],[120.962853,14.673633],[120.962841,14.673687],[120.962834,14.673929],[120.963275,14.673845],[120.961,14.6743],[120.961,14.674082],[120.961,14.673905],[120.961,14.6737],[120.961353,14.673559],[120.962,14.6733],[120.96261,14.672477],[120.962755,14.672281],[120.962893,14.672095],[120.963014,14.671931],[120.963142,14.671758],[120.963278,14.671575],[120.963426,14.671375],[120.963604,14.671134],[120.963707,14.670996],[120.963853,14.670798],[120.963913,14.670718],[120.963942,14.670679],[120.964,14.6706],[120.964,14.669832]]]]}},{"type":"Feature","properties":{"codes":["I-2"],"name":"I-2","color":"#a900e6"},"geometry":{"type":"MultiPolygon","coordinates":[[[[120.9647,14.67461],[120.964584,14.674459],[120.964108,14.673841],[120.964105,14.673836],[120.964,14.6737],[120.963483,14.673803],[120.963476,14.673636],[120.963466,14.673562],[120.96345,14.673528],[120.963427,14.673514],[120.963363,14.673526],[120.963233,14.673531],[120.963199,14.673509],[120.96318,14.673466],[120.963174,14.673401],[120.963205,14.673165],[120.963236,14.67313],[120.963287,14.673115],[120.963326,14.673089],[120.96336,14.673014],[120.963377,14.672909],[120.963353,14.672829],[120.963376,14.672783],[120.963398,14.672698],[120.963435,14.672665],[120.963518,14.672649],[120.963562,14.672626],[120.963591,14.672542],[120.963621,14.672502],[120.963655,14.672407],[120.963696,14.672367],[120.96373,14.672268],[120.96375,14.672244],[120.96377,14.672243],[120.963801,14.672224],[120.96398,14.672255],[120.964043,14.672252],[120.964066,14.672237],[120.964083,14.67221],[120.964105,14.672079],[120.964132,14.672014],[120.96415,14.671993],[120.964196,14.671964],[120.964276,14.671948],[120.964315,14.671921],[120.964396,14.671559],[120.964439,14.671447],[120.964486,14.671282],[120.964524,14.671254],[120.96454,14.671227],[120.9646,14.671229],[120.964631,14.671216],[120.964769,14.670938],[120.96482,14.670876],[120.964856,14.670879],[120.964938,14.670915],[120.96498,14.670912],[120.964999,14.670894],[120.965025,14.670816],[120.965044,14.670696],[120.965073,14.670588],[120.965109,14.670498],[120.965157,14.670424],[120.965165,14.670394],[120.96516,14.670354],[120.965095,14.670237],[120.965079,14.670181],[120.965085,14.670117],[120.965126,14.67006],[120.965137,14.670049],[120.965173,14.670041],[120.965264,14.670056],[120.965283,14.670028],[120.965309,14.670008],[120.965359,14.669992],[120.965411,14.670006],[120.965476,14.67006],[120.965518,14.670065],[120.965565,14.670044],[120.965617,14.669994],[120.965698,14.669972],[120.965834,14.669957],[120.966026,14.669949],[120.966603,14.669949],[120.966687,14.669951],[120.966751,14.669966],[120.96692,14.670067],[120.966953,14.670084],[120.966997,14.670092],[120.967029,14.670079],[120.967081,14.67002],[120.967144,14.669993],[120.967368,14.670058],[120.96756,14.670136],[120.967641,14.670152],[120.967728,14.670197],[120.968143,14.670348],[120.968227,14.670394],[120.968388,14.670425],[120.968442,14.670451],[120.968788,14.670559],[120.969026,14.67065],[120.969336,14.670792],[120.969323,14.670802],[120.969315,14.670849],[120.969293,14.670874],[120.969282,14.670927],[120.969222,14.671049],[120.96916,14.671246],[120.969128,14.671315],[120.96914,14.67139],[120.969121,14.671479],[120.969062,14.671648],[120.968989,14.671808],[120.968977,14.671899],[120.968964,14.671913],[120.968903,14.671925],[120.968877,14.671949],[120.968851,14.671991],[120.968754,14.672252],[120.968711,14.672322],[120.968705,14.672362],[120.968713,14.672403],[120.968665,14.672441],[120.968511,14.672492],[120.968444,14.672529],[120.968197,14.672599],[120.968157,14.672613],[120.968136,14.672623],[120.968136,14.672631],[120.967555,14.672676],[120.967528,14.672694],[120.967427,14.672719],[120.967332,14.672766],[120.967103,14.672808],[120.967088,14.672815],[120.967082,14.672828],[120.967016,14.672834],[120.966999,14.672843],[120.966991,14.672859],[120.966972,14.672861],[120.966952,14.672839],[120.966915,14.672731],[120.966867,14.672645],[120.966836,14.672533],[120.966815,14.672511],[120.966779,14.67242],[120.966675,14.672233],[120.966634,14.672122],[120.966599,14.672074],[120.966551,14.672029],[120.966499,14.67201],[120.966433,14.672047],[120.966319,14.672134],[120.966272,14.672187],[120.966242,14.672242],[120.966229,14.6723],[120.966227,14.672451],[120.966195,14.67253],[120.966187,14.672577],[120.966129,14.672669],[120.966088,14.672777],[120.966033,14.672849],[120.966041,14.672899],[120.966082,14.672961],[120.96608,14.673003],[120.966014,14.673072],[120.966007,14.673102],[120.965971,14.673115],[120.965973,14.673135],[120.965933,14.673164],[120.965926,14.673195],[120.96585,14.673257],[120.965775,14.67336],[120.965601,14.673537],[120.965574,14.673582],[120.965579,14.6736],[120.965595,14.673618],[120.965664,14.673654],[120.96571,14.673669],[120.965995,14.673708],[120.966166,14.673747],[120.966525,14.673769],[120.966718,14.673765],[120.966768,14.673755],[120.966787,14.673741],[120.966871,14.673708],[120.967119,14.673637],[120.967139,14.673626],[120.967156,14.673602],[120.967195,14.673582],[120.967308,14.673561],[120.967436,14.67349],[120.967574,14.67344],[120.967741,14.673394],[120.967838,14.673386],[120.96786,14.673397],[120.967879,14.673448],[120.967895,14.673538],[120.967928,14.673965],[120.967942,14.674054],[120.967958,14.674105],[120.968011,14.674129],[120.968054,14.67413],[120.968096,14.674098],[120.968143,14.67409],[120.968228,14.674096],[120.968318,14.67412],[120.968389,14.674113],[120.968502,14.674079],[120.968515,14.674081],[120.96852,14.674097],[120.968556,14.674106],[120.96864,14.674109],[120.968682,14.674102],[120.968717,14.674088],[120.968768,14.674038],[120.968811,14.674015],[120.968962,14.673986],[120.969273,14.67396],[120.969326,14.673944],[120.969343,14.673931],[120.969364,14.673889],[120.969375,14.673889],[120.969408,14.673917],[120.969459,14.673938],[120.969965,14.674057],[120.970119,14.674103],[120.970653,14.6743],[120.970772,14.67433],[120.97088,14.674387],[120.970945,14.674396],[120.971023,14.674385],[120.971115,14.674357],[120.971227,14.674305],[120.971458,14.674153],[120.971595,14.67403],[120.971724,14.673854],[120.971778,14.673807],[120.971817,14.673811],[120.971914,14.673866],[120.971965,14.67388],[120.971991,14.67388],[120.972011,14.673865],[120.972026,14.673835],[120.972036,14.673789],[120.972042,14.673678],[120.972026,14.673574],[120.972063,14.673456],[120.972062,14.673409],[120.972042,14.673347],[120.97206,14.67332],[120.97207,14.673284],[120.972081,14.673162],[120.972073,14.673062],[120.972049,14.673001],[120.972075,14.672956],[120.972089,14.672877],[120.972093,14.672737],[120.972078,14.672674],[120.972095,14.672635],[120.972111,14.672368],[120.972148,14.672283],[120.972157,14.672223],[120.972164,14.672121],[120.972159,14.672088],[120.972143,14.67206],[120.972171,14.671974],[120.972174,14.671726],[120.972192,14.671682],[120.972198,14.671623],[120.972193,14.671518],[120.97217,14.671472],[120.972219,14.6714],[120.972237,14.671306],[120.972246,14.671185],[120.972905,14.671206],[120.972386,14.675045],[120.972,14.6779],[120.970898,14.678341],[120.970074,14.67867],[120.969,14.6791],[120.968273,14.678773],[120.967651,14.678493],[120.967,14.6782],[120.966797,14.677876],[120.965,14.675],[120.9647,14.67461]]]]}},{"type":"Feature","properties":{"codes":["INSTITUTIONAL"],"name":"Institutional","color":"#0000ff"},"geometry":{"type":"MultiPolygon","coordinates":[[[[120.971035,14.669923],[120.970995,14.670087],[120.970836,14.670508],[120.970817,14.670597],[120.970793,14.670613],[120.97063,14.670577],[120.970557,14.670539],[120.970473,14.67052],[120.970455,14.670496],[120.970548,14.670225],[120.970659,14.669969],[120.970682,14.669838],[120.970683,14.669709],[120.971025,14.669823],[120.971036,14.669827],[120.971035,14.669923]]],[[[120.970342,14.671118],[120.970387,14.671118],[120.970401,14.671139],[120.970484,14.671157],[120.970654,14.671229],[120.970541,14.671579],[120.970494,14.671686],[120.970481,14.671748],[120.970448,14.671779],[120.9704,14.671801],[120.970367,14.671798],[120.970326,14.671777],[120.970257,14.671779],[120.970247,14.671763],[120.970205,14.671774],[120.970151,14.671879],[120.970073,14.672106],[120.97003,14.6722],[120.969985,14.672259],[120.969939,14.672282],[120.969891,14.672271],[120.969679,14.672195],[120.969517,14.672172],[120.969504,14.672161],[120.969496,14.672137],[120.969582,14.671815],[120.969609,14.671669],[120.969606,14.671592],[120.969583,14.671548],[120.969445,14.671503],[120.969412,14.671482],[120.96939,14.671449],[120.9694,14.671422],[120.969452,14.671354],[120.969475,14.671302],[120.969565,14.671037],[120.969594,14.670992],[120.9696,14.670941],[120.969633,14.670879],[120.969668,14.670873],[120.969799,14.670908],[120.970019,14.670996],[120.970064,14.671],[120.970116,14.671046],[120.970138,14.671043],[120.970188,14.671055],[120.970342,14.671118]]]]}}]}
