{"type":"FeatureCollection","features":[{"type":"Feature","properties":{"codes":["R-2-BASIC","R-2-MAX"],"name":"R-2 Basic or R-2 Max","color":"#ffffb4"},"geometry":{"type":"MultiPolygon","coordinates":[[[[120.956647,14.661323],[120.956638,14.66135],[120.956761,14.661351],[120.956859,14.6614],[120.956933,14.6614],[120.95702,14.661234],[120.956996,14.661174],[120.956861,14.661137],[120.95685,14.661029],[120.956757,14.661006],[120.956926,14.660516],[120.957186,14.660518],[120.957185,14.660661],[120.957271,14.660674],[120.957613,14.660857],[120.957686,14.660953],[120.957784,14.661001],[120.957796,14.661037],[120.957758,14.661097],[120.957819,14.661157],[120.957744,14.661324],[120.958122,14.661566],[120.958378,14.661784],[120.958378,14.661844],[120.958315,14.661915],[120.95834,14.661963],[120.958536,14.662],[120.958548,14.662024],[120.958953,14.662028],[120.958989,14.662076],[120.959039,14.662029],[120.959223,14.662042],[120.959358,14.662008],[120.959677,14.662034],[120.959702,14.662011],[120.95996,14.662001],[120.96015,14.661405],[120.960164,14.661154],[120.96014,14.661106],[120.960166,14.661022],[120.959942,14.65998],[120.959968,14.659825],[120.962182,14.659474],[120.962205,14.65963],[120.962015,14.66025],[120.962285,14.660252],[120.962334,14.660288],[120.962395,14.660289],[120.962407,14.660361],[120.962455,14.660409],[120.962603,14.660398],[120.962688,14.660507],[120.962762,14.660507],[120.962811,14.66046],[120.962811,14.660424],[120.96291,14.660377],[120.963021,14.660378],[120.962933,14.660545],[120.962822,14.660627],[120.962784,14.660711],[120.962723,14.660734],[120.962673,14.660829],[120.962611,14.660853],[120.962611,14.660889],[120.962549,14.660924],[120.962486,14.661043],[120.962449,14.661054],[120.962423,14.66121],[120.962399,14.661209],[120.962361,14.661293],[120.962361,14.661365],[120.962471,14.661365],[120.96252,14.661414],[120.962643,14.661415],[120.962704,14.661463],[120.962802,14.661476],[120.96285,14.661512],[120.962961,14.661513],[120.963022,14.661562],[120.963132,14.661575],[120.963267,14.661659],[120.963353,14.66166],[120.963414,14.661708],[120.963524,14.661709],[120.963573,14.661758],[120.963683,14.661759],[120.963744,14.661807],[120.96383,14.661808],[120.963856,14.661629],[120.963834,14.661437],[120.96386,14.66127],[120.963853,14.660708],[120.963877,14.660696],[120.963853,14.660636],[120.963856,14.660302],[120.964311,14.660246],[120.964348,14.66027],[120.964394,14.660581],[120.96464,14.660596],[120.964552,14.659495],[120.964651,14.6594],[120.964761,14.659401],[120.964839,14.660322],[120.964836,14.660645],[120.964811,14.660681],[120.964749,14.660692],[120.964724,14.660788],[120.964687,14.660811],[120.96472,14.661158],[120.964707,14.661266],[120.964754,14.661445],[120.964775,14.661852],[120.964799,14.66196],[120.964836,14.661972],[120.964811,14.661996],[120.96481,14.662115],[120.964097,14.662181],[120.96406,14.662204],[120.963863,14.662203],[120.963802,14.662238],[120.963812,14.662429],[120.963849,14.662442],[120.963934,14.662574],[120.963929,14.663028],[120.964709,14.663227],[120.962951,14.662788],[120.961,14.6623],[120.960705,14.663171],[120.960686,14.663227],[120.960428,14.663153],[120.960293,14.663151],[120.959433,14.663287],[120.95943,14.663574],[120.959319,14.663585],[120.959208,14.663668],[120.959048,14.663678],[120.959023,14.663714],[120.958984,14.663953],[120.95896,14.663965],[120.958946,14.664156],[120.958921,14.664179],[120.958919,14.664323],[120.958709,14.664464],[120.958586,14.664499],[120.958561,14.664535],[120.95852,14.665001],[120.958569,14.665049],[120.958826,14.665099],[120.958936,14.665172],[120.958935,14.665255],[120.95881,14.665493],[120.958785,14.665625],[120.958723,14.665684],[120.9586,14.665695],[120.958256,14.665704],[120.95817,14.665679],[120.95801,14.665761],[120.957949,14.665701],[120.957865,14.665461],[120.958148,14.665404],[120.958137,14.665248],[120.958113,14.665212],[120.957855,14.665234],[120.957818,14.66521],[120.957794,14.665138],[120.957623,14.665136],[120.957575,14.664933],[120.957466,14.6648],[120.957467,14.664728],[120.957297,14.66444],[120.957274,14.664273],[120.957299,14.664261],[120.957385,14.664262],[120.957521,14.664215],[120.95778,14.664038],[120.957978,14.663836],[120.958077,14.663801],[120.958077,14.663766],[120.958004,14.663681],[120.957981,14.663573],[120.957932,14.663561],[120.957823,14.663429],[120.957761,14.66344],[120.957724,14.663487],[120.95765,14.663487],[120.957614,14.663415],[120.957565,14.663402],[120.957146,14.663602],[120.957121,14.663602],[120.957,14.663397],[120.957025,14.66335],[120.957136,14.663339],[120.957185,14.66328],[120.957088,14.663171],[120.956905,14.663086],[120.956646,14.663143],[120.956599,14.662964],[120.956526,14.662915],[120.956502,14.662795],[120.956552,14.66276],[120.956675,14.662737],[120.956712,14.662666],[120.956664,14.66257],[120.956665,14.66245],[120.95653,14.662413],[120.956559,14.661995],[120.956461,14.66197],[120.956449,14.66191],[120.956523,14.661875],[120.956929,14.661819],[120.956942,14.661759],[120.956856,14.661663],[120.956709,14.661673],[120.956611,14.661613],[120.956649,14.661541],[120.956723,14.66153],[120.956723,14.661458],[120.956613,14.661422],[120.956619,14.661405],[120.956647,14.661323]]]]}},{"type":"Feature","properties":{"codes":["CMP"],"name":"CMP","color":"#a8a800"},"geometry":{"type":"MultiPolygon","coordinates":[[[[120.958775,14.660018],[120.958523,14.660056],[120.962,14.6595],[120.966492,14.658781],[120.966289,14.658817],[120.96549,14.658977],[120.964813,14.659067],[120.964788,14.659103],[120.964739,14.659102],[120.964761,14.659401],[120.964651,14.6594],[120.964552,14.659495],[120.96453,14.659208],[120.964457,14.659135],[120.964309,14.659146],[120.964272,14.659182],[120.9641,14.659216],[120.9641,14.65924],[120.963878,14.65925],[120.963854,14.659274],[120.963816,14.659333],[120.963795,14.660301],[120.963856,14.660302],[120.963853,14.660636],[120.963877,14.660696],[120.963853,14.660708],[120.96386,14.66127],[120.963834,14.661437],[120.963856,14.661629],[120.96383,14.661808],[120.963744,14.661807],[120.963683,14.661759],[120.963573,14.661758],[120.963524,14.661709],[120.963414,14.661708],[120.963353,14.66166],[120.963267,14.661659],[120.963132,14.661575],[120.963022,14.661562],[120.962961,14.661513],[120.96285,14.661512],[120.962802,14.661476],[120.962704,14.661463],[120.962643,14.661415],[120.96252,14.661414],[120.962471,14.661365],[120.962361,14.661365],[120.962361,14.661293],[120.962399,14.661209],[120.962423,14.66121],[120.962449,14.661054],[120.962486,14.661043],[120.962549,14.660924],[120.962611,14.660889],[120.962611,14.660853],[120.962673,14.660829],[120.962723,14.660734],[120.962784,14.660711],[120.962822,14.660627],[120.962933,14.660545],[120.963021,14.660378],[120.96291,14.660377],[120.962811,14.660424],[120.962811,14.66046],[120.962762,14.660507],[120.962688,14.660507],[120.962603,14.660398],[120.962455,14.660409],[120.962407,14.660361],[120.962395,14.660289],[120.962334,14.660288],[120.962285,14.660252],[120.962015,14.66025],[120.962205,14.65963],[120.962182,14.659474],[120.959968,14.659825],[120.958775,14.660018]]],[[[120.965158,14.662979],[120.965244,14.663004],[120.965243,14.663063],[120.965267,14.663076],[120.965501,14.663078],[120.9655,14.663137],[120.965647,14.663163],[120.965838,14.663132],[120.965,14.6633],[120.964999,14.6633],[120.964709,14.663227],[120.963929,14.663028],[120.963934,14.662574],[120.963849,14.662442],[120.963812,14.662429],[120.963802,14.662238],[120.963863,14.662203],[120.96406,14.662204],[120.964097,14.662181],[120.96481,14.662115],[120.964811,14.661996],[120.964836,14.661972],[120.964799,14.66196],[120.964775,14.661852],[120.964754,14.661445],[120.964707,14.661266],[120.96472,14.661158],[120.964687,14.660811],[120.964724,14.660788],[120.964749,14.660692],[120.964811,14.660681],[120.964836,14.660645],[120.964839,14.660322],[120.964873,14.660562],[120.96491,14.660598],[120.965155,14.66066],[120.965191,14.66072],[120.965471,14.6623],[120.965433,14.662444],[120.965247,14.662621],[120.965001,14.662667],[120.964999,14.662894],[120.965048,14.662942],[120.965047,14.663002],[120.965133,14.663003],[120.965158,14.662979]]],[[[120.959319,14.663585],[120.95943,14.663574],[120.959433,14.663287],[120.960293,14.663151],[120.960428,14.663153],[120.960686,14.663227],[120.960705,14.663171],[120.959299,14.667318],[120.959537,14.666612],[120.959525,14.666528],[120.959207,14.666441],[120.958852,14.666295],[120.958778,14.666294],[120.958742,14.666246],[120.958644,14.666245],[120.958546,14.666172],[120.958448,14.666172],[120.958363,14.666099],[120.958277,14.666086],[120.958021,14.665833],[120.95801,14.665761],[120.95817,14.665679],[120.958256,14.665704],[120.9586,14.665695],[120.958723,14.665684],[120.958785,14.665625],[120.95881,14.665493],[120.958935,14.665255],[120.958936,14.665172],[120.958826,14.665099],[120.958569,14.665049],[120.95852,14.665001],[120.958561,14.664535],[120.958586,14.664499],[120.958709,14.664464],[120.958919,14.664323],[120.958921,14.664179],[120.958946,14.664156],[120.95896,14.663965],[120.958984,14.663953],[120.959023,14.663714],[120.959048,14.663678],[120.959208,14.663668],[120.959319,14.663585]]]]}},{"type":"Feature","properties":{"codes":["C-1"],"name":"C-1","color":"#ff7f7f"},"geometry":{"type":"MultiPolygon","coordinates":[[[[120.958753,14.661118],[120.958091,14.660932],[120.957993,14.660932],[120.957881,14.661122],[120.957819,14.661157],[120.957758,14.661097],[120.957796,14.661037],[120.957784,14.661001],[120.957686,14.660953],[120.957613,14.660857],[120.957271,14.660674],[120.957185,14.660661],[120.957186,14.660518],[120.956926,14.660516],[120.957,14.6603],[120.958523,14.660056],[120.958775,14.660018],[120.958835,14.660138],[120.958821,14.660329],[120.958844,14.660497],[120.958819,14.660628],[120.958928,14.660713],[120.958851,14.661107],[120.958753,14.661118]]],[[[120.95702,14.661234],[120.956933,14.6614],[120.956859,14.6614],[120.956761,14.661351],[120.956638,14.66135],[120.956647,14.661323],[120.956757,14.661006],[120.95685,14.661029],[120.956861,14.661137],[120.956996,14.661174],[120.95702,14.661234]]],[[[120.958356,14.666828],[120.958501,14.667057],[120.958562,14.667105],[120.958574,14.667177],[120.959009,14.667874],[120.959106,14.667887],[120.959,14.6682],[120.958159,14.66677],[120.958,14.6665],[120.957892,14.666322],[120.956,14.6632],[120.956135,14.66281],[120.956159,14.662744],[120.956343,14.662734],[120.956345,14.662579],[120.95632,14.662555],[120.956295,14.662578],[120.956296,14.662471],[120.956252,14.66247],[120.956548,14.661612],[120.956611,14.661613],[120.956709,14.661673],[120.956856,14.661663],[120.956942,14.661759],[120.956929,14.661819],[120.956523,14.661875],[120.956449,14.66191],[120.956461,14.66197],[120.956559,14.661995],[120.95653,14.662413],[120.956665,14.66245],[120.956664,14.66257],[120.956712,14.662666],[120.956675,14.662737],[120.956552,14.66276],[120.956502,14.662795],[120.956526,14.662915],[120.956599,14.662964],[120.956646,14.663143],[120.956621,14.663179],[120.95656,14.66319],[120.956376,14.663189],[120.9563,14.663379],[120.956299,14.663511],[120.95668,14.663514],[120.956926,14.663397],[120.957,14.663397],[120.957121,14.663602],[120.957146,14.663602],[120.957205,14.663806],[120.957156,14.663829],[120.957166,14.663997],[120.957203,14.664021],[120.957299,14.664261],[120.957274,14.664273],[120.957297,14.66444],[120.957467,14.664728],[120.957466,14.6648],[120.957575,14.664933],[120.957623,14.665136],[120.957794,14.665138],[120.957818,14.66521],[120.957855,14.665234],[120.958113,14.665212],[120.958137,14.665248],[120.958148,14.665404],[120.957865,14.665461],[120.957949,14.665701],[120.95801,14.665761],[120.958021,14.665833],[120.958277,14.666086],[120.958363,14.666099],[120.958448,14.666172],[120.958546,14.666172],[120.958644,14.666245],[120.958742,14.666246],[120.958778,14.666294],[120.958357,14.666721],[120.958356,14.666828]]]]}},{"type":"Feature","properties":{"codes":["INSTITUTIONAL"],"name":"Institutional","color":"#0000ff"},"geometry":{"type":"MultiPolygon","coordinates":[[[[120.956613,14.661422],[120.956723,14.661458],[120.956723,14.66153],[120.956649,14.661541],[120.956611,14.661613],[120.956548,14.661612],[120.956613,14.661422]]],[[[120.956296,14.662471],[120.956295,14.662578],[120.95632,14.662555],[120.956345,14.662579],[120.956343,14.662734],[120.956159,14.662744],[120.956135,14.66281],[120.956184,14.662666],[120.956252,14.66247],[120.956296,14.662471]]],[[[120.956646,14.663143],[120.956905,14.663086],[120.957088,14.663171],[120.957185,14.66328],[120.957136,14.663339],[120.957025,14.66335],[120.957,14.663397],[120.956926,14.663397],[120.95668,14.663514],[120.956299,14.663511],[120.9563,14.663379],[120.956376,14.663189],[120.95656,14.66319],[120.956621,14.663179],[120.956646,14.663143]]],[[[120.958077,14.663766],[120.958077,14.663801],[120.957978,14.663836],[120.95778,14.664038],[120.957521,14.664215],[120.957385,14.664262],[120.957299,14.664261],[120.957203,14.664021],[120.957166,14.663997],[120.957156,14.663829],[120.957205,14.663806],[120.957146,14.663602],[120.957565,14.663402],[120.957614,14.663415],[120.95765,14.663487],[120.957724,14.663487],[120.957761,14.66344],[120.957823,14.663429],[120.957932,14.663561],[120.957981,14.663573],[120.958004,14.663681],[120.958077,14.663766]]]]}},{"type":"Feature","properties":{"codes":["CEMETERY"],"name":"Cemetery","color":"#c89600"},"geometry":{"type":"MultiPolygon","coordinates":[[[[120.958775,14.660018],[120.959968,14.659825],[120.959942,14.65998],[120.960166,14.661022],[120.96014,14.661106],[120.960164,14.661154],[120.96015,14.661405],[120.95996,14.662001],[120.959702,14.662011],[120.959677,14.662034],[120.959358,14.662008],[120.959223,14.662042],[120.959039,14.662029],[120.958989,14.662076],[120.958953,14.662028],[120.958548,14.662024],[120.958536,14.662],[120.95834,14.661963],[120.958315,14.661915],[120.958378,14.661844],[120.958378,14.661784],[120.958122,14.661566],[120.957744,14.661324],[120.957819,14.661157],[120.957881,14.661122],[120.957993,14.660932],[120.958091,14.660932],[120.958753,14.661118],[120.958851,14.661107],[120.958928,14.660713],[120.958819,14.660628],[120.958844,14.660497],[120.958821,14.660329],[120.958835,14.660138],[120.958775,14.660018]]]]}}]}
