{"type":"FeatureCollection","features":[{"type":"Feature","properties":{"codes":["R-2-BASIC","R-2-MAX"],"name":"R-2 Basic or R-2 Max","color":"#ffffb4"},"geometry":{"type":"MultiPolygon","coordinates":[[[[120.969951,14.660929],[120.97006,14.661026],[120.970035,14.661073],[120.969962,14.661073],[120.969632,14.66089],[120.969669,14.660795],[120.969843,14.660617],[120.969906,14.660474],[120.969907,14.660367],[120.969944,14.660295],[120.970015,14.660239],[120.970349,14.660361],[120.970333,14.660705],[120.970223,14.660704],[120.970198,14.66074],[120.970161,14.66074],[120.970086,14.660858],[120.969951,14.660857],[120.969951,14.660929]]],[[[120.969346,14.661199],[120.969397,14.661091],[120.969582,14.660938],[120.969875,14.661132],[120.969873,14.661311],[120.969751,14.661298],[120.969714,14.661321],[120.969688,14.661405],[120.969627,14.661404],[120.969346,14.661199]]],[[[120.971144,14.660708],[120.971,14.6606],[120.973,14.6621],[120.973,14.662378],[120.972946,14.662378],[120.972896,14.662449],[120.972893,14.662748],[120.972854,14.663047],[120.97278,14.663046],[120.972595,14.663164],[120.972409,14.663365],[120.971902,14.663779],[120.971864,14.663839],[120.970813,14.66463],[120.970837,14.66469],[120.971007,14.664883],[120.971068,14.664908],[120.971117,14.665004],[120.971238,14.665124],[120.971287,14.665196],[120.971274,14.665232],[120.971064,14.66541],[120.971002,14.665409],[120.970953,14.665457],[120.970793,14.665443],[120.970522,14.665608],[120.970374,14.665655],[120.970324,14.665786],[120.970237,14.665869],[120.96973,14.666235],[120.969717,14.666282],[120.969791,14.666331],[120.970096,14.666477],[120.970194,14.666562],[120.97028,14.666574],[120.970279,14.666622],[120.970353,14.666623],[120.970351,14.666838],[120.970693,14.666977],[120.971,14.6671],[120.969,14.6663],[120.968516,14.666397],[120.968,14.6665],[120.967,14.6678],[120.966263,14.668021],[120.966268,14.667471],[120.966343,14.667293],[120.966258,14.667232],[120.966259,14.667161],[120.966446,14.666851],[120.966446,14.666792],[120.966336,14.666743],[120.966288,14.666671],[120.966386,14.666636],[120.966472,14.66666],[120.966558,14.666661],[120.966583,14.666637],[120.966721,14.666328],[120.966721,14.666304],[120.966562,14.666243],[120.966587,14.666147],[120.966637,14.666052],[120.966797,14.666066],[120.966834,14.66603],[120.966885,14.665863],[120.966947,14.665768],[120.967069,14.665805],[120.967447,14.666143],[120.967557,14.666204],[120.967681,14.666073],[120.967877,14.666111],[120.968212,14.665743],[120.968237,14.665684],[120.9682,14.665659],[120.968102,14.665659],[120.96798,14.665598],[120.967923,14.665143],[120.967792,14.664688],[120.967731,14.664639],[120.967559,14.664602],[120.967684,14.664364],[120.967746,14.664364],[120.967855,14.664473],[120.967965,14.664534],[120.968039,14.664534],[120.968089,14.664439],[120.967967,14.66433],[120.967955,14.664283],[120.968092,14.664128],[120.968201,14.664213],[120.968188,14.664344],[120.968224,14.664381],[120.968383,14.664466],[120.968469,14.664466],[120.968556,14.664336],[120.968361,14.664179],[120.968263,14.664166],[120.968252,14.664094],[120.968289,14.663987],[120.968204,14.663914],[120.968205,14.663854],[120.968366,14.6637],[120.968317,14.66364],[120.968355,14.663569],[120.968528,14.663403],[120.968601,14.663428],[120.968862,14.663119],[120.968863,14.663083],[120.968974,14.662965],[120.968974,14.662929],[120.968902,14.662844],[120.969001,14.66269],[120.969123,14.662751],[120.969397,14.66243],[120.969189,14.662261],[120.969227,14.662178],[120.969351,14.662071],[120.969401,14.66194],[120.969462,14.661941],[120.969621,14.662074],[120.96967,14.662074],[120.969844,14.661825],[120.969918,14.661766],[120.970041,14.661826],[120.970236,14.661983],[120.970273,14.661984],[120.970322,14.661936],[120.970397,14.661841],[120.970397,14.661782],[120.97019,14.661648],[120.970129,14.661552],[120.970179,14.661517],[120.970291,14.661303],[120.97034,14.661291],[120.970354,14.661184],[120.970477,14.661065],[120.970465,14.661029],[120.97054,14.660946],[120.970663,14.660947],[120.970737,14.660876],[120.971007,14.660879],[120.971094,14.660796],[120.971143,14.660784],[120.971144,14.660708]],[[120.969772,14.664311],[120.969687,14.664214],[120.969602,14.664178],[120.969492,14.664069],[120.969419,14.664044],[120.96927,14.664222],[120.969183,14.664281],[120.969182,14.664401],[120.969341,14.664498],[120.969487,14.664619],[120.969549,14.664595],[120.96971,14.664358],[120.969772,14.664311]]],[[[120.967876,14.660875],[120.967949,14.660971],[120.96812,14.661056],[120.96829,14.661225],[120.968376,14.66125],[120.968486,14.661335],[120.968619,14.661479],[120.968705,14.661504],[120.968937,14.661685],[120.968986,14.661686],[120.969012,14.661542],[120.969173,14.661353],[120.969222,14.661341],[120.969479,14.661511],[120.96954,14.661571],[120.969527,14.661619],[120.969341,14.66176],[120.969292,14.66182],[120.969291,14.661868],[120.969218,14.661831],[120.969217,14.661891],[120.96913,14.661998],[120.96902,14.662009],[120.968473,14.662709],[120.968374,14.66278],[120.96815,14.663065],[120.968137,14.66316],[120.968161,14.663208],[120.968124,14.663244],[120.968026,14.663243],[120.967877,14.663433],[120.967803,14.663432],[120.967743,14.663324],[120.967669,14.663348],[120.967619,14.663407],[120.967606,14.663467],[120.967752,14.663611],[120.967641,14.663742],[120.967603,14.663837],[120.967517,14.66386],[120.967479,14.663956],[120.967281,14.664193],[120.967292,14.664325],[120.967254,14.664384],[120.967192,14.664419],[120.967168,14.664383],[120.967095,14.664359],[120.967033,14.66443],[120.966947,14.664429],[120.966886,14.664369],[120.966824,14.664404],[120.966861,14.664464],[120.966983,14.664549],[120.966982,14.664585],[120.966548,14.665095],[120.966572,14.665167],[120.966522,14.665202],[120.966522,14.665262],[120.966409,14.665464],[120.966195,14.666024],[120.966158,14.666072],[120.965999,14.666023],[120.965986,14.666106],[120.965772,14.666606],[120.965686,14.666618],[120.965295,14.666447],[120.96516,14.666422],[120.96516,14.666398],[120.965001,14.666396],[120.965,14.666482],[120.965,14.6662],[120.965,14.6636],[120.96597,14.663115],[120.965989,14.663106],[120.966,14.6631],[120.966,14.6627],[120.966629,14.660877],[120.966697,14.660888],[120.966794,14.660997],[120.966941,14.661082],[120.967148,14.661263],[120.967521,14.660764],[120.967534,14.660633],[120.967157,14.660283],[120.967096,14.660234],[120.967034,14.660234],[120.966962,14.66015],[120.966937,14.660185],[120.966871,14.660174],[120.966959,14.65992],[120.967012,14.659995],[120.967073,14.659995],[120.967222,14.659865],[120.967419,14.659831],[120.967506,14.659664],[120.967568,14.659617],[120.967606,14.659486],[120.967681,14.659403],[120.967816,14.65932],[120.967829,14.659273],[120.968,14.659077],[120.968,14.6595],[120.969475,14.660041],[120.969394,14.660051],[120.969281,14.66029],[120.969146,14.66024],[120.968987,14.660227],[120.968865,14.660166],[120.968866,14.660059],[120.968817,14.660034],[120.968669,14.660081],[120.968619,14.660128],[120.968484,14.660151],[120.968373,14.660246],[120.968238,14.660244],[120.968165,14.660172],[120.968017,14.660183],[120.967917,14.660373],[120.967843,14.660408],[120.967756,14.660551],[120.967632,14.660681],[120.967632,14.660717],[120.967876,14.660875]]],[[[120.965716,14.667431],[120.965752,14.667467],[120.965714,14.667622],[120.9652,14.66745],[120.965226,14.667283],[120.965006,14.667209],[120.965,14.666943],[120.965,14.666804],[120.965377,14.666926],[120.965413,14.666962],[120.9654,14.667045],[120.965313,14.667212],[120.965312,14.667296],[120.965716,14.667431]]]]}},{"type":"Feature","properties":{"codes":["C-1"],"name":"C-1","color":"#ff7f7f"},"geometry":{"type":"MultiPolygon","coordinates":[[[[120.966263,14.668021],[120.966261,14.668022],[120.96626,14.668022],[120.966165,14.668044],[120.966154,14.667841],[120.966033,14.667649],[120.965763,14.667646],[120.965714,14.667622],[120.965752,14.667467],[120.965716,14.667431],[120.965312,14.667296],[120.965313,14.667212],[120.9654,14.667045],[120.965413,14.666962],[120.965377,14.666926],[120.965,14.666804],[120.965,14.6665],[120.965,14.666482],[120.965001,14.666396],[120.96516,14.666398],[120.96516,14.666422],[120.965295,14.666447],[120.965686,14.666618],[120.965772,14.666606],[120.965986,14.666106],[120.965999,14.666023],[120.966158,14.666072],[120.966195,14.666024],[120.966409,14.665464],[120.966522,14.665262],[120.966522,14.665202],[120.966572,14.665167],[120.966548,14.665095],[120.966982,14.664585],[120.966983,14.664549],[120.966861,14.664464],[120.966824,14.664404],[120.966886,14.664369],[120.966947,14.664429],[120.967033,14.66443],[120.967095,14.664359],[120.967168,14.664383],[120.967192,14.664419],[120.967254,14.664384],[120.967292,14.664325],[120.967281,14.664193],[120.967479,14.663956],[120.967517,14.66386],[120.967603,14.663837],[120.967641,14.663742],[120.967752,14.663611],[120.967606,14.663467],[120.967619,14.663407],[120.967669,14.663348],[120.967743,14.663324],[120.967803,14.663432],[120.967877,14.663433],[120.968026,14.663243],[120.968124,14.663244],[120.968161,14.663208],[120.968137,14.66316],[120.96815,14.663065],[120.968374,14.66278],[120.968473,14.662709],[120.96902,14.662009],[120.96913,14.661998],[120.969217,14.661891],[120.969218,14.661831],[120.969291,14.661868],[120.969292,14.66182],[120.969341,14.66176],[120.969527,14.661619],[120.96954,14.661571],[120.969479,14.661511],[120.969222,14.661341],[120.96926,14.661246],[120.969346,14.661199],[120.969627,14.661404],[120.969688,14.661405],[120.969714,14.661321],[120.969751,14.661298],[120.969873,14.661311],[120.969875,14.661132],[120.969582,14.660938],[120.969595,14.66089],[120.969632,14.66089],[120.969962,14.661073],[120.970035,14.661073],[120.97006,14.661026],[120.969951,14.660929],[120.969951,14.660857],[120.970086,14.660858],[120.970161,14.66074],[120.970198,14.66074],[120.970223,14.660704],[120.970333,14.660705],[120.970349,14.660361],[120.971,14.6606],[120.971144,14.660708],[120.971143,14.660784],[120.971094,14.660796],[120.971007,14.660879],[120.970737,14.660876],[120.970663,14.660947],[120.97054,14.660946],[120.970465,14.661029],[120.970477,14.661065],[120.970354,14.661184],[120.97034,14.661291],[120.970291,14.661303],[120.970179,14.661517],[120.970129,14.661552],[120.969994,14.661515],[120.969958,14.661467],[120.969859,14.661538],[120.969797,14.661645],[120.969918,14.661766],[120.969844,14.661825],[120.96967,14.662074],[120.969621,14.662074],[120.969462,14.661941],[120.969401,14.66194],[120.969351,14.662071],[120.969227,14.662178],[120.969189,14.662261],[120.969397,14.66243],[120.969123,14.662751],[120.969001,14.66269],[120.968902,14.662844],[120.968974,14.662929],[120.968974,14.662965],[120.968863,14.663083],[120.968862,14.663119],[120.968601,14.663428],[120.968528,14.663403],[120.968355,14.663569],[120.968317,14.66364],[120.968366,14.6637],[120.968205,14.663854],[120.968204,14.663914],[120.968289,14.663987],[120.968252,14.664094],[120.968263,14.664166],[120.968251,14.664201],[120.968201,14.664213],[120.968092,14.664128],[120.967994,14.664056],[120.96792,14.664127],[120.967882,14.664174],[120.967882,14.664258],[120.967955,14.664283],[120.967967,14.66433],[120.968089,14.664439],[120.968039,14.664534],[120.967965,14.664534],[120.967855,14.664473],[120.967746,14.664364],[120.967684,14.664364],[120.967559,14.664602],[120.967731,14.664639],[120.967792,14.664688],[120.967923,14.665143],[120.96798,14.665598],[120.967135,14.665351],[120.966852,14.665361],[120.966742,14.665324],[120.966654,14.665502],[120.966629,14.665622],[120.966653,14.665658],[120.96691,14.665732],[120.966947,14.665768],[120.966885,14.665863],[120.966834,14.66603],[120.966797,14.666066],[120.966637,14.666052],[120.966587,14.666147],[120.966562,14.666243],[120.966721,14.666304],[120.966721,14.666328],[120.966583,14.666637],[120.966558,14.666661],[120.966472,14.66666],[120.966386,14.666636],[120.966288,14.666671],[120.966336,14.666743],[120.966446,14.666792],[120.966446,14.666851],[120.966259,14.667161],[120.966258,14.667232],[120.966343,14.667293],[120.966268,14.667471],[120.966263,14.668021]]]]}},{"type":"Feature","properties":{"codes":["C-2"],"name":"C-2","color":"#ff0000"},"geometry":{"type":"MultiPolygon","coordinates":[[[[120.965,14.666943],[120.965006,14.667209],[120.965226,14.667283],[120.9652,14.66745],[120.965714,14.667622],[120.965763,14.667646],[120.966033,14.667649],[120.966154,14.667841],[120.966165,14.668044],[120.96626,14.668022],[120.966,14.6681],[120.965,14.6679],[120.965,14.66782],[120.965,14.666943]]]]}},{"type":"Feature","properties":{"codes":["I-1"],"name":"I-1","color":"#c500ff"},"geometry":{"type":"MultiPolygon","coordinates":[[[[120.967012,14.659995],[120.966959,14.65992],[120.967,14.6598],[120.967,14.6587],[120.968,14.6585],[120.968,14.659077],[120.967829,14.659273],[120.967816,14.65932],[120.967681,14.659403],[120.967606,14.659486],[120.967568,14.659617],[120.967506,14.659664],[120.967419,14.659831],[120.967222,14.659865],[120.967073,14.659995],[120.967012,14.659995]]]]}},{"type":"Feature","properties":{"codes":["I-2"],"name":"I-2","color":"#a900e6"},"geometry":{"type":"MultiPolygon","coordinates":[[[[120.972896,14.662449],[120.972946,14.662378],[120.973,14.662378],[120.973,14.6673],[120.971013,14.666605],[120.971,14.6666],[120.971,14.6671],[120.970693,14.666977],[120.970351,14.666838],[120.970353,14.666623],[120.970279,14.666622],[120.97028,14.666574],[120.970194,14.666562],[120.970096,14.666477],[120.969791,14.666331],[120.969717,14.666282],[120.96973,14.666235],[120.970237,14.665869],[120.970324,14.665786],[120.970374,14.665655],[120.970522,14.665608],[120.970793,14.665443],[120.970953,14.665457],[120.971002,14.665409],[120.971064,14.66541],[120.971274,14.665232],[120.971287,14.665196],[120.971238,14.665124],[120.971117,14.665004],[120.971068,14.664908],[120.971007,14.664883],[120.970837,14.66469],[120.970813,14.66463],[120.971864,14.663839],[120.971902,14.663779],[120.972409,14.663365],[120.972595,14.663164],[120.97278,14.663046],[120.972854,14.663047],[120.972893,14.662748],[120.972896,14.662449]]]]}},{"type":"Feature","properties":{"codes":["INSTITUTIONAL"],"name":"Institutional","color":"#0000ff"},"geometry":{"type":"MultiPolygon","coordinates":[[[[120.967034,14.660234],[120.967096,14.660234],[120.967157,14.660283],[120.967534,14.660633],[120.967521,14.660764],[120.967148,14.661263],[120.966941,14.661082],[120.966794,14.660997],[120.966697,14.660888],[120.966629,14.660877],[120.966871,14.660174],[120.966937,14.660185],[120.966962,14.66015],[120.967034,14.660234]]],[[[120.970397,14.661841],[120.970322,14.661936],[120.970273,14.661984],[120.970236,14.661983],[120.970041,14.661826],[120.969918,14.661766],[120.969797,14.661645],[120.969859,14.661538],[120.969958,14.661467],[120.969994,14.661515],[120.970129,14.661552],[120.97019,14.661648],[120.970397,14.661782],[120.970397,14.661841]]],[[[120.96792,14.664127],[120.967994,14.664056],[120.968092,14.664128],[120.967955,14.664283],[120.967882,14.664258],[120.967882,14.664174],[120.96792,14.664127]]],[[[120.968224,14.664381],[120.968188,14.664344],[120.968201,14.664213],[120.968251,14.664201],[120.968263,14.664166],[120.968361,14.664179],[120.968556,14.664336],[120.968469,14.664466],[120.968383,14.664466],[120.968224,14.664381]]],[[[120.969687,14.664214],[120.969772,14.664311],[120.96971,14.664358],[120.969549,14.664595],[120.969487,14.664619],[120.969341,14.664498],[120.969602,14.664178],[120.969687,14.664214]]]]}},{"type":"Feature","properties":{"codes":["PARKS"],"name":"Parks and Recreation","color":"#38a800"},"geometry":{"type":"MultiPolygon","coordinates":[[[[120.969602,14.664178],[120.969341,14.664498],[120.969182,14.664401],[120.969183,14.664281],[120.96927,14.664222],[120.969419,14.664044],[120.969492,14.664069],[120.969602,14.664178]]]]}},{"type":"Feature","properties":{"codes":["UTILITIES"],"name":"Utilities","color":"#9c9c9c"},"geometry":{"type":"MultiPolygon","coordinates":[[[[120.967135,14.665351],[120.96798,14.665598],[120.968102,14.665659],[120.9682,14.665659],[120.968237,14.665684],[120.968212,14.665743],[120.967877,14.666111],[120.967681,14.666073],[120.967557,14.666204],[120.967447,14.666143],[120.967069,14.665805],[120.966947,14.665768],[120.96691,14.665732],[120.966653,14.665658],[120.966629,14.665622],[120.966654,14.665502],[120.966742,14.665324],[120.966852,14.665361],[120.967135,14.665351]]]]}},{"type":"Feature","properties":{"codes":["CEMETERY"],"name":"Cemetery","color":"#c89600"},"geometry":{"type":"MultiPolygon","coordinates":[[[[120.96926,14.661246],[120.969222,14.661341],[120.969173,14.661353],[120.969012,14.661542],[120.968986,14.661686],[120.968937,14.661685],[120.968705,14.661504],[120.968619,14.661479],[120.968486,14.661335],[120.968376,14.66125],[120.96829,14.661225],[120.96812,14.661056],[120.967949,14.660971],[120.967876,14.660875],[120.967632,14.660717],[120.967632,14.660681],[120.967756,14.660551],[120.967843,14.660408],[120.967917,14.660373],[120.968017,14.660183],[120.968165,14.660172],[120.968238,14.660244],[120.968373,14.660246],[120.968484,14.660151],[120.968619,14.660128],[120.968669,14.660081],[120.968817,14.660034],[120.968866,14.660059],[120.968865,14.660166],[120.968987,14.660227],[120.969146,14.66024],[120.969281,14.66029],[120.969394,14.660051],[120.969475,14.660041],[120.970015,14.660239],[120.969944,14.660295],[120.969907,14.660367],[120.969906,14.660474],[120.969843,14.660617],[120.969669,14.660795],[120.969632,14.66089],[120.969595,14.66089],[120.969582,14.660938],[120.969397,14.661091],[120.969346,14.661199],[120.96926,14.661246]]]]}}]}
